{
  "type" : "FeatureCollection",
  "features" : [{"type":"Feature","id":1,"geometry":{"type":"Polygon","coordinates":[[[106.34609634862076,10.772874390987059],[106.34596610176028,10.773092771310841],[106.34522243840209,10.772659039897691],[106.34535268747851,10.772440661666387],[106.34609634862076,10.772874390987059]]]},"properties":{"OBJECTID":1,"maNhanDang":"","phienBan":0,"ngayPhienBan":1787702400000,"giaTriDoChinhXacMatPhang":0,"nguyenNhanThayDoi":null,"maDoiTuong":"HB02","loaiCayTrong":10,"ten":null,"SHAPE_Length":244.93471284665071,"SHAPE_Area":2647.8650147415719}},{"type":"Feature","id":2,"geometry":{"type":"Polygon","coordinates":[[[106.34634945909953,10.773015603354091],[106.34623510375198,10.773210546116088],[106.34600675980704,10.77307956020795],[106.34612111708999,10.77288461751986],[106.34634945909953,10.773015603354091]]]},"properties":{"OBJECTID":2,"maNhanDang":"","phienBan":0,"ngayPhienBan":1787702400000,"giaTriDoChinhXacMatPhang":0,"nguyenNhanThayDoi":null,"maDoiTuong":"HB02","loaiCayTrong":10,"ten":null,"SHAPE_Length":107.59566649488913,"SHAPE_Area":719.66217718104213}},{"type":"Feature","id":3,"geometry":{"type":"Polygon","coordinates":[[[106.34644500700078,10.773146506442783],[106.34634789902839,10.773300803984133],[106.34623673053707,10.773232447466818],[106.34633383854798,10.77307814995776],[106.34644500700078,10.773146506442783]]]},"properties":{"OBJECTID":3,"maNhanDang":"","phienBan":0,"ngayPhienBan":1787702400000,"giaTriDoChinhXacMatPhang":0,"nguyenNhanThayDoi":null,"maDoiTuong":"HB02","loaiCayTrong":10,"ten":null,"SHAPE_Length":68.836475636060413,"SHAPE_Area":287.79020552402824}},{"type":"Feature","id":4,"geometry":{"type":"Polygon","coordinates":[[[106.34713665908971,10.773447060134066],[106.34697667891173,10.773704276686896],[106.34662834636495,10.773492330777444],[106.34678832491768,10.773235114394605],[106.34713665908971,10.773447060134066]]]},"properties":{"OBJECTID":4,"maNhanDang":"","phienBan":0,"ngayPhienBan":1787702400000,"giaTriDoChinhXacMatPhang":0,"nguyenNhanThayDoi":null,"maDoiTuong":"HB02","loaiCayTrong":10,"ten":null,"SHAPE_Length":156.26018165178897,"SHAPE_Area":1493.9789007181137}},{"type":"Feature","id":5,"geometry":{"type":"Polygon","coordinates":[[[106.34795431162107,10.773932220902433],[106.34777291459976,10.774236278856296],[106.34719511936865,10.773899354305939],[106.34737651680511,10.77359529666348],[106.34795431162107,10.773932220902433]]]},"properties":{"OBJECTID":5,"maNhanDang":"","phienBan":0,"ngayPhienBan":1787702400000,"giaTriDoChinhXacMatPhang":0,"nguyenNhanThayDoi":null,"maDoiTuong":"HB02","loaiCayTrong":10,"ten":null,"SHAPE_Length":224.81441883770736,"SHAPE_Area":2864.4742645846163}},{"type":"Feature","id":6,"geometry":{"type":"Polygon","coordinates":[[[106.34381431004235,10.777093775667254],[106.34367970778302,10.777425267951701],[106.34287974742398,10.777005772136489],[106.34301872949283,10.776712164330068],[106.34381431004235,10.777093775667254]]]},"properties":{"OBJECTID":6,"maNhanDang":"","phienBan":0,"ngayPhienBan":1787702400000,"giaTriDoChinhXacMatPhang":0,"nguyenNhanThayDoi":null,"maDoiTuong":"HB02","loaiCayTrong":10,"ten":null,"SHAPE_Length":271.10105627469756,"SHAPE_Area":3678.9617418570056}},{"type":"Feature","id":7,"geometry":{"type":"Polygon","coordinates":[[[106.34494745897497,10.779208611678014],[106.34476853616788,10.779517512917101],[106.34448815163256,10.779365030789231],[106.34460157008967,10.77919981167514],[106.34470198955344,10.779009490796746],[106.34477842908593,10.77886248785147],[106.34481685127368,10.778787777205469],[106.34482439308408,10.778724425260551],[106.34481245991353,10.778564988853505],[106.34480539193748,10.778456161722975],[106.34479326214601,10.778347449184663],[106.3447793294511,10.778188578958451],[106.34476770396202,10.778040515500251],[106.34475386745559,10.77796507160312],[106.34473266858794,10.777924223574704],[106.34470170780203,10.777889925484411],[106.3446782848485,10.777873136144388],[106.34462197227639,10.777840004169734],[106.34448654089945,10.777772979301668],[106.34430088906086,10.777690711783602],[106.34414438846264,10.777623640378245],[106.34389498523673,10.777520523398458],[106.34403504066952,10.777263628540295],[106.34449267301953,10.777485191411076],[106.34457396751527,10.777479710280515],[106.34460485433399,10.777424188226128],[106.34480578895287,10.777623720249421],[106.34493983294051,10.777786976183384],[106.34510313800459,10.778124581706253],[106.34513978220772,10.778432260722225],[106.34513695253546,10.778683259926966],[106.34494745897497,10.779208611678014]]]},"properties":{"OBJECTID":7,"maNhanDang":"","phienBan":0,"ngayPhienBan":1787702400000,"giaTriDoChinhXacMatPhang":0,"nguyenNhanThayDoi":null,"maDoiTuong":"HB02","loaiCayTrong":10,"ten":null,"SHAPE_Length":670.16560418221081,"SHAPE_Area":9630.0029019483263}}]
}