{
  "type" : "FeatureCollection",
  "features" : [{"type":"Feature","id":1,"geometry":{"type":"Polygon","coordinates":[[[106.34975062986403,10.779137655222669],[106.34979224659129,10.779086019430464],[106.34983355961866,10.779031096925122],[106.34997108360908,10.778915684839797],[106.34994269786786,10.778872559243178],[106.34982397196913,10.778848586469719],[106.3497845833881,10.77882252529057],[106.34984908380032,10.778748400982614],[106.34990958815595,10.778660812453319],[106.35006793917408,10.778742579686694],[106.35015636152352,10.778663751979554],[106.35012902726584,10.77849184571329],[106.35014513527894,10.77844440367155],[106.35014029880304,10.778365810861033],[106.35013365742674,10.778244348369379],[106.35010497676777,10.778139574798189],[106.35002380263911,10.778032265640602],[106.34990425835501,10.777973958672694],[106.34971529849675,10.777913768990169],[106.34961308346936,10.777843317076849],[106.34953427930442,10.777739514701814],[106.34945758599963,10.777671031288618],[106.3493748410225,10.777638895220234],[106.34919726271195,10.777655387682495],[106.34919773620565,10.776856557348744],[106.34930591954463,10.776853813937327],[106.34959898331508,10.776907746832384],[106.349838056053,10.777017295525498],[106.3501068319564,10.777177249570034],[106.35034621603864,10.777443233127089],[106.3503725462068,10.777457782367794],[106.35050702545449,10.777656993543264],[106.35059456953356,10.777818864220677],[106.35074190192564,10.778278664386333],[106.35078249335373,10.778450608162292],[106.350812840411,10.778633801581636],[106.35084067700346,10.77876880156316],[106.35089035775447,10.778931152396408],[106.35092320897,10.778994285937483],[106.35096174173265,10.779068238626611],[106.35103237125776,10.779189584168545],[106.3511302322384,10.779283276587169],[106.35124776284425,10.779377037478787],[106.3513706589988,10.779484070892529],[106.35145182292383,10.7795397602683],[106.35156530447108,10.779626907285975],[106.35159954248675,10.779671352180832],[106.35176678133023,10.779798630624637],[106.35181516912965,10.779836862176154],[106.35180719311693,10.779868259765456],[106.35176833159517,10.779923520408639],[106.35170909173885,10.780017336047884],[106.35159382039537,10.78007510658653],[106.35151256213375,10.780114257168369],[106.35145951156902,10.780225971802338],[106.35142898192947,10.780392673249608],[106.35138291265775,10.780368551894957],[106.35130602343547,10.780323523460188],[106.35114803338553,10.780226105411717],[106.35099859493688,10.780138879743969],[106.35074805046636,10.779986193695722],[106.35054201812842,10.779870063273657],[106.35045071350294,10.779804142664736],[106.35018467722374,10.779643236274072],[106.35010128965017,10.779573222737884],[106.35005766062616,10.779503171040902],[106.34994097144262,10.77935535029539],[106.3499349886027,10.779185030040225],[106.34990647343913,10.779137973679644],[106.34987218898819,10.779132253850133],[106.34978123273699,10.77921342980971],[106.34976195285017,10.779186191439226],[106.34975062986403,10.779137655222669]]]},"properties":{"OBJECTID":1,"maNhanDang":" ","phienBan":0,"ngayPhienBan":1787702400000,"giaTriDoChinhXacMatPhang":0,"nguyenNhanThayDoi":null,"maDoiTuong":"KL02","ten":null,"SHAPE_Length":1181.8161683810454,"SHAPE_Area":38814.438465925363}},{"type":"Feature","id":2,"geometry":{"type":"Polygon","coordinates":[[[106.35176828883677,10.781125942576772],[106.35175652859651,10.781134577847723],[106.35174162032,10.781133203653846],[106.35172977959294,10.781128485575785],[106.35172428803,10.781102864206176],[106.35172261183602,10.781083023449694],[106.35164675506576,10.781065314902827],[106.35166959126393,10.780965512540636],[106.35169485199273,10.780886662423026],[106.35171117340907,10.780863856527109],[106.35173030269289,10.780844154363361],[106.35175905877338,10.780803778508323],[106.35176497677449,10.780787237415447],[106.35176755248646,10.780772906098946],[106.35176742861671,10.780762108715644],[106.35167466236166,10.780692555966768],[106.35171341939032,10.78061318509029],[106.35175446965056,10.780554037104874],[106.35181957313554,10.780447571698465],[106.35181693153068,10.780425064828837],[106.3517206174197,10.780369721432233],[106.35167700744246,10.780308120545243],[106.35169176046546,10.780236441336864],[106.35176757275819,10.780121438551266],[106.3518017808825,10.780029786215216],[106.35184349942303,10.779958191130213],[106.35183217779418,10.77989303771472],[106.35187360003269,10.779809933149609],[106.35196372705563,10.779729492336243],[106.35201005015445,10.7797023978576],[106.35209101861513,10.779605418089957],[106.35211431062875,10.779545970063309],[106.35215457712388,10.77945513135818],[106.35222531513597,10.77933692246638],[106.35255546832772,10.778772206562586],[106.35261547294823,10.778680186636498],[106.35267051122777,10.778656958210201],[106.35269669009011,10.778645912565333],[106.35274936560461,10.77864612832613],[106.35280190248092,10.778687407502797],[106.35279605458273,10.778735908284403],[106.35304898494032,10.778882353395328],[106.35307288455684,10.778944021392713],[106.35342859388557,10.779125610816886],[106.35347555547399,10.779171260281119],[106.35349683789499,10.779231846613634],[106.35304420861077,10.779948832920857],[106.35300402559993,10.779989647917176],[106.35298863499588,10.780016954462649],[106.35295661488144,10.780050034389035],[106.35298010561722,10.780095971001277],[106.35296712391576,10.780147819071411],[106.35294116309969,10.780179341197174],[106.35289214118005,10.780183234722363],[106.35284461785723,10.780223369640705],[106.35282924797204,10.78026982399485],[106.35279727269645,10.780279515751479],[106.35275486799351,10.78031867240899],[106.3527388532333,10.780362724022064],[106.35270534774322,10.780407578149651],[106.35262445051373,10.780540348396949],[106.35256469648404,10.780665185638471],[106.35252375107154,10.780748459330294],[106.35248606770062,10.780766226700585],[106.35245053966419,10.780764288710829],[106.35236310625159,10.780709570162262],[106.35229026463115,10.780667662286962],[106.35215557013332,10.78061027084331],[106.35210133396853,10.780640690627592],[106.35207042149941,10.780614685615685],[106.35201599909519,10.780703211120457],[106.3519871914523,10.780752124480035],[106.35190074679802,10.780899922379767],[106.35188529285419,10.780924417259598],[106.35182215627302,10.781024497746413],[106.35176828883677,10.781125942576772]]]},"properties":{"OBJECTID":2,"maNhanDang":" ","phienBan":0,"ngayPhienBan":1787702400000,"giaTriDoChinhXacMatPhang":0,"nguyenNhanThayDoi":null,"maDoiTuong":"KL02","ten":null,"SHAPE_Length":786.98548114253492,"SHAPE_Area":25394.77093263443}}]
}