{
  "type" : "FeatureCollection",
  "features" : [{"type":"Feature","id":1,"geometry":{"type":"Polygon","coordinates":[[[106.33737765808247,10.768056677763701],[106.33735234336669,10.768095471797642],[106.33714430977822,10.767972298886635],[106.33716828435755,10.767932711798606],[106.33737765808247,10.768056677763701]]]},"properties":{"OBJECTID":1,"maNhanDang":"","phienBan":0,"ngayPhienBan":-2209161600000,"giaTriDoChinhXacMatPhang":0,"nguyenNhanThayDoi":null,"maDoiTuong":"CA04","loaiNha":11,"mucDoKienCo":1,"chieuCao":null,"soTang":0,"ten":null,"SHAPE_Length":63.41913142114155,"SHAPE_Area":135.78069142389887}},{"type":"Feature","id":2,"geometry":{"type":"Polygon","coordinates":[[[106.34528629473211,10.779907048740535],[106.34527942286552,10.779917639887129],[106.34527267538473,10.779913360198764],[106.34527954725149,10.779902769052319],[106.34528629473211,10.779907048740535]]]},"properties":{"OBJECTID":2,"maNhanDang":"","phienBan":0,"ngayPhienBan":-2209161600000,"giaTriDoChinhXacMatPhang":0,"nguyenNhanThayDoi":null,"maDoiTuong":"CA04","loaiNha":11,"mucDoKienCo":1,"chieuCao":null,"soTang":0,"ten":null,"SHAPE_Length":4.5370064859124692,"SHAPE_Area":1.2201942407266295}},{"type":"Feature","id":3,"geometry":{"type":"Polygon","coordinates":[[[106.3452621720277,10.779933496552248],[106.34525672413034,10.779941895237842],[106.34524226603048,10.77993272654086],[106.34524771575688,10.779924327851978],[106.3452621720277,10.779933496552248]]]},"properties":{"OBJECTID":3,"maNhanDang":"","phienBan":0,"ngayPhienBan":-2209161600000,"giaTriDoChinhXacMatPhang":0,"nguyenNhanThayDoi":null,"maDoiTuong":"CA04","loaiNha":11,"mucDoKienCo":1,"chieuCao":null,"soTang":0,"ten":null,"SHAPE_Length":5.9640421347624786,"SHAPE_Area":2.0730694203767719}}]
}