{
  "type" : "FeatureCollection",
  "features" : [{"type":"Feature","id":1,"geometry":{"type":"LineString","coordinates":[[106.34854097855197,10.770931112378308],[106.34877188085564,10.771059645035134],[106.34908036963623,10.771231035497928],[106.34926698653463,10.771334862988622],[106.3494884428432,10.771458169572155],[106.34949006497139,10.771455417979283],[106.34926873579901,10.771331668143333],[106.3490823386884,10.771228012007354],[106.34877397777764,10.771056548971627],[106.34854219733222,10.770927837192193],[106.34854097855197,10.770931112378308]]},"properties":{"OBJECTID":1,"maNhanDang":"","phienBan":0,"ngayPhienBan":-2209161600000,"giaTriDoChinhXacMatPhang":0,"nguyenNhanThayDoi":null,"maDoiTuong":"KG01","ten":null,"chatLieuKe":1,"loaiThanhPhan":1,"SHAPE_Length":238.59188004144357}},{"type":"Feature","id":2,"geometry":{"type":"LineString","coordinates":[[106.3486089656854,10.7708082137069],[106.34884076518895,10.770937350329644],[106.34914349605687,10.771105469984253],[106.34956946567063,10.771343065940847],[106.34956800812883,10.771345817215765],[106.34914148989542,10.771108222317649],[106.34883876863373,10.770940337707982],[106.34860693294699,10.770811400055152],[106.3486089656854,10.7708082137069]]},"properties":{"OBJECTID":2,"maNhanDang":"","phienBan":0,"ngayPhienBan":-2209161600000,"giaTriDoChinhXacMatPhang":0,"nguyenNhanThayDoi":null,"maDoiTuong":"KG01","ten":null,"chatLieuKe":1,"loaiThanhPhan":1,"SHAPE_Length":241.90883754595384}}]
}