{
  "type" : "FeatureCollection",
  "features" : [{"type":"Feature","id":1,"geometry":{"type":"Polygon","coordinates":[[[106.35900106065164,10.786708709026978],[106.35728704425225,10.789282194447692],[106.35379535443599,10.787193057062629],[106.34991083419216,10.785017787749332],[106.35150150355527,10.782456756424194],[106.35152075303121,10.782419051466839],[106.35153340883717,10.782378652992751],[106.35153911272852,10.782336704551103],[106.35153770324666,10.782294393565602],[106.35152922028945,10.782252917722388],[106.35151390398177,10.782213451067449],[106.35149218787838,10.782177110773192],[106.35146468669141,10.782144925514944],[106.35142705603097,10.782102723915155],[106.35139503764847,10.782056120644752],[106.35136914103086,10.782005857270157],[106.35134977825352,10.781952733598558],[106.35133725742331,10.781897594951126],[106.35133177777573,10.781841318711979],[106.35133342650474,10.781784800366967],[106.3513421773752,10.781728939254412],[106.35135789114044,10.78167462425453],[106.35138031775789,10.781622719645295],[106.3514091003679,10.781574051349756],[106.35155113511613,10.781341983269554],[106.35065155528534,10.780803791779531],[106.35264860635154,10.777540782524273],[106.35108364587309,10.77660437921708],[106.35348125328856,10.772730053696852],[106.3550379057438,10.773636767859161],[106.35280010986079,10.777293235492369],[106.35456235343348,10.778347621640982],[106.35462079112614,10.778379228755377],[106.35468172255152,10.778405711485666],[106.35474469937625,10.778426874971931],[106.35480925821687,10.778442563493249],[106.35487492404947,10.778452661613489],[106.35494121370489,10.778457095030683],[106.35493871585649,10.778276846652346],[106.35980923765818,10.778210810282456],[106.35989391770472,10.778212537064544],[106.35997828065364,10.778220059358725],[106.36006193032647,10.778233341839419],[106.36014447389441,10.778252322130514],[106.36022552372303,10.778276911098306],[106.36030469919272,10.778306993270077],[106.36038162848604,10.778342427376367],[106.36045595033386,10.778383047014405],[106.36054053871919,10.778433176952305],[106.36316472605712,10.774145123059053],[106.36829656498904,10.774003481295752],[106.36785627319367,10.774634587211251],[106.3676917211051,10.774875975698951],[106.36666100613741,10.776423684452499],[106.36637613047645,10.776761030038275],[106.36069401572941,10.785292865214963],[106.3605260016332,10.785183475612598],[106.36047434633728,10.785254239774282],[106.36041720203266,10.785320650350441],[106.36035493412705,10.785382282680471],[106.36028794079081,10.785438742658133],[106.36021665041105,10.785489669251652],[106.36014151885209,10.785534736812325],[106.36006302654064,10.785573657156876],[106.35998167539364,10.785606181410232],[106.35989798560874,10.785632101596947],[106.35981249233798,10.785651251971103],[106.35972574226572,10.785663510076155],[106.35963829011293,10.785668797527991],[106.35955069508998,10.785667080516145],[106.35946351732083,10.78565837002],[106.35937731426135,10.785642721738586],[106.35929263713462,10.785620235734408],[106.35921002740619,10.785591055793601],[106.35913001332172,10.785555368506493],[106.35905310652905,10.785513402074461],[106.35876908348843,10.785977513710673],[106.35884506349066,10.786022972280326],[106.35889160265924,10.786054407785119],[106.35893419608603,10.786091012227041],[106.35897227272135,10.786132294850695],[106.35900532207214,10.786177702180344],[106.35903290104606,10.786226625440362],[106.35905463989209,10.786278408717072],[106.35907024715773,10.786332357752586],[106.35907951359651,10.786387749252711],[106.35908231497338,10.786443840584138],[106.3590786137303,10.786499879730931],[106.35906845948981,10.786555115376791],[106.35905198838971,10.78660880697795],[106.35902942125787,10.786660234691633],[106.35900106065164,10.786708709026978]]]},"properties":{"OBJECTID":1,"Shape_Length":7537.4204858593148,"Shape_Area":1600000.1286287589}}]
}