{
  "type" : "FeatureCollection",
  "features" : [{"type":"Feature","id":1,"geometry":{"type":"Polygon","coordinates":[[[106.36850404662412,10.774343925285359],[106.36838381253908,10.774548349464446],[106.36834095320474,10.774523719757498],[106.36846118731269,10.774319296497742],[106.36850404662412,10.774343925285359]]]},"properties":{"OBJECTID":1,"maNhanDang":"","phienBan":0,"ngayPhienBan":-2209161600000,"giaTriDoChinhXacMatPhang":0,"nguyenNhanThayDoi":null,"maDoiTuong":"CA04","loaiNha":2,"mucDoKienCo":1,"chieuCao":null,"soTang":0,"ten":null,"SHAPE_Length":63.155833846721009,"SHAPE_Area":141.80592158761308}},{"type":"Feature","id":2,"geometry":{"type":"Polygon","coordinates":[[[106.36471513828194,10.780023464046709],[106.36461300947911,10.780173155107093],[106.36457625705671,10.780148647507042],[106.36467838678516,10.77999895645619],[106.36471513828194,10.780023464046709]]]},"properties":{"OBJECTID":2,"maNhanDang":"","phienBan":0,"ngayPhienBan":-2209161600000,"giaTriDoChinhXacMatPhang":0,"nguyenNhanThayDoi":null,"maDoiTuong":"CA04","loaiNha":2,"mucDoKienCo":1,"chieuCao":null,"soTang":0,"ten":null,"SHAPE_Length":49.640194031384084,"SHAPE_Area":96.824353398547515}},{"type":"Feature","id":3,"geometry":{"type":"Polygon","coordinates":[[[106.36079024334603,10.785914157376174],[106.36069020161648,10.786067757003279],[106.36065911570672,10.786047968014936],[106.36075915744664,10.785894368397159],[106.36079024334603,10.785914157376174]]]},"properties":{"OBJECTID":3,"maNhanDang":"","phienBan":0,"ngayPhienBan":-2209161600000,"giaTriDoChinhXacMatPhang":0,"nguyenNhanThayDoi":null,"maDoiTuong":"CA04","loaiNha":2,"mucDoKienCo":1,"chieuCao":null,"soTang":0,"ten":null,"SHAPE_Length":48.501178784268468,"SHAPE_Area":81.703668197767115}},{"type":"Feature","id":4,"geometry":{"type":"Polygon","coordinates":[[[106.36090637118635,10.786076745769892],[106.36087690572504,10.786118634565286],[106.36082069583642,10.786079972463348],[106.36085016038793,10.786038083674782],[106.36090637118635,10.786076745769892]]]},"properties":{"OBJECTID":4,"maNhanDang":"","phienBan":0,"ngayPhienBan":-2209161600000,"giaTriDoChinhXacMatPhang":0,"nguyenNhanThayDoi":null,"maDoiTuong":"CA04","loaiNha":2,"mucDoKienCo":2,"chieuCao":null,"soTang":0,"ten":null,"SHAPE_Length":26.263858842240364,"SHAPE_Area":42.261131140495259}}]
}