{
  "type" : "FeatureCollection",
  "features" : [{"type":"Feature","id":1,"geometry":{"type":"Polygon","coordinates":[[[106.34543852811748,10.770757596186883],[106.34544488806489,10.770769509024165],[106.34543527179217,10.770766299863979],[106.34543852811748,10.770757596186883]]]},"properties":{"OBJECTID":1,"Shape_Length":3.6264013658822769,"Shape_Area":0.56943399979256459}},{"type":"Feature","id":2,"geometry":{"type":"Polygon","coordinates":[[[106.34544779728806,10.770760986833247],[106.34544488806489,10.770769509024165],[106.34543852811748,10.770757596186883],[106.34544779728806,10.770760986833247]]]},"properties":{"OBJECTID":2,"Shape_Length":3.5657169808416658,"Shape_Area":0.53744300013684476}},{"type":"Feature","id":3,"geometry":{"type":"Polygon","coordinates":[[[106.34670445725625,10.772242466293367],[106.34669504474006,10.772245249143177],[106.34669883293918,10.772239197053592],[106.34670445725625,10.772242466293367]]]},"properties":{"OBJECTID":3,"Shape_Length":2.5751983039089499,"Shape_Area":0.28078375932008193}},{"type":"Feature","id":4,"geometry":{"type":"Polygon","coordinates":[[[106.34670445725625,10.772242466293367],[106.34670073165057,10.772248729821424],[106.34669504474006,10.772245249143177],[106.34670445725625,10.772242466293367]]]},"properties":{"OBJECTID":4,"Shape_Length":2.6096303402706562,"Shape_Area":0.29387448085802464}},{"type":"Feature","id":5,"geometry":{"type":"Polygon","coordinates":[[[106.34662458185279,10.77237445557498],[106.34661516933171,10.772377238422607],[106.34661895753401,10.772371186333849],[106.34662458185279,10.77237445557498]]]},"properties":{"OBJECTID":5,"Shape_Length":2.575198304743223,"Shape_Area":0.28078375996800303}},{"type":"Feature","id":6,"geometry":{"type":"Polygon","coordinates":[[[106.34662458185279,10.77237445557498],[106.34662085624394,10.772380719102179],[106.34661516933171,10.772377238422607],[106.34662458185279,10.77237445557498]]]},"properties":{"OBJECTID":6,"Shape_Length":2.6096303363169997,"Shape_Area":0.293874479718924}},{"type":"Feature","id":7,"geometry":{"type":"Polygon","coordinates":[[[106.34658648701513,10.772438349155388],[106.34657707449168,10.772441132001962],[106.34658086269549,10.772435079913627],[106.34658648701513,10.772438349155388]]]},"properties":{"OBJECTID":7,"Shape_Length":2.575198306437974,"Shape_Area":0.28078376027934415}},{"type":"Feature","id":8,"geometry":{"type":"Polygon","coordinates":[[[106.34658648701513,10.772438349155388],[106.34658276140476,10.77244461268219],[106.34657707449168,10.772441132001962],[106.34658648701513,10.772438349155388]]]},"properties":{"OBJECTID":8,"Shape_Length":2.6096303376835017,"Shape_Area":0.29387447989876242}},{"type":"Feature","id":9,"geometry":{"type":"Polygon","coordinates":[[[106.34637087872353,10.772481998006818],[106.3463557987865,10.772485634369815],[106.34636149576342,10.772476573390611],[106.34637087872353,10.772481998006818]]]},"properties":{"OBJECTID":9,"Shape_Length":4.0663620860160137,"Shape_Area":0.70113750025648625}},{"type":"Feature","id":10,"geometry":{"type":"Polygon","coordinates":[[[106.34637087872353,10.772481998006818],[106.34636528129185,10.772491462022254],[106.3463557987865,10.772485634369815],[106.34637087872353,10.772481998006818]]]},"properties":{"OBJECTID":10,"Shape_Length":4.1312619023805137,"Shape_Area":0.74008710082092288}},{"type":"Feature","id":11,"geometry":{"type":"Polygon","coordinates":[[[106.34673226255703,10.772522610730393],[106.34672300640408,10.772525865219425],[106.34672647787207,10.772519629303241],[106.34673226255703,10.772522610730393]]]},"properties":{"OBJECTID":11,"Shape_Length":2.5751566024727839,"Shape_Area":0.28077950017963726}},{"type":"Feature","id":12,"geometry":{"type":"Polygon","coordinates":[[[106.34642110019711,10.772526003266849],[106.3464089725219,10.772529055329372],[106.34641344025292,10.772521683760889],[106.34642110019711,10.772526003266849]]]},"properties":{"OBJECTID":12,"Shape_Length":3.2835766204999741,"Shape_Area":0.45824589940456528}},{"type":"Feature","id":13,"geometry":{"type":"Polygon","coordinates":[[[106.34673226255703,10.772522610730393],[106.34672886464786,10.77252905444748],[106.34672300640408,10.772525865219425],[106.34673226255703,10.772522610730393]]]},"properties":{"OBJECTID":13,"Shape_Length":2.6095650813048867,"Shape_Area":0.29386099932299553}},{"type":"Feature","id":14,"geometry":{"type":"Polygon","coordinates":[[[106.34642110019711,10.772526003266849],[106.34641669880952,10.77253363327975],[106.3464089725219,10.772529055329372],[106.34642110019711,10.772526003266849]]]},"properties":{"OBJECTID":14,"Shape_Length":3.3252857113825467,"Shape_Area":0.47842800067675118}},{"type":"Feature","id":15,"geometry":{"type":"Polygon","coordinates":[[[106.34677347038142,10.772558333665764],[106.34676782845808,10.772568879074342],[106.34676600952267,10.772567821165566],[106.34677245386841,10.772557540016841],[106.34677354602987,10.772558209658722],[106.34677347038142,10.772558333665764]]]},"properties":{"OBJECTID":15,"Shape_Length":3.0447765703805372,"Shape_Area":0.24738598044814769}},{"type":"Feature","id":16,"geometry":{"type":"Polygon","coordinates":[[[106.34678203888853,10.772563416279889],[106.34677610656151,10.772572754373215],[106.34678157199747,10.772563130579819],[106.34678203888853,10.772563416279889]]]},"properties":{"OBJECTID":16,"Shape_Length":2.500584066988357,"Shape_Area":0.036620980050491615}},{"type":"Feature","id":17,"geometry":{"type":"Polygon","coordinates":[[[106.34677610656151,10.772572754373215],[106.34677566901892,10.772573442329854],[106.34676782845808,10.772568879074342],[106.34677347038142,10.772558333665764],[106.34677354602987,10.772558209658722],[106.34678157199747,10.772563130579819],[106.34677610656151,10.772572754373215]]]},"properties":{"OBJECTID":17,"Shape_Length":4.6740920465485702,"Shape_Area":1.3433539749716406}},{"type":"Feature","id":18,"geometry":{"type":"Polygon","coordinates":[[[106.34666454397335,10.772763900113642],[106.34654700486307,10.77296430533687],[106.34654105970074,10.772960628060305],[106.34665836548358,10.772760603009328],[106.34673596383654,10.772628437281925],[106.34676782845808,10.772568879074342],[106.34677566901892,10.772573442329854],[106.34677610656151,10.772572754373215],[106.34677574936563,10.772573382504719],[106.34674188626617,10.772631716795818],[106.34666454397335,10.772763900113642]]]},"properties":{"OBJECTID":18,"Shape_Length":101.81686545371451,"Shape_Area":38.867654893957258}},{"type":"Feature","id":19,"geometry":{"type":"Polygon","coordinates":[[[106.34654870583441,10.772965357145164],[106.34654605783091,10.772965828755972],[106.34654698481283,10.772964338827066],[106.34654700486307,10.77296430533687],[106.34654870583441,10.772965357145164]]]},"properties":{"OBJECTID":19,"Shape_Length":0.71145762284599345,"Shape_Area":0.021690549888728931}},{"type":"Feature","id":20,"geometry":{"type":"Polygon","coordinates":[[[106.34654605783091,10.772965828755972],[106.3465381238766,10.772967242664825],[106.34654099773199,10.772960733958994],[106.34654105970074,10.772960628060305],[106.34654700486307,10.77296430533687],[106.34654698481283,10.772964338827066],[106.34654605783091,10.772965828755972]]]},"properties":{"OBJECTID":20,"Shape_Length":2.6454619754507349,"Shape_Area":0.36875709400447898}},{"type":"Feature","id":21,"geometry":{"type":"Polygon","coordinates":[[[106.3465381238766,10.772967242664825],[106.34653367885177,10.772968035072338],[106.34653893394334,10.772959313072967],[106.34654105970074,10.772960628060305],[106.34654099773199,10.772960733958994],[106.3465381238766,10.772967242664825]]]},"properties":{"OBJECTID":21,"Shape_Length":2.6902038375608637,"Shape_Area":0.31710042961599838}},{"type":"Feature","id":22,"geometry":{"type":"Polygon","coordinates":[[[106.3465381238766,10.772967242664825],[106.34653692863748,10.772969950025516],[106.34653367885177,10.772968035072338],[106.3465381238766,10.772967242664825]]]},"properties":{"OBJECTID":22,"Shape_Length":1.2344507493314256,"Shape_Area":0.067058625045202686}},{"type":"Feature","id":23,"geometry":{"type":"Polygon","coordinates":[[[106.34654605783091,10.772965828755972],[106.34654173191099,10.772972779647979],[106.34653692863748,10.772969950025516],[106.3465381238766,10.772967242664825],[106.34654605783091,10.772965828755972]]]},"properties":{"OBJECTID":23,"Shape_Length":2.7226253404170717,"Shape_Area":0.39566750975429243}},{"type":"Feature","id":24,"geometry":{"type":"Polygon","coordinates":[[[106.34654870583441,10.772965357145164],[106.34654339068088,10.772973760113823],[106.34654173191099,10.772972779647979],[106.34654605783091,10.772965828755972],[106.34654870583441,10.772965357145164]]]},"properties":{"OBJECTID":24,"Shape_Length":2.5045830938100888,"Shape_Area":0.2148102554526598}},{"type":"Feature","id":25,"geometry":{"type":"Polygon","coordinates":[[[106.34698190062238,10.773017702129753],[106.34688585265189,10.773178924979234],[106.3467434083577,10.773093554085774],[106.34659349368368,10.773003514275029],[106.34654339068088,10.772973760113823],[106.34654870583441,10.772965357145164],[106.34654700486307,10.77296430533687],[106.34666454397335,10.772763900113642],[106.34674188626617,10.772631716795818],[106.34677574936563,10.772573382504719],[106.34677610656151,10.772572754373215],[106.34678203888853,10.772563416279889],[106.34678157199747,10.772563130579819],[106.34684651390985,10.772448788166717],[106.34696067393121,10.772263644191687],[106.34713913641794,10.772368365640224],[106.34731022954242,10.772468616855535],[106.3471896205598,10.772670896983792],[106.3470789257974,10.772855934913158],[106.34698190062238,10.773017702129753]]]},"properties":{"OBJECTID":25,"Shape_Length":270.60740320945285,"Shape_Area":4039.0784133846587}},{"type":"Feature","id":26,"geometry":{"type":"Polygon","coordinates":[[[106.34698578310821,10.773025162498444],[106.346889363773,10.773188176177559],[106.34674060410542,10.773099653103001],[106.3465896096212,10.773009181402545],[106.34653427052946,10.772975971911523],[106.34653692863748,10.772969950025516],[106.34654173191099,10.772972779647979],[106.34654339068088,10.772973760113823],[106.34659349368368,10.773003514275029],[106.3467434083577,10.773093554085774],[106.34688585265189,10.773178924979234],[106.34698190062238,10.773017702129753],[106.3470789257974,10.772855934913158],[106.3471896205598,10.772670896983792],[106.34731022954242,10.772468616855535],[106.34713913641794,10.772368365640224],[106.34696067393121,10.772263644191687],[106.34684651390985,10.772448788166717],[106.34678157199747,10.772563130579819],[106.34677354602987,10.772558209658722],[106.34684247395427,10.772444935448441],[106.34695897557818,10.772255564829116],[106.34714191416924,10.772362745842649],[106.34731925985714,10.772466764135881],[106.34719533133638,10.772673489782299],[106.34708464716334,10.772859260012234],[106.34698578310821,10.773025162498444]]]},"properties":{"OBJECTID":26,"Shape_Length":443.49745382647154,"Shape_Area":158.74727040973792}},{"type":"Feature","id":27,"geometry":{"type":"Polygon","coordinates":[[[106.34579855808229,10.777357530569082],[106.34580157703404,10.777365723120575],[106.34578997947153,10.777360391356147],[106.34579855808229,10.777357530569082]]]},"properties":{"OBJECTID":27,"Shape_Length":3.3532925808728065,"Shape_Area":0.47730924028982058}},{"type":"Feature","id":28,"geometry":{"type":"Polygon","coordinates":[[[106.34580157703404,10.777365723120575],[106.34579286729645,10.777368860813727],[106.34578997947153,10.777360391356147],[106.34580157703404,10.777365723120575]]]},"properties":{"OBJECTID":28,"Shape_Length":3.4011222409006656,"Shape_Area":0.5009612403338759}},{"type":"Feature","id":29,"geometry":{"type":"Polygon","coordinates":[[[106.34465597984386,10.777397401141222],[106.34465683205501,10.777412308077418],[106.34464894555045,10.777405352620042],[106.34465597984386,10.777397401141222]]]},"properties":{"OBJECTID":29,"Shape_Length":3.9756771351521789,"Shape_Area":0.67519950021255015}},{"type":"Feature","id":30,"geometry":{"type":"Polygon","coordinates":[[[106.34466401263158,10.777404347276704],[106.34465683205501,10.777412308077418],[106.34465597984386,10.777397401141222],[106.34466401263158,10.777404347276704]]]},"properties":{"OBJECTID":30,"Shape_Length":3.998348923399591,"Shape_Area":0.68843649999687817}},{"type":"Feature","id":31,"geometry":{"type":"Polygon","coordinates":[[[106.34466984966005,10.777415320861252],[106.34465731841334,10.777417849263134],[106.34466249770266,10.777410507089929],[106.34466984966005,10.777415320861252]]]},"properties":{"OBJECTID":31,"Shape_Length":3.3531736288330456,"Shape_Area":0.47727249963903801}},{"type":"Feature","id":32,"geometry":{"type":"Polygon","coordinates":[[[106.34466984966005,10.777415320861252],[106.34466476401754,10.777422856331766],[106.34465731841334,10.777417849263134],[106.34466984966005,10.777415320861252]]]},"properties":{"OBJECTID":32,"Shape_Length":3.3854819020241109,"Shape_Area":0.49335490030400675}},{"type":"Feature","id":33,"geometry":{"type":"Polygon","coordinates":[[[106.34601465213771,10.77743348769166],[106.34600192266883,10.777434716436449],[106.34600784552966,10.777427946009912],[106.34601465213771,10.77743348769166]]]},"properties":{"OBJECTID":33,"Shape_Length":3.3531699235812353,"Shape_Area":0.477242399275361}},{"type":"Feature","id":34,"geometry":{"type":"Polygon","coordinates":[[[106.34601465213771,10.77743348769166],[106.34600875913485,10.777440561837665],[106.34600192266883,10.777434716436449],[106.34601465213771,10.77743348769166]]]},"properties":{"OBJECTID":34,"Shape_Length":3.4008991362679852,"Shape_Area":0.50084783981287839}},{"type":"Feature","id":35,"geometry":{"type":"Polygon","coordinates":[[[106.3455464376982,10.777477052388086],[106.34555153748933,10.777484165066372],[106.34553892763016,10.777482052017691],[106.3455464376982,10.777477052388086]]]},"properties":{"OBJECTID":35,"Shape_Length":3.3532236514718257,"Shape_Area":0.47728769980607105}},{"type":"Feature","id":36,"geometry":{"type":"Polygon","coordinates":[[[106.34555153748933,10.777484165066372],[106.34554397680603,10.777489464953797],[106.34553892763016,10.777482052017691],[106.34555153748933,10.777484165066372]]]},"properties":{"OBJECTID":36,"Shape_Length":3.4008352370507038,"Shape_Area":0.50083437942861664}},{"type":"Feature","id":37,"geometry":{"type":"Polygon","coordinates":[[[106.34482480929454,10.777548866032024],[106.34482566151479,10.777563772967143],[106.34481777500244,10.777556817514544],[106.34482480929454,10.777548866032024]]]},"properties":{"OBJECTID":37,"Shape_Length":3.9756771344076176,"Shape_Area":0.67519949980369953}},{"type":"Feature","id":38,"geometry":{"type":"Polygon","coordinates":[[[106.34483284209009,10.777555812162621],[106.34482566151479,10.777563772967143],[106.34482480929454,10.777548866032024],[106.34483284209009,10.777555812162621]]]},"properties":{"OBJECTID":38,"Shape_Length":3.9983489241288432,"Shape_Area":0.68843650043925642}},{"type":"Feature","id":39,"geometry":{"type":"Polygon","coordinates":[[[106.34600454979412,10.777688030469529],[106.3459921458237,10.777691111988226],[106.34599698815373,10.777683548034439],[106.34600454979412,10.777688030469529]]]},"properties":{"OBJECTID":39,"Shape_Length":3.3530558458352973,"Shape_Area":0.4772122402993722}},{"type":"Feature","id":40,"geometry":{"type":"Polygon","coordinates":[[[106.34536854577658,10.777689987404651],[106.34535626338516,10.777693520713402],[106.34536082010335,10.777685783730821],[106.34536854577658,10.777689987404651]]]},"properties":{"OBJECTID":40,"Shape_Length":3.3536269859348709,"Shape_Area":0.47737560036508891}},{"type":"Feature","id":41,"geometry":{"type":"Polygon","coordinates":[[[106.34600454979412,10.777688030469529],[106.34599978302703,10.777695890822054],[106.3459921458237,10.777691111988226],[106.34600454979412,10.777688030469529]]]},"properties":{"OBJECTID":41,"Shape_Length":3.4008668410340781,"Shape_Area":0.50085694041917228}},{"type":"Feature","id":42,"geometry":{"type":"Polygon","coordinates":[[[106.34536854577658,10.777689987404651],[106.34536407558619,10.777698017148683],[106.34535626338516,10.777693520713402],[106.34536854577658,10.777689987404651]]]},"properties":{"OBJECTID":42,"Shape_Length":3.4013325713187261,"Shape_Area":0.5009729396446212}},{"type":"Feature","id":43,"geometry":{"type":"Polygon","coordinates":[[[106.34496682782301,10.777726660810561],[106.34496379153101,10.777741285900685],[106.34495796805454,10.777732565308163],[106.34496682782301,10.777726660810561]]]},"properties":{"OBJECTID":43,"Shape_Length":3.9757116621753235,"Shape_Area":0.67526558032145911}},{"type":"Feature","id":44,"geometry":{"type":"Polygon","coordinates":[[[106.34497279400001,10.777735410060004],[106.34496379153101,10.777741285900685],[106.34496682782301,10.777726660810561],[106.34497279400001,10.777735410060004]]]},"properties":{"OBJECTID":44,"Shape_Length":3.9982343222981376,"Shape_Area":0.68841450076294319}},{"type":"Feature","id":45,"geometry":{"type":"Polygon","coordinates":[[[106.34496720977364,10.777747009507641],[106.34497277338065,10.777753774131627],[106.34496004992394,10.777752487623198],[106.34496720977364,10.777747009507641]]]},"properties":{"OBJECTID":45,"Shape_Length":3.3532120325151138,"Shape_Area":0.47727514009917582}},{"type":"Feature","id":46,"geometry":{"type":"Polygon","coordinates":[[[106.34497277338065,10.777753774131627],[106.34496558120985,10.777759556086187],[106.34496004992394,10.777752487623198],[106.34497277338065,10.777753774131627]]]},"properties":{"OBJECTID":46,"Shape_Length":3.4010024477592582,"Shape_Area":0.50090829928904845}},{"type":"Feature","id":47,"geometry":{"type":"Polygon","coordinates":[[[106.34507771176318,10.777924043824873],[106.34507223449587,10.777937957558775],[106.34506797478674,10.777928394962647],[106.34507771176318,10.777924043824873]]]},"properties":{"OBJECTID":47,"Shape_Length":3.9757504122767817,"Shape_Area":0.67525441954390886}},{"type":"Feature","id":48,"geometry":{"type":"Polygon","coordinates":[[[106.34508210690417,10.777933658598391],[106.34507223449587,10.777937957558775],[106.34507771176318,10.777924043824873],[106.34508210690417,10.777933658598391]]]},"properties":{"OBJECTID":48,"Shape_Length":3.9982308021020967,"Shape_Area":0.68837993937832254}},{"type":"Feature","id":49,"geometry":{"type":"Polygon","coordinates":[[[106.34583779064862,10.777965529437539],[106.34582538666494,10.777968610950195],[106.34583022900333,10.777961046998692],[106.34583779064862,10.777965529437539]]]},"properties":{"OBJECTID":49,"Shape_Length":3.3530558441337752,"Shape_Area":0.47721223991026562}},{"type":"Feature","id":50,"geometry":{"type":"Polygon","coordinates":[[[106.34583779064862,10.777965529437539],[106.34583302387308,10.777973389787824],[106.34582538666494,10.777968610950195],[106.34583779064862,10.777965529437539]]]},"properties":{"OBJECTID":50,"Shape_Length":3.4008668393443906,"Shape_Area":0.50085694001479208}},{"type":"Feature","id":51,"geometry":{"type":"Polygon","coordinates":[[[106.34528489243969,10.778109696451748],[106.34528652591391,10.778118264158492],[106.34527595806442,10.778111140284309],[106.34528489243969,10.778109696451748]]]},"properties":{"OBJECTID":51,"Shape_Length":3.3531847894833842,"Shape_Area":0.47723712046285449}},{"type":"Feature","id":52,"geometry":{"type":"Polygon","coordinates":[[[106.34528652591391,10.778118264158492],[106.34527741829959,10.778119959663096],[106.34527595806442,10.778111140284309],[106.34528652591391,10.778118264158492]]]},"properties":{"OBJECTID":52,"Shape_Length":3.400798290746545,"Shape_Area":0.50078739984397069}},{"type":"Feature","id":53,"geometry":{"type":"Polygon","coordinates":[[[106.34515508670223,10.778144417269806],[106.3451479693896,10.778157585562584],[106.34514489386598,10.778147588534457],[106.34515508670223,10.778144417269806]]]},"properties":{"OBJECTID":53,"Shape_Length":3.9758317924151401,"Shape_Area":0.67529034031668655}},{"type":"Feature","id":54,"geometry":{"type":"Polygon","coordinates":[[[106.34515829037477,10.778154482763073],[106.3451479693896,10.778157585562584],[106.34515508670223,10.778144417269806],[106.34515829037477,10.778154482763073]]]},"properties":{"OBJECTID":54,"Shape_Length":3.9983599663813103,"Shape_Area":0.68844390000442646}},{"type":"Feature","id":55,"geometry":{"type":"Polygon","coordinates":[[[106.3451471804342,10.778166508713529],[106.34514155000882,10.778177864146434],[106.34513883395832,10.778169323833094],[106.3451471804342,10.778166508713529]]]},"properties":{"OBJECTID":55,"Shape_Length":3.3534878899602476,"Shape_Area":0.47736979980085492}},{"type":"Feature","id":56,"geometry":{"type":"Polygon","coordinates":[[[106.34515017289155,10.778175182302252],[106.34514155000882,10.778177864146434],[106.3451471804342,10.778166508713529],[106.34515017289155,10.778175182302252]]]},"properties":{"OBJECTID":56,"Shape_Length":3.4010470903358319,"Shape_Area":0.50089195945697373}},{"type":"Feature","id":57,"geometry":{"type":"Polygon","coordinates":[[[106.34566600817473,10.778250777059828],[106.34565360417741,10.778253858566268],[106.34565844469564,10.778246294620624],[106.34566600817473,10.778250777059828]]]},"properties":{"OBJECTID":57,"Shape_Length":3.353119902609822,"Shape_Area":0.47724606024183941}},{"type":"Feature","id":58,"geometry":{"type":"Polygon","coordinates":[[[106.34566600817473,10.778250777059828],[106.34566124139052,10.7782586374078],[106.34565360417741,10.778253858566268],[106.34566600817473,10.778250777059828]]]},"properties":{"OBJECTID":58,"Shape_Length":3.4008668410340781,"Shape_Area":0.50085694041917228}},{"type":"Feature","id":59,"geometry":{"type":"Polygon","coordinates":[[[106.34544772237432,10.778327195116656],[106.34545490990298,10.778337654368524],[106.34544580653018,10.778335928765008],[106.34544772237432,10.778327195116656]]]},"properties":{"OBJECTID":59,"Shape_Length":3.400827733492723,"Shape_Area":0.5008615200180444}},{"type":"Feature","id":60,"geometry":{"type":"Polygon","coordinates":[[[106.34545657005717,10.77832909299012],[106.34545490990298,10.778337654368524],[106.34544772237432,10.778327195116656],[106.34545657005717,10.77832909299012]]]},"properties":{"OBJECTID":60,"Shape_Length":3.3529755573928428,"Shape_Area":0.47719782011469486}},{"type":"Feature","id":61,"geometry":{"type":"Polygon","coordinates":[[[106.34519567000687,10.778365481582743],[106.34518600370323,10.778376953261724],[106.34518503960635,10.778366547142229],[106.34519567000687,10.778365481582743]]]},"properties":{"OBJECTID":61,"Shape_Length":3.9758733944148559,"Shape_Area":0.67527263856595821}},{"type":"Feature","id":62,"geometry":{"type":"Polygon","coordinates":[[[106.34519674766892,10.778375979701961],[106.34518600370323,10.778376953261724],[106.34519567000687,10.778365481582743],[106.34519674766892,10.778375979701961]]]},"properties":{"OBJECTID":62,"Shape_Length":3.9985808466559947,"Shape_Area":0.6885307594728598}},{"type":"Feature","id":63,"geometry":{"type":"Polygon","coordinates":[[[106.34518218287273,10.778572117302458],[106.34517220965495,10.778580032850902],[106.34517341750109,10.778571161333039],[106.34518218287273,10.778572117302458]]]},"properties":{"OBJECTID":63,"Shape_Length":3.3531606241216148,"Shape_Area":0.47730439930742086}},{"type":"Feature","id":64,"geometry":{"type":"Polygon","coordinates":[[[106.34518218287273,10.778572117302458],[106.34518116751303,10.778581225324123],[106.34517220965495,10.778580032850902],[106.34518218287273,10.778572117302458]]]},"properties":{"OBJECTID":64,"Shape_Length":3.4006460795354321,"Shape_Area":0.50078553927408065}},{"type":"Feature","id":65,"geometry":{"type":"Polygon","coordinates":[[[106.34519555261171,10.778591435688849],[106.34518401734674,10.778601073832329],[106.3451848966407,10.77859066055515],[106.34519555261171,10.778591435688849]]]},"properties":{"OBJECTID":65,"Shape_Length":3.9759592331391396,"Shape_Area":0.67525175950135086}},{"type":"Feature","id":66,"geometry":{"type":"Polygon","coordinates":[[[106.34519555261171,10.778591435688849],[106.34519476863085,10.778601959082838],[106.34518401734674,10.778601073832329],[106.34519555261171,10.778591435688849]]]},"properties":{"OBJECTID":66,"Shape_Length":3.998629348708755,"Shape_Area":0.6884904393630451}},{"type":"Feature","id":67,"geometry":{"type":"Polygon","coordinates":[[[106.34507975549715,10.779034033093154],[106.34506566432373,10.77903939614469],[106.34506994684271,10.779029844264384],[106.34507975549715,10.779034033093154]]]},"properties":{"OBJECTID":67,"Shape_Length":3.9754278590948449,"Shape_Area":0.67515811911522328}},{"type":"Feature","id":68,"geometry":{"type":"Polygon","coordinates":[[[106.34507975549715,10.779034033093154],[106.34507552445049,10.779043720489366],[106.34506566432373,10.77903939614469],[106.34507975549715,10.779034033093154]]]},"properties":{"OBJECTID":68,"Shape_Length":3.9980709520599351,"Shape_Area":0.68837718095101763}},{"type":"Feature","id":69,"geometry":{"type":"Polygon","coordinates":[[[106.34506188580889,10.779040195392177],[106.34505018065605,10.779045286246962],[106.34505367020017,10.779037028749539],[106.34506188580889,10.779040195392177]]]},"properties":{"OBJECTID":69,"Shape_Length":3.3526841791813187,"Shape_Area":0.47714454070679752}},{"type":"Feature","id":70,"geometry":{"type":"Polygon","coordinates":[[[106.34506188580889,10.779040195392177],[106.34505851934335,10.779048732923515],[106.34505018065605,10.779045286246962],[106.34506188580889,10.779040195392177]]]},"properties":{"OBJECTID":70,"Shape_Length":3.4004486889265002,"Shape_Area":0.5007591602774264}}]
}