{
  "type" : "FeatureCollection",
  "features" : [{"type":"Feature","id":1,"geometry":{"type":"Point","coordinates":[106.35080587708755,10.780862105966891]},"properties":{"OBJECTID":1,"maNhanDang":"DC","phienBan":0,"ngayPhienBan":1787702400000,"giaTriDoChinhXacMatPhang":0,"nguyenNhanThayDoi":null,"maDoiTuong":"BC03","soHieuDiem":"DC21     ","doCao":1.2689999999999999,"loaiMoc":1,"loaiCapHang":5}},{"type":"Feature","id":2,"geometry":{"type":"Point","coordinates":[106.35247959942228,10.78185313482938]},"properties":{"OBJECTID":2,"maNhanDang":"DC","phienBan":0,"ngayPhienBan":1787702400000,"giaTriDoChinhXacMatPhang":0,"nguyenNhanThayDoi":null,"maDoiTuong":"BC03","soHieuDiem":"DC23     ","doCao":1.925,"loaiMoc":1,"loaiCapHang":5}},{"type":"Feature","id":3,"geometry":{"type":"Point","coordinates":[106.35415337600251,10.782693259386143]},"properties":{"OBJECTID":3,"maNhanDang":"DC","phienBan":0,"ngayPhienBan":1787702400000,"giaTriDoChinhXacMatPhang":0,"nguyenNhanThayDoi":null,"maDoiTuong":"BC03","soHieuDiem":"DC24     ","doCao":1.7190000000000001,"loaiMoc":1,"loaiCapHang":5}},{"type":"Feature","id":4,"geometry":{"type":"Point","coordinates":[106.35566519059313,10.783480214827234]},"properties":{"OBJECTID":4,"maNhanDang":"DC","phienBan":0,"ngayPhienBan":1787702400000,"giaTriDoChinhXacMatPhang":0,"nguyenNhanThayDoi":null,"maDoiTuong":"BC03","soHieuDiem":"DC25     ","doCao":1.909,"loaiMoc":1,"loaiCapHang":5}},{"type":"Feature","id":5,"geometry":{"type":"Point","coordinates":[106.35649592697278,10.781811157245413]},"properties":{"OBJECTID":5,"maNhanDang":"DC","phienBan":0,"ngayPhienBan":1787702400000,"giaTriDoChinhXacMatPhang":0,"nguyenNhanThayDoi":null,"maDoiTuong":"BC03","soHieuDiem":"DC26     ","doCao":2.1299999999999999,"loaiMoc":1,"loaiCapHang":5}},{"type":"Feature","id":6,"geometry":{"type":"Point","coordinates":[106.35481927512738,10.781011518337838]},"properties":{"OBJECTID":6,"maNhanDang":"DC","phienBan":0,"ngayPhienBan":1787702400000,"giaTriDoChinhXacMatPhang":0,"nguyenNhanThayDoi":null,"maDoiTuong":"BC03","soHieuDiem":"DC27     ","doCao":1.9610000000000001,"loaiMoc":1,"loaiCapHang":5}},{"type":"Feature","id":7,"geometry":{"type":"Point","coordinates":[106.35332890645235,10.780218926992218]},"properties":{"OBJECTID":7,"maNhanDang":"DC","phienBan":0,"ngayPhienBan":1787702400000,"giaTriDoChinhXacMatPhang":0,"nguyenNhanThayDoi":null,"maDoiTuong":"BC03","soHieuDiem":"DC28     ","doCao":2.4180000000000001,"loaiMoc":1,"loaiCapHang":5}},{"type":"Feature","id":8,"geometry":{"type":"Point","coordinates":[106.35731653021959,10.780300649868501]},"properties":{"OBJECTID":8,"maNhanDang":"DC","phienBan":0,"ngayPhienBan":1787702400000,"giaTriDoChinhXacMatPhang":0,"nguyenNhanThayDoi":null,"maDoiTuong":"BC03","soHieuDiem":"DC29     ","doCao":1.6040000000000001,"loaiMoc":1,"loaiCapHang":5}},{"type":"Feature","id":9,"geometry":{"type":"Point","coordinates":[106.35572931510535,10.779731003964837]},"properties":{"OBJECTID":9,"maNhanDang":"DC","phienBan":0,"ngayPhienBan":1787702400000,"giaTriDoChinhXacMatPhang":0,"nguyenNhanThayDoi":null,"maDoiTuong":"BC03","soHieuDiem":"DC30     ","doCao":1.8460000000000001,"loaiMoc":1,"loaiCapHang":5}},{"type":"Feature","id":10,"geometry":{"type":"Point","coordinates":[106.35397768481631,10.778773433194642]},"properties":{"OBJECTID":10,"maNhanDang":"DC","phienBan":0,"ngayPhienBan":1787702400000,"giaTriDoChinhXacMatPhang":0,"nguyenNhanThayDoi":null,"maDoiTuong":"BC03","soHieuDiem":"DC31     ","doCao":1.6479999999999999,"loaiMoc":1,"loaiCapHang":5}},{"type":"Feature","id":11,"geometry":{"type":"Point","coordinates":[106.35734800319904,10.784435233835122]},"properties":{"OBJECTID":11,"maNhanDang":"DC","phienBan":0,"ngayPhienBan":1787702400000,"giaTriDoChinhXacMatPhang":0,"nguyenNhanThayDoi":null,"maDoiTuong":"BC03","soHieuDiem":"DC33     ","doCao":2.2749999999999999,"loaiMoc":1,"loaiCapHang":5}},{"type":"Feature","id":12,"geometry":{"type":"Point","coordinates":[106.35882677344607,10.785247434809111]},"properties":{"OBJECTID":12,"maNhanDang":"DC","phienBan":0,"ngayPhienBan":1787702400000,"giaTriDoChinhXacMatPhang":0,"nguyenNhanThayDoi":null,"maDoiTuong":"BC03","soHieuDiem":"DC34     ","doCao":1.9750000000000001,"loaiMoc":1,"loaiCapHang":5}},{"type":"Feature","id":13,"geometry":{"type":"Point","coordinates":[106.36012279270507,10.78600677343783]},"properties":{"OBJECTID":13,"maNhanDang":"DC","phienBan":0,"ngayPhienBan":1787702400000,"giaTriDoChinhXacMatPhang":0,"nguyenNhanThayDoi":null,"maDoiTuong":"BC03","soHieuDiem":"DC35     ","doCao":2.371,"loaiMoc":1,"loaiCapHang":5}},{"type":"Feature","id":14,"geometry":{"type":"Point","coordinates":[106.36303617803557,10.782963659631216]},"properties":{"OBJECTID":14,"maNhanDang":"DC","phienBan":0,"ngayPhienBan":1787702400000,"giaTriDoChinhXacMatPhang":0,"nguyenNhanThayDoi":null,"maDoiTuong":"BC03","soHieuDiem":"DC38     ","doCao":2.081,"loaiMoc":1,"loaiCapHang":5}},{"type":"Feature","id":15,"geometry":{"type":"Point","coordinates":[106.36378330129011,10.781729383640346]},"properties":{"OBJECTID":15,"maNhanDang":"DC","phienBan":0,"ngayPhienBan":1787702400000,"giaTriDoChinhXacMatPhang":0,"nguyenNhanThayDoi":null,"maDoiTuong":"BC03","soHieuDiem":"DC39     ","doCao":1.5169999999999999,"loaiMoc":1,"loaiCapHang":5}},{"type":"Feature","id":16,"geometry":{"type":"Point","coordinates":[106.36516673347903,10.77965408487958]},"properties":{"OBJECTID":16,"maNhanDang":"DC","phienBan":0,"ngayPhienBan":1787702400000,"giaTriDoChinhXacMatPhang":0,"nguyenNhanThayDoi":null,"maDoiTuong":"BC03","soHieuDiem":"DC40     ","doCao":1.421,"loaiMoc":1,"loaiCapHang":5}},{"type":"Feature","id":17,"geometry":{"type":"Point","coordinates":[106.36661289784699,10.777500794327187]},"properties":{"OBJECTID":17,"maNhanDang":"DC","phienBan":0,"ngayPhienBan":1787702400000,"giaTriDoChinhXacMatPhang":0,"nguyenNhanThayDoi":null,"maDoiTuong":"BC03","soHieuDiem":"DC41     ","doCao":1.7729999999999999,"loaiMoc":1,"loaiCapHang":5}},{"type":"Feature","id":18,"geometry":{"type":"Point","coordinates":[106.3652080395641,10.774135455713063]},"properties":{"OBJECTID":18,"maNhanDang":"DC","phienBan":0,"ngayPhienBan":1787702400000,"giaTriDoChinhXacMatPhang":0,"nguyenNhanThayDoi":null,"maDoiTuong":"BC03","soHieuDiem":"DC42     ","doCao":1.649,"loaiMoc":1,"loaiCapHang":5}},{"type":"Feature","id":19,"geometry":{"type":"Point","coordinates":[106.36308296144409,10.774268201058074]},"properties":{"OBJECTID":19,"maNhanDang":"DC","phienBan":0,"ngayPhienBan":1787702400000,"giaTriDoChinhXacMatPhang":0,"nguyenNhanThayDoi":null,"maDoiTuong":"BC03","soHieuDiem":"DC43     ","doCao":1.7769999999999999,"loaiMoc":1,"loaiCapHang":5}},{"type":"Feature","id":20,"geometry":{"type":"Point","coordinates":[106.35550817744569,10.773347804394763]},"properties":{"OBJECTID":20,"maNhanDang":"DC","phienBan":0,"ngayPhienBan":1787702400000,"giaTriDoChinhXacMatPhang":0,"nguyenNhanThayDoi":null,"maDoiTuong":"BC03","soHieuDiem":"DC44     ","doCao":2.1539999999999999,"loaiMoc":1,"loaiCapHang":5}},{"type":"Feature","id":21,"geometry":{"type":"Point","coordinates":[106.35373886262973,10.772334698687967]},"properties":{"OBJECTID":21,"maNhanDang":"DC","phienBan":0,"ngayPhienBan":1787702400000,"giaTriDoChinhXacMatPhang":0,"nguyenNhanThayDoi":null,"maDoiTuong":"BC03","soHieuDiem":"DC45     ","doCao":2.2029999999999998,"loaiMoc":1,"loaiCapHang":5}},{"type":"Feature","id":22,"geometry":{"type":"Point","coordinates":[106.35245552364761,10.773582905374772]},"properties":{"OBJECTID":22,"maNhanDang":"DC","phienBan":0,"ngayPhienBan":1787702400000,"giaTriDoChinhXacMatPhang":0,"nguyenNhanThayDoi":null,"maDoiTuong":"BC03","soHieuDiem":"DC66     ","doCao":2.165,"loaiMoc":1,"loaiCapHang":5}},{"type":"Feature","id":23,"geometry":{"type":"Point","coordinates":[106.35388564272432,10.774356397582128]},"properties":{"OBJECTID":23,"maNhanDang":"DC","phienBan":0,"ngayPhienBan":1787702400000,"giaTriDoChinhXacMatPhang":0,"nguyenNhanThayDoi":null,"maDoiTuong":"BC03","soHieuDiem":"DC67     ","doCao":2.1520000000000001,"loaiMoc":1,"loaiCapHang":5}},{"type":"Feature","id":24,"geometry":{"type":"Point","coordinates":[106.35524285401112,10.775101166419191]},"properties":{"OBJECTID":24,"maNhanDang":"DC","phienBan":0,"ngayPhienBan":1787702400000,"giaTriDoChinhXacMatPhang":0,"nguyenNhanThayDoi":null,"maDoiTuong":"BC03","soHieuDiem":"DC68     ","doCao":2.0150000000000001,"loaiMoc":1,"loaiCapHang":5}},{"type":"Feature","id":25,"geometry":{"type":"Point","coordinates":[106.3677556943788,10.774120795635774]},"properties":{"OBJECTID":25,"maNhanDang":"GPS","phienBan":0,"ngayPhienBan":1787702400000,"giaTriDoChinhXacMatPhang":0,"nguyenNhanThayDoi":null,"maDoiTuong":"BC03","soHieuDiem":"GPS02","doCao":1.4430000000000001,"loaiMoc":1,"loaiCapHang":5}},{"type":"Feature","id":26,"geometry":{"type":"Point","coordinates":[106.34871977978594,10.780021039839646]},"properties":{"OBJECTID":26,"maNhanDang":"GPS","phienBan":0,"ngayPhienBan":1787702400000,"giaTriDoChinhXacMatPhang":0,"nguyenNhanThayDoi":null,"maDoiTuong":"BC03","soHieuDiem":"GPS03","doCao":1.4139999999999999,"loaiMoc":1,"loaiCapHang":5}}]
}