{
  "type" : "FeatureCollection",
  "features" : [{"type":"Feature","id":1,"geometry":{"type":"Point","coordinates":[106.35057654463695,10.77044822650706]},"properties":{"OBJECTID":1,"maNhanDang":"","phienBan":0,"ngayPhienBan":1787702400000,"giaTriDoChinhXacMatPhang":0,"nguyenNhanThayDoi":null,"maDoiTuong":"CR06","chieuCao":null}},{"type":"Feature","id":2,"geometry":{"type":"Point","coordinates":[106.35089292200665,10.770631195820325]},"properties":{"OBJECTID":2,"maNhanDang":"","phienBan":0,"ngayPhienBan":1787702400000,"giaTriDoChinhXacMatPhang":0,"nguyenNhanThayDoi":null,"maDoiTuong":"CR06","chieuCao":null}},{"type":"Feature","id":3,"geometry":{"type":"Point","coordinates":[106.35089292200665,10.770631195820325]},"properties":{"OBJECTID":3,"maNhanDang":"","phienBan":0,"ngayPhienBan":1787702400000,"giaTriDoChinhXacMatPhang":0,"nguyenNhanThayDoi":null,"maDoiTuong":"CR06","chieuCao":null}},{"type":"Feature","id":4,"geometry":{"type":"Point","coordinates":[106.35057654463695,10.77044822650706]},"properties":{"OBJECTID":4,"maNhanDang":"","phienBan":0,"ngayPhienBan":1787702400000,"giaTriDoChinhXacMatPhang":0,"nguyenNhanThayDoi":null,"maDoiTuong":"CR06","chieuCao":null}},{"type":"Feature","id":5,"geometry":{"type":"Point","coordinates":[106.34517305216295,10.779214412997822]},"properties":{"OBJECTID":5,"maNhanDang":"","phienBan":0,"ngayPhienBan":1787702400000,"giaTriDoChinhXacMatPhang":0,"nguyenNhanThayDoi":null,"maDoiTuong":"CR06","chieuCao":null}},{"type":"Feature","id":6,"geometry":{"type":"Point","coordinates":[106.34517305216295,10.779214412997822]},"properties":{"OBJECTID":6,"maNhanDang":"","phienBan":0,"ngayPhienBan":1787702400000,"giaTriDoChinhXacMatPhang":0,"nguyenNhanThayDoi":null,"maDoiTuong":"CR06","chieuCao":null}},{"type":"Feature","id":7,"geometry":{"type":"Point","coordinates":[106.34485900785569,10.779727943307536]},"properties":{"OBJECTID":7,"maNhanDang":"","phienBan":0,"ngayPhienBan":1787702400000,"giaTriDoChinhXacMatPhang":0,"nguyenNhanThayDoi":null,"maDoiTuong":"CR06","chieuCao":null}},{"type":"Feature","id":8,"geometry":{"type":"Point","coordinates":[106.34485900785569,10.779727943307536]},"properties":{"OBJECTID":8,"maNhanDang":"","phienBan":0,"ngayPhienBan":1787702400000,"giaTriDoChinhXacMatPhang":0,"nguyenNhanThayDoi":null,"maDoiTuong":"CR06","chieuCao":null}},{"type":"Feature","id":9,"geometry":{"type":"Point","coordinates":[106.34177544080876,10.775440444464552]},"properties":{"OBJECTID":9,"maNhanDang":"","phienBan":0,"ngayPhienBan":1787702400000,"giaTriDoChinhXacMatPhang":0,"nguyenNhanThayDoi":null,"maDoiTuong":"CR06","chieuCao":null}},{"type":"Feature","id":10,"geometry":{"type":"Point","coordinates":[106.34177546999106,10.775440404628506]},"properties":{"OBJECTID":10,"maNhanDang":"","phienBan":0,"ngayPhienBan":1787702400000,"giaTriDoChinhXacMatPhang":0,"nguyenNhanThayDoi":null,"maDoiTuong":"CR06","chieuCao":null}},{"type":"Feature","id":11,"geometry":{"type":"Point","coordinates":[106.34141796147048,10.775238485925048]},"properties":{"OBJECTID":11,"maNhanDang":"","phienBan":0,"ngayPhienBan":1787702400000,"giaTriDoChinhXacMatPhang":0,"nguyenNhanThayDoi":null,"maDoiTuong":"CR06","chieuCao":null}},{"type":"Feature","id":12,"geometry":{"type":"Point","coordinates":[106.34141798882409,10.775238446092528]},"properties":{"OBJECTID":12,"maNhanDang":"","phienBan":0,"ngayPhienBan":1787702400000,"giaTriDoChinhXacMatPhang":0,"nguyenNhanThayDoi":null,"maDoiTuong":"CR06","chieuCao":null}},{"type":"Feature","id":13,"geometry":{"type":"Point","coordinates":[106.34106687991255,10.775039509117876]},"properties":{"OBJECTID":13,"maNhanDang":"","phienBan":0,"ngayPhienBan":1787702400000,"giaTriDoChinhXacMatPhang":0,"nguyenNhanThayDoi":null,"maDoiTuong":"CR06","chieuCao":null}},{"type":"Feature","id":14,"geometry":{"type":"Point","coordinates":[106.34106690726615,10.775039469285367]},"properties":{"OBJECTID":14,"maNhanDang":"","phienBan":0,"ngayPhienBan":1787702400000,"giaTriDoChinhXacMatPhang":0,"nguyenNhanThayDoi":null,"maDoiTuong":"CR06","chieuCao":null}},{"type":"Feature","id":15,"geometry":{"type":"Point","coordinates":[106.34071531914053,10.774840261570723]},"properties":{"OBJECTID":15,"maNhanDang":"","phienBan":0,"ngayPhienBan":1787702400000,"giaTriDoChinhXacMatPhang":0,"nguyenNhanThayDoi":null,"maDoiTuong":"CR06","chieuCao":null}},{"type":"Feature","id":16,"geometry":{"type":"Point","coordinates":[106.34071534466192,10.77484021993355]},"properties":{"OBJECTID":16,"maNhanDang":"","phienBan":0,"ngayPhienBan":1787702400000,"giaTriDoChinhXacMatPhang":0,"nguyenNhanThayDoi":null,"maDoiTuong":"CR06","chieuCao":null}},{"type":"Feature","id":17,"geometry":{"type":"Point","coordinates":[106.34035677807495,10.774639875074046]},"properties":{"OBJECTID":17,"maNhanDang":"","phienBan":0,"ngayPhienBan":1787702400000,"giaTriDoChinhXacMatPhang":0,"nguyenNhanThayDoi":null,"maDoiTuong":"CR06","chieuCao":null}},{"type":"Feature","id":18,"geometry":{"type":"Point","coordinates":[106.34035680359638,10.774639833436899]},"properties":{"OBJECTID":18,"maNhanDang":"","phienBan":0,"ngayPhienBan":1787702400000,"giaTriDoChinhXacMatPhang":0,"nguyenNhanThayDoi":null,"maDoiTuong":"CR06","chieuCao":null}},{"type":"Feature","id":19,"geometry":{"type":"Point","coordinates":[106.33999550427109,10.774438014232825]},"properties":{"OBJECTID":19,"maNhanDang":"","phienBan":0,"ngayPhienBan":1787702400000,"giaTriDoChinhXacMatPhang":0,"nguyenNhanThayDoi":null,"maDoiTuong":"CR06","chieuCao":null}},{"type":"Feature","id":20,"geometry":{"type":"Point","coordinates":[106.33999553345706,10.774437976205123]},"properties":{"OBJECTID":20,"maNhanDang":"","phienBan":0,"ngayPhienBan":1787702400000,"giaTriDoChinhXacMatPhang":0,"nguyenNhanThayDoi":null,"maDoiTuong":"CR06","chieuCao":null}},{"type":"Feature","id":21,"geometry":{"type":"Point","coordinates":[106.33963810836208,10.774241096409904]},"properties":{"OBJECTID":21,"maNhanDang":"","phienBan":0,"ngayPhienBan":1787702400000,"giaTriDoChinhXacMatPhang":0,"nguyenNhanThayDoi":null,"maDoiTuong":"CR06","chieuCao":null}},{"type":"Feature","id":22,"geometry":{"type":"Point","coordinates":[106.33963813571231,10.774241054769327]},"properties":{"OBJECTID":22,"maNhanDang":"","phienBan":0,"ngayPhienBan":1787702400000,"giaTriDoChinhXacMatPhang":0,"nguyenNhanThayDoi":null,"maDoiTuong":"CR06","chieuCao":null}},{"type":"Feature","id":23,"geometry":{"type":"Point","coordinates":[106.33928410876251,10.77404599254594]},"properties":{"OBJECTID":23,"maNhanDang":"","phienBan":0,"ngayPhienBan":1787702400000,"giaTriDoChinhXacMatPhang":0,"nguyenNhanThayDoi":null,"maDoiTuong":"CR06","chieuCao":null}},{"type":"Feature","id":24,"geometry":{"type":"Point","coordinates":[106.33928413611631,10.774045952713582]},"properties":{"OBJECTID":24,"maNhanDang":"","phienBan":0,"ngayPhienBan":1787702400000,"giaTriDoChinhXacMatPhang":0,"nguyenNhanThayDoi":null,"maDoiTuong":"CR06","chieuCao":null}},{"type":"Feature","id":25,"geometry":{"type":"Point","coordinates":[106.33892996432498,10.773847650045203]},"properties":{"OBJECTID":25,"maNhanDang":"","phienBan":0,"ngayPhienBan":1787702400000,"giaTriDoChinhXacMatPhang":0,"nguyenNhanThayDoi":null,"maDoiTuong":"CR06","chieuCao":null}},{"type":"Feature","id":26,"geometry":{"type":"Point","coordinates":[106.33892998984652,10.773847608408166]},"properties":{"OBJECTID":26,"maNhanDang":"","phienBan":0,"ngayPhienBan":1787702400000,"giaTriDoChinhXacMatPhang":0,"nguyenNhanThayDoi":null,"maDoiTuong":"CR06","chieuCao":null}},{"type":"Feature","id":27,"geometry":{"type":"Point","coordinates":[106.33857203985866,10.773647189659574]},"properties":{"OBJECTID":27,"maNhanDang":"","phienBan":0,"ngayPhienBan":1787702400000,"giaTriDoChinhXacMatPhang":0,"nguyenNhanThayDoi":null,"maDoiTuong":"CR06","chieuCao":null}},{"type":"Feature","id":28,"geometry":{"type":"Point","coordinates":[106.33857206904125,10.773647149823807]},"properties":{"OBJECTID":28,"maNhanDang":"","phienBan":0,"ngayPhienBan":1787702400000,"giaTriDoChinhXacMatPhang":0,"nguyenNhanThayDoi":null,"maDoiTuong":"CR06","chieuCao":null}},{"type":"Feature","id":29,"geometry":{"type":"Point","coordinates":[106.33749609346873,10.773035669605996]},"properties":{"OBJECTID":29,"maNhanDang":"","phienBan":0,"ngayPhienBan":1787702400000,"giaTriDoChinhXacMatPhang":0,"nguyenNhanThayDoi":null,"maDoiTuong":"CR06","chieuCao":null}},{"type":"Feature","id":30,"geometry":{"type":"Point","coordinates":[106.33749609346873,10.773035669605996]},"properties":{"OBJECTID":30,"maNhanDang":"","phienBan":0,"ngayPhienBan":1787702400000,"giaTriDoChinhXacMatPhang":0,"nguyenNhanThayDoi":null,"maDoiTuong":"CR06","chieuCao":null}},{"type":"Feature","id":31,"geometry":{"type":"Point","coordinates":[106.33715253076122,10.772844020533631]},"properties":{"OBJECTID":31,"maNhanDang":"","phienBan":0,"ngayPhienBan":1787702400000,"giaTriDoChinhXacMatPhang":0,"nguyenNhanThayDoi":null,"maDoiTuong":"CR06","chieuCao":null}},{"type":"Feature","id":32,"geometry":{"type":"Point","coordinates":[106.33715253076122,10.772844020533631]},"properties":{"OBJECTID":32,"maNhanDang":"","phienBan":0,"ngayPhienBan":1787702400000,"giaTriDoChinhXacMatPhang":0,"nguyenNhanThayDoi":null,"maDoiTuong":"CR06","chieuCao":null}},{"type":"Feature","id":33,"geometry":{"type":"Point","coordinates":[106.33679137656668,10.772641345417146]},"properties":{"OBJECTID":33,"maNhanDang":"","phienBan":0,"ngayPhienBan":1787702400000,"giaTriDoChinhXacMatPhang":0,"nguyenNhanThayDoi":null,"maDoiTuong":"CR06","chieuCao":null}},{"type":"Feature","id":34,"geometry":{"type":"Point","coordinates":[106.33679137656668,10.772641345417146]},"properties":{"OBJECTID":34,"maNhanDang":"","phienBan":0,"ngayPhienBan":1787702400000,"giaTriDoChinhXacMatPhang":0,"nguyenNhanThayDoi":null,"maDoiTuong":"CR06","chieuCao":null}},{"type":"Feature","id":35,"geometry":{"type":"Point","coordinates":[106.33643184380912,10.772439033849446]},"properties":{"OBJECTID":35,"maNhanDang":"","phienBan":0,"ngayPhienBan":1787702400000,"giaTriDoChinhXacMatPhang":0,"nguyenNhanThayDoi":null,"maDoiTuong":"CR06","chieuCao":null}},{"type":"Feature","id":36,"geometry":{"type":"Point","coordinates":[106.33643184380912,10.772439033849446]},"properties":{"OBJECTID":36,"maNhanDang":"","phienBan":0,"ngayPhienBan":1787702400000,"giaTriDoChinhXacMatPhang":0,"nguyenNhanThayDoi":null,"maDoiTuong":"CR06","chieuCao":null}},{"type":"Feature","id":37,"geometry":{"type":"Point","coordinates":[106.33607821412363,10.772242102725274]},"properties":{"OBJECTID":37,"maNhanDang":"","phienBan":0,"ngayPhienBan":1787702400000,"giaTriDoChinhXacMatPhang":0,"nguyenNhanThayDoi":null,"maDoiTuong":"CR06","chieuCao":null}},{"type":"Feature","id":38,"geometry":{"type":"Point","coordinates":[106.33607821412363,10.772242102725274]},"properties":{"OBJECTID":38,"maNhanDang":"","phienBan":0,"ngayPhienBan":1787702400000,"giaTriDoChinhXacMatPhang":0,"nguyenNhanThayDoi":null,"maDoiTuong":"CR06","chieuCao":null}},{"type":"Feature","id":39,"geometry":{"type":"Point","coordinates":[106.33572059459968,10.772041399575279]},"properties":{"OBJECTID":39,"maNhanDang":"","phienBan":0,"ngayPhienBan":1787702400000,"giaTriDoChinhXacMatPhang":0,"nguyenNhanThayDoi":null,"maDoiTuong":"CR06","chieuCao":null}},{"type":"Feature","id":40,"geometry":{"type":"Point","coordinates":[106.33572062378251,10.772041359739763]},"properties":{"OBJECTID":40,"maNhanDang":"","phienBan":0,"ngayPhienBan":1787702400000,"giaTriDoChinhXacMatPhang":0,"nguyenNhanThayDoi":null,"maDoiTuong":"CR06","chieuCao":null}},{"type":"Feature","id":41,"geometry":{"type":"Point","coordinates":[106.33535693653585,10.771832859805428]},"properties":{"OBJECTID":41,"maNhanDang":"","phienBan":0,"ngayPhienBan":1787702400000,"giaTriDoChinhXacMatPhang":0,"nguyenNhanThayDoi":null,"maDoiTuong":"CR06","chieuCao":null}},{"type":"Feature","id":42,"geometry":{"type":"Point","coordinates":[106.33535696388996,10.771832819973397]},"properties":{"OBJECTID":42,"maNhanDang":"","phienBan":0,"ngayPhienBan":1787702400000,"giaTriDoChinhXacMatPhang":0,"nguyenNhanThayDoi":null,"maDoiTuong":"CR06","chieuCao":null}},{"type":"Feature","id":43,"geometry":{"type":"Point","coordinates":[106.33465119630442,10.771434228855806]},"properties":{"OBJECTID":43,"maNhanDang":"","phienBan":0,"ngayPhienBan":1787702400000,"giaTriDoChinhXacMatPhang":0,"nguyenNhanThayDoi":null,"maDoiTuong":"CR06","chieuCao":null}},{"type":"Feature","id":44,"geometry":{"type":"Point","coordinates":[106.33465119630442,10.771434228855806]},"properties":{"OBJECTID":44,"maNhanDang":"","phienBan":0,"ngayPhienBan":1787702400000,"giaTriDoChinhXacMatPhang":0,"nguyenNhanThayDoi":null,"maDoiTuong":"CR06","chieuCao":null}},{"type":"Feature","id":45,"geometry":{"type":"Point","coordinates":[106.3342873845165,10.771229637146293]},"properties":{"OBJECTID":45,"maNhanDang":"","phienBan":0,"ngayPhienBan":1787702400000,"giaTriDoChinhXacMatPhang":0,"nguyenNhanThayDoi":null,"maDoiTuong":"CR06","chieuCao":null}},{"type":"Feature","id":46,"geometry":{"type":"Point","coordinates":[106.3342873845165,10.771229637146293]},"properties":{"OBJECTID":46,"maNhanDang":"","phienBan":0,"ngayPhienBan":1787702400000,"giaTriDoChinhXacMatPhang":0,"nguyenNhanThayDoi":null,"maDoiTuong":"CR06","chieuCao":null}},{"type":"Feature","id":47,"geometry":{"type":"Point","coordinates":[106.3339259194501,10.771023136528061]},"properties":{"OBJECTID":47,"maNhanDang":"","phienBan":0,"ngayPhienBan":1787702400000,"giaTriDoChinhXacMatPhang":0,"nguyenNhanThayDoi":null,"maDoiTuong":"CR06","chieuCao":null}},{"type":"Feature","id":48,"geometry":{"type":"Point","coordinates":[106.3339259194501,10.771023136528061]},"properties":{"OBJECTID":48,"maNhanDang":"","phienBan":0,"ngayPhienBan":1787702400000,"giaTriDoChinhXacMatPhang":0,"nguyenNhanThayDoi":null,"maDoiTuong":"CR06","chieuCao":null}},{"type":"Feature","id":49,"geometry":{"type":"Point","coordinates":[106.3328739310702,10.770423007393774]},"properties":{"OBJECTID":49,"maNhanDang":"","phienBan":0,"ngayPhienBan":1787702400000,"giaTriDoChinhXacMatPhang":0,"nguyenNhanThayDoi":null,"maDoiTuong":"CR06","chieuCao":null}},{"type":"Feature","id":50,"geometry":{"type":"Point","coordinates":[106.33287395842108,10.77042296575376]},"properties":{"OBJECTID":50,"maNhanDang":"","phienBan":0,"ngayPhienBan":1787702400000,"giaTriDoChinhXacMatPhang":0,"nguyenNhanThayDoi":null,"maDoiTuong":"CR06","chieuCao":null}},{"type":"Feature","id":51,"geometry":{"type":"Point","coordinates":[106.33358524457554,10.77082743829004]},"properties":{"OBJECTID":51,"maNhanDang":"","phienBan":0,"ngayPhienBan":1787702400000,"giaTriDoChinhXacMatPhang":0,"nguyenNhanThayDoi":null,"maDoiTuong":"CR06","chieuCao":null}},{"type":"Feature","id":52,"geometry":{"type":"Point","coordinates":[106.33358527375856,10.770827398454708]},"properties":{"OBJECTID":52,"maNhanDang":"","phienBan":0,"ngayPhienBan":1787702400000,"giaTriDoChinhXacMatPhang":0,"nguyenNhanThayDoi":null,"maDoiTuong":"CR06","chieuCao":null}},{"type":"Feature","id":53,"geometry":{"type":"Point","coordinates":[106.33215846841534,10.770018691042216]},"properties":{"OBJECTID":53,"maNhanDang":"","phienBan":0,"ngayPhienBan":1787702400000,"giaTriDoChinhXacMatPhang":0,"nguyenNhanThayDoi":null,"maDoiTuong":"CR06","chieuCao":null}},{"type":"Feature","id":54,"geometry":{"type":"Point","coordinates":[106.33215849576979,10.770018651210451]},"properties":{"OBJECTID":54,"maNhanDang":"","phienBan":0,"ngayPhienBan":1787702400000,"giaTriDoChinhXacMatPhang":0,"nguyenNhanThayDoi":null,"maDoiTuong":"CR06","chieuCao":null}},{"type":"Feature","id":55,"geometry":{"type":"Point","coordinates":[106.33144586290912,10.769615669479126]},"properties":{"OBJECTID":55,"maNhanDang":"","phienBan":0,"ngayPhienBan":1787702400000,"giaTriDoChinhXacMatPhang":0,"nguyenNhanThayDoi":null,"maDoiTuong":"CR06","chieuCao":null}},{"type":"Feature","id":56,"geometry":{"type":"Point","coordinates":[106.33144589026011,10.769615627839226]},"properties":{"OBJECTID":56,"maNhanDang":"","phienBan":0,"ngayPhienBan":1787702400000,"giaTriDoChinhXacMatPhang":0,"nguyenNhanThayDoi":null,"maDoiTuong":"CR06","chieuCao":null}},{"type":"Feature","id":57,"geometry":{"type":"Point","coordinates":[106.33500557311498,10.771636407696665]},"properties":{"OBJECTID":57,"maNhanDang":"","phienBan":0,"ngayPhienBan":1787702400000,"giaTriDoChinhXacMatPhang":0,"nguyenNhanThayDoi":null,"maDoiTuong":"CR06","chieuCao":null}},{"type":"Feature","id":58,"geometry":{"type":"Point","coordinates":[106.33500557311498,10.771636407696665]},"properties":{"OBJECTID":58,"maNhanDang":"","phienBan":0,"ngayPhienBan":1787702400000,"giaTriDoChinhXacMatPhang":0,"nguyenNhanThayDoi":null,"maDoiTuong":"CR06","chieuCao":null}},{"type":"Feature","id":59,"geometry":{"type":"Point","coordinates":[106.33821658005179,10.773445297488284]},"properties":{"OBJECTID":59,"maNhanDang":"","phienBan":0,"ngayPhienBan":1787702400000,"giaTriDoChinhXacMatPhang":0,"nguyenNhanThayDoi":null,"maDoiTuong":"CR06","chieuCao":null}},{"type":"Feature","id":60,"geometry":{"type":"Point","coordinates":[106.33821658005179,10.773445297488284]},"properties":{"OBJECTID":60,"maNhanDang":"","phienBan":0,"ngayPhienBan":1787702400000,"giaTriDoChinhXacMatPhang":0,"nguyenNhanThayDoi":null,"maDoiTuong":"CR06","chieuCao":null}},{"type":"Feature","id":61,"geometry":{"type":"Point","coordinates":[106.33785978069533,10.77324270041783]},"properties":{"OBJECTID":61,"maNhanDang":"","phienBan":0,"ngayPhienBan":1787702400000,"giaTriDoChinhXacMatPhang":0,"nguyenNhanThayDoi":null,"maDoiTuong":"CR06","chieuCao":null}},{"type":"Feature","id":62,"geometry":{"type":"Point","coordinates":[106.33785978069533,10.77324270041783]},"properties":{"OBJECTID":62,"maNhanDang":"","phienBan":0,"ngayPhienBan":1787702400000,"giaTriDoChinhXacMatPhang":0,"nguyenNhanThayDoi":null,"maDoiTuong":"CR06","chieuCao":null}},{"type":"Feature","id":63,"geometry":{"type":"Point","coordinates":[106.35057654463695,10.77044822650706]},"properties":{"OBJECTID":63,"maNhanDang":"","phienBan":0,"ngayPhienBan":1787702400000,"giaTriDoChinhXacMatPhang":0,"nguyenNhanThayDoi":null,"maDoiTuong":"CR06","chieuCao":null}},{"type":"Feature","id":64,"geometry":{"type":"Point","coordinates":[106.35089292200665,10.770631195820325]},"properties":{"OBJECTID":64,"maNhanDang":"","phienBan":0,"ngayPhienBan":1787702400000,"giaTriDoChinhXacMatPhang":0,"nguyenNhanThayDoi":null,"maDoiTuong":"CR06","chieuCao":null}},{"type":"Feature","id":65,"geometry":{"type":"Point","coordinates":[106.35089292200665,10.770631195820325]},"properties":{"OBJECTID":65,"maNhanDang":"","phienBan":0,"ngayPhienBan":1787702400000,"giaTriDoChinhXacMatPhang":0,"nguyenNhanThayDoi":null,"maDoiTuong":"CR06","chieuCao":null}},{"type":"Feature","id":66,"geometry":{"type":"Point","coordinates":[106.35057654463695,10.77044822650706]},"properties":{"OBJECTID":66,"maNhanDang":"","phienBan":0,"ngayPhienBan":1787702400000,"giaTriDoChinhXacMatPhang":0,"nguyenNhanThayDoi":null,"maDoiTuong":"CR06","chieuCao":null}},{"type":"Feature","id":67,"geometry":{"type":"Point","coordinates":[106.34517305216295,10.779214412997822]},"properties":{"OBJECTID":67,"maNhanDang":"","phienBan":0,"ngayPhienBan":1787702400000,"giaTriDoChinhXacMatPhang":0,"nguyenNhanThayDoi":null,"maDoiTuong":"CR06","chieuCao":null}},{"type":"Feature","id":68,"geometry":{"type":"Point","coordinates":[106.34517305216295,10.779214412997822]},"properties":{"OBJECTID":68,"maNhanDang":"","phienBan":0,"ngayPhienBan":1787702400000,"giaTriDoChinhXacMatPhang":0,"nguyenNhanThayDoi":null,"maDoiTuong":"CR06","chieuCao":null}},{"type":"Feature","id":69,"geometry":{"type":"Point","coordinates":[106.34485900785569,10.779727943307536]},"properties":{"OBJECTID":69,"maNhanDang":"","phienBan":0,"ngayPhienBan":1787702400000,"giaTriDoChinhXacMatPhang":0,"nguyenNhanThayDoi":null,"maDoiTuong":"CR06","chieuCao":null}},{"type":"Feature","id":70,"geometry":{"type":"Point","coordinates":[106.34485900785569,10.779727943307536]},"properties":{"OBJECTID":70,"maNhanDang":"","phienBan":0,"ngayPhienBan":1787702400000,"giaTriDoChinhXacMatPhang":0,"nguyenNhanThayDoi":null,"maDoiTuong":"CR06","chieuCao":null}},{"type":"Feature","id":71,"geometry":{"type":"Point","coordinates":[106.33179768604695,10.769812935093581]},"properties":{"OBJECTID":71,"maNhanDang":"","phienBan":0,"ngayPhienBan":1787702400000,"giaTriDoChinhXacMatPhang":0,"nguyenNhanThayDoi":null,"maDoiTuong":"CR06","chieuCao":null}},{"type":"Feature","id":72,"geometry":{"type":"Point","coordinates":[106.33358703176732,10.77082675865908]},"properties":{"OBJECTID":72,"maNhanDang":"","phienBan":0,"ngayPhienBan":1787702400000,"giaTriDoChinhXacMatPhang":0,"nguyenNhanThayDoi":null,"maDoiTuong":"CR06","chieuCao":null}},{"type":"Feature","id":73,"geometry":{"type":"Point","coordinates":[106.33535905551607,10.771838267743584]},"properties":{"OBJECTID":73,"maNhanDang":"","phienBan":0,"ngayPhienBan":1787702400000,"giaTriDoChinhXacMatPhang":0,"nguyenNhanThayDoi":null,"maDoiTuong":"CR06","chieuCao":null}},{"type":"Feature","id":74,"geometry":{"type":"Point","coordinates":[106.34141920651354,10.775239248416161]},"properties":{"OBJECTID":74,"maNhanDang":"","phienBan":0,"ngayPhienBan":1787702400000,"giaTriDoChinhXacMatPhang":0,"nguyenNhanThayDoi":null,"maDoiTuong":"CR06","chieuCao":null}},{"type":"Feature","id":75,"geometry":{"type":"Point","coordinates":[106.34213577985638,10.775642861806732]},"properties":{"OBJECTID":75,"maNhanDang":"","phienBan":0,"ngayPhienBan":1787702400000,"giaTriDoChinhXacMatPhang":0,"nguyenNhanThayDoi":null,"maDoiTuong":"CR06","chieuCao":null}},{"type":"Feature","id":76,"geometry":{"type":"Point","coordinates":[106.34249765742227,10.775845311924845]},"properties":{"OBJECTID":76,"maNhanDang":"","phienBan":0,"ngayPhienBan":1787702400000,"giaTriDoChinhXacMatPhang":0,"nguyenNhanThayDoi":null,"maDoiTuong":"CR06","chieuCao":null}},{"type":"Feature","id":77,"geometry":{"type":"Point","coordinates":[106.34284693404067,10.776037777335349]},"properties":{"OBJECTID":77,"maNhanDang":"","phienBan":0,"ngayPhienBan":1787702400000,"giaTriDoChinhXacMatPhang":0,"nguyenNhanThayDoi":null,"maDoiTuong":"CR06","chieuCao":null}},{"type":"Feature","id":78,"geometry":{"type":"Point","coordinates":[106.34319658469957,10.776234255806255]},"properties":{"OBJECTID":78,"maNhanDang":"","phienBan":0,"ngayPhienBan":1787702400000,"giaTriDoChinhXacMatPhang":0,"nguyenNhanThayDoi":null,"maDoiTuong":"CR06","chieuCao":null}},{"type":"Feature","id":79,"geometry":{"type":"Point","coordinates":[106.34354889741746,10.776431126560748]},"properties":{"OBJECTID":79,"maNhanDang":"","phienBan":0,"ngayPhienBan":1787702400000,"giaTriDoChinhXacMatPhang":0,"nguyenNhanThayDoi":null,"maDoiTuong":"CR06","chieuCao":null}},{"type":"Feature","id":80,"geometry":{"type":"Point","coordinates":[106.34387129801837,10.776612413325932]},"properties":{"OBJECTID":80,"maNhanDang":"","phienBan":0,"ngayPhienBan":1787702400000,"giaTriDoChinhXacMatPhang":0,"nguyenNhanThayDoi":null,"maDoiTuong":"CR06","chieuCao":null}},{"type":"Feature","id":81,"geometry":{"type":"Point","coordinates":[106.34424406426101,10.776817552696711]},"properties":{"OBJECTID":81,"maNhanDang":"","phienBan":0,"ngayPhienBan":1787702400000,"giaTriDoChinhXacMatPhang":0,"nguyenNhanThayDoi":null,"maDoiTuong":"CR06","chieuCao":null}},{"type":"Feature","id":82,"geometry":{"type":"Point","coordinates":[106.34456770316756,10.77699575334193]},"properties":{"OBJECTID":82,"maNhanDang":"","phienBan":0,"ngayPhienBan":1787702400000,"giaTriDoChinhXacMatPhang":0,"nguyenNhanThayDoi":null,"maDoiTuong":"CR06","chieuCao":null}},{"type":"Feature","id":83,"geometry":{"type":"Point","coordinates":[106.34486025202433,10.777131348946664]},"properties":{"OBJECTID":83,"maNhanDang":"","phienBan":0,"ngayPhienBan":1787702400000,"giaTriDoChinhXacMatPhang":0,"nguyenNhanThayDoi":null,"maDoiTuong":"CR06","chieuCao":null}},{"type":"Feature","id":84,"geometry":{"type":"Point","coordinates":[106.34511161045212,10.777216927325616]},"properties":{"OBJECTID":84,"maNhanDang":"","phienBan":0,"ngayPhienBan":1787702400000,"giaTriDoChinhXacMatPhang":0,"nguyenNhanThayDoi":null,"maDoiTuong":"CR06","chieuCao":null}},{"type":"Feature","id":85,"geometry":{"type":"Point","coordinates":[106.345440307769,10.777260723178118]},"properties":{"OBJECTID":85,"maNhanDang":"","phienBan":0,"ngayPhienBan":1787702400000,"giaTriDoChinhXacMatPhang":0,"nguyenNhanThayDoi":null,"maDoiTuong":"CR06","chieuCao":null}},{"type":"Feature","id":86,"geometry":{"type":"Point","coordinates":[106.34579958769143,10.777195760217973]},"properties":{"OBJECTID":86,"maNhanDang":"","phienBan":0,"ngayPhienBan":1787702400000,"giaTriDoChinhXacMatPhang":0,"nguyenNhanThayDoi":null,"maDoiTuong":"CR06","chieuCao":null}},{"type":"Feature","id":87,"geometry":{"type":"Point","coordinates":[106.34612021020664,10.777048634513942]},"properties":{"OBJECTID":87,"maNhanDang":"","phienBan":0,"ngayPhienBan":1787702400000,"giaTriDoChinhXacMatPhang":0,"nguyenNhanThayDoi":null,"maDoiTuong":"CR06","chieuCao":null}},{"type":"Feature","id":88,"geometry":{"type":"Point","coordinates":[106.34640520031883,10.77679540891064]},"properties":{"OBJECTID":88,"maNhanDang":"","phienBan":0,"ngayPhienBan":1787702400000,"giaTriDoChinhXacMatPhang":0,"nguyenNhanThayDoi":null,"maDoiTuong":"CR06","chieuCao":null}},{"type":"Feature","id":89,"geometry":{"type":"Point","coordinates":[106.34663668948104,10.776495752189184]},"properties":{"OBJECTID":89,"maNhanDang":"","phienBan":0,"ngayPhienBan":1787702400000,"giaTriDoChinhXacMatPhang":0,"nguyenNhanThayDoi":null,"maDoiTuong":"CR06","chieuCao":null}},{"type":"Feature","id":90,"geometry":{"type":"Point","coordinates":[106.34674631248052,10.776336826777381]},"properties":{"OBJECTID":90,"maNhanDang":"","phienBan":0,"ngayPhienBan":1787702400000,"giaTriDoChinhXacMatPhang":0,"nguyenNhanThayDoi":null,"maDoiTuong":"CR06","chieuCao":null}},{"type":"Feature","id":91,"geometry":{"type":"Point","coordinates":[106.34691721595601,10.776065928349976]},"properties":{"OBJECTID":91,"maNhanDang":"","phienBan":0,"ngayPhienBan":1787702400000,"giaTriDoChinhXacMatPhang":0,"nguyenNhanThayDoi":null,"maDoiTuong":"CR06","chieuCao":null}},{"type":"Feature","id":92,"geometry":{"type":"Point","coordinates":[106.34708959702172,10.775788662146175]},"properties":{"OBJECTID":92,"maNhanDang":"","phienBan":0,"ngayPhienBan":1787702400000,"giaTriDoChinhXacMatPhang":0,"nguyenNhanThayDoi":null,"maDoiTuong":"CR06","chieuCao":null}},{"type":"Feature","id":93,"geometry":{"type":"Point","coordinates":[106.34725410604629,10.775525849466337]},"properties":{"OBJECTID":93,"maNhanDang":"","phienBan":0,"ngayPhienBan":1787702400000,"giaTriDoChinhXacMatPhang":0,"nguyenNhanThayDoi":null,"maDoiTuong":"CR06","chieuCao":null}},{"type":"Feature","id":94,"geometry":{"type":"Point","coordinates":[106.34742729921848,10.775248030032337]},"properties":{"OBJECTID":94,"maNhanDang":"","phienBan":0,"ngayPhienBan":1787702400000,"giaTriDoChinhXacMatPhang":0,"nguyenNhanThayDoi":null,"maDoiTuong":"CR06","chieuCao":null}},{"type":"Feature","id":95,"geometry":{"type":"Point","coordinates":[106.34758885343118,10.774989445027334]},"properties":{"OBJECTID":95,"maNhanDang":"","phienBan":0,"ngayPhienBan":1787702400000,"giaTriDoChinhXacMatPhang":0,"nguyenNhanThayDoi":null,"maDoiTuong":"CR06","chieuCao":null}},{"type":"Feature","id":96,"geometry":{"type":"Point","coordinates":[106.34775591329291,10.774722287526172]},"properties":{"OBJECTID":96,"maNhanDang":"","phienBan":0,"ngayPhienBan":1787702400000,"giaTriDoChinhXacMatPhang":0,"nguyenNhanThayDoi":null,"maDoiTuong":"CR06","chieuCao":null}},{"type":"Feature","id":97,"geometry":{"type":"Point","coordinates":[106.34791915472924,10.774461764346572]},"properties":{"OBJECTID":97,"maNhanDang":"","phienBan":0,"ngayPhienBan":1787702400000,"giaTriDoChinhXacMatPhang":0,"nguyenNhanThayDoi":null,"maDoiTuong":"CR06","chieuCao":null}},{"type":"Feature","id":98,"geometry":{"type":"Point","coordinates":[106.34809127552214,10.774187879478225]},"properties":{"OBJECTID":98,"maNhanDang":"","phienBan":0,"ngayPhienBan":1787702400000,"giaTriDoChinhXacMatPhang":0,"nguyenNhanThayDoi":null,"maDoiTuong":"CR06","chieuCao":null}},{"type":"Feature","id":99,"geometry":{"type":"Point","coordinates":[106.3444903068651,10.777329721873958]},"properties":{"OBJECTID":99,"maNhanDang":"","phienBan":0,"ngayPhienBan":1787702400000,"giaTriDoChinhXacMatPhang":0,"nguyenNhanThayDoi":null,"maDoiTuong":"CR06","chieuCao":null}},{"type":"Feature","id":100,"geometry":{"type":"Point","coordinates":[106.34473638323674,10.777500657513679]},"properties":{"OBJECTID":100,"maNhanDang":"","phienBan":0,"ngayPhienBan":1787702400000,"giaTriDoChinhXacMatPhang":0,"nguyenNhanThayDoi":null,"maDoiTuong":"CR06","chieuCao":null}},{"type":"Feature","id":101,"geometry":{"type":"Point","coordinates":[106.34493099060839,10.77771423861398]},"properties":{"OBJECTID":101,"maNhanDang":"","phienBan":0,"ngayPhienBan":1787702400000,"giaTriDoChinhXacMatPhang":0,"nguyenNhanThayDoi":null,"maDoiTuong":"CR06","chieuCao":null}},{"type":"Feature","id":102,"geometry":{"type":"Point","coordinates":[106.34507415985435,10.778009458943735]},"properties":{"OBJECTID":102,"maNhanDang":"","phienBan":0,"ngayPhienBan":1787702400000,"giaTriDoChinhXacMatPhang":0,"nguyenNhanThayDoi":null,"maDoiTuong":"CR06","chieuCao":null}},{"type":"Feature","id":103,"geometry":{"type":"Point","coordinates":[106.34515732786785,10.77829565403102]},"properties":{"OBJECTID":103,"maNhanDang":"","phienBan":0,"ngayPhienBan":1787702400000,"giaTriDoChinhXacMatPhang":0,"nguyenNhanThayDoi":null,"maDoiTuong":"CR06","chieuCao":null}},{"type":"Feature","id":104,"geometry":{"type":"Point","coordinates":[106.34516361424224,10.778628340832851]},"properties":{"OBJECTID":104,"maNhanDang":"","phienBan":0,"ngayPhienBan":1787702400000,"giaTriDoChinhXacMatPhang":0,"nguyenNhanThayDoi":null,"maDoiTuong":"CR06","chieuCao":null}},{"type":"Feature","id":105,"geometry":{"type":"Point","coordinates":[106.34503620802307,10.779068166864461]},"properties":{"OBJECTID":105,"maNhanDang":"","phienBan":0,"ngayPhienBan":1787702400000,"giaTriDoChinhXacMatPhang":0,"nguyenNhanThayDoi":null,"maDoiTuong":"CR06","chieuCao":null}},{"type":"Feature","id":106,"geometry":{"type":"Point","coordinates":[106.3446579500457,10.777050250944836]},"properties":{"OBJECTID":106,"maNhanDang":"","phienBan":0,"ngayPhienBan":1787702400000,"giaTriDoChinhXacMatPhang":0,"nguyenNhanThayDoi":null,"maDoiTuong":"CR06","chieuCao":null}},{"type":"Feature","id":107,"geometry":{"type":"Point","coordinates":[106.34684688165699,10.773304018647629]},"properties":{"OBJECTID":107,"maNhanDang":"","phienBan":0,"ngayPhienBan":1787702400000,"giaTriDoChinhXacMatPhang":0,"nguyenNhanThayDoi":null,"maDoiTuong":"CR06","chieuCao":null}},{"type":"Feature","id":108,"geometry":{"type":"Point","coordinates":[106.34667961656281,10.773206969375746]},"properties":{"OBJECTID":108,"maNhanDang":"","phienBan":0,"ngayPhienBan":1787702400000,"giaTriDoChinhXacMatPhang":0,"nguyenNhanThayDoi":null,"maDoiTuong":"CR06","chieuCao":null}},{"type":"Feature","id":109,"geometry":{"type":"Point","coordinates":[106.34651846141735,10.773110857551217]},"properties":{"OBJECTID":109,"maNhanDang":"","phienBan":0,"ngayPhienBan":1787702400000,"giaTriDoChinhXacMatPhang":0,"nguyenNhanThayDoi":null,"maDoiTuong":"CR06","chieuCao":null}},{"type":"Feature","id":110,"geometry":{"type":"Point","coordinates":[106.346356328176,10.773014837928688]},"properties":{"OBJECTID":110,"maNhanDang":"","phienBan":0,"ngayPhienBan":1787702400000,"giaTriDoChinhXacMatPhang":0,"nguyenNhanThayDoi":null,"maDoiTuong":"CR06","chieuCao":null}},{"type":"Feature","id":111,"geometry":{"type":"Point","coordinates":[106.34620884427984,10.772928635662177]},"properties":{"OBJECTID":111,"maNhanDang":"","phienBan":0,"ngayPhienBan":1787702400000,"giaTriDoChinhXacMatPhang":0,"nguyenNhanThayDoi":null,"maDoiTuong":"CR06","chieuCao":null}},{"type":"Feature","id":112,"geometry":{"type":"Point","coordinates":[106.3460530991791,10.772840134716752]},"properties":{"OBJECTID":112,"maNhanDang":"","phienBan":0,"ngayPhienBan":1787702400000,"giaTriDoChinhXacMatPhang":0,"nguyenNhanThayDoi":null,"maDoiTuong":"CR06","chieuCao":null}},{"type":"Feature","id":113,"geometry":{"type":"Point","coordinates":[106.34590018902884,10.772747143912529]},"properties":{"OBJECTID":113,"maNhanDang":"","phienBan":0,"ngayPhienBan":1787702400000,"giaTriDoChinhXacMatPhang":0,"nguyenNhanThayDoi":null,"maDoiTuong":"CR06","chieuCao":null}},{"type":"Feature","id":114,"geometry":{"type":"Point","coordinates":[106.34573985952206,10.772656816293974]},"properties":{"OBJECTID":114,"maNhanDang":"","phienBan":0,"ngayPhienBan":1787702400000,"giaTriDoChinhXacMatPhang":0,"nguyenNhanThayDoi":null,"maDoiTuong":"CR06","chieuCao":null}},{"type":"Feature","id":115,"geometry":{"type":"Point","coordinates":[106.34557673093192,10.772561223074611]},"properties":{"OBJECTID":115,"maNhanDang":"","phienBan":0,"ngayPhienBan":1787702400000,"giaTriDoChinhXacMatPhang":0,"nguyenNhanThayDoi":null,"maDoiTuong":"CR06","chieuCao":null}},{"type":"Feature","id":116,"geometry":{"type":"Point","coordinates":[106.34542367270592,10.772471839654051]},"properties":{"OBJECTID":116,"maNhanDang":"","phienBan":0,"ngayPhienBan":1787702400000,"giaTriDoChinhXacMatPhang":0,"nguyenNhanThayDoi":null,"maDoiTuong":"CR06","chieuCao":null}},{"type":"Feature","id":117,"geometry":{"type":"Point","coordinates":[106.34526663166032,10.772379706302603]},"properties":{"OBJECTID":117,"maNhanDang":"","phienBan":0,"ngayPhienBan":1787702400000,"giaTriDoChinhXacMatPhang":0,"nguyenNhanThayDoi":null,"maDoiTuong":"CR06","chieuCao":null}},{"type":"Feature","id":118,"geometry":{"type":"Point","coordinates":[106.34512124693109,10.772295877229649]},"properties":{"OBJECTID":118,"maNhanDang":"","phienBan":0,"ngayPhienBan":1787702400000,"giaTriDoChinhXacMatPhang":0,"nguyenNhanThayDoi":null,"maDoiTuong":"CR06","chieuCao":null}},{"type":"Feature","id":119,"geometry":{"type":"Point","coordinates":[106.34826495525084,10.773907165581058]},"properties":{"OBJECTID":119,"maNhanDang":"","phienBan":0,"ngayPhienBan":1787702400000,"giaTriDoChinhXacMatPhang":0,"nguyenNhanThayDoi":null,"maDoiTuong":"CR06","chieuCao":null}},{"type":"Feature","id":120,"geometry":{"type":"Point","coordinates":[106.34843550630745,10.773635100810079]},"properties":{"OBJECTID":120,"maNhanDang":"","phienBan":0,"ngayPhienBan":1787702400000,"giaTriDoChinhXacMatPhang":0,"nguyenNhanThayDoi":null,"maDoiTuong":"CR06","chieuCao":null}},{"type":"Feature","id":121,"geometry":{"type":"Point","coordinates":[106.34860920250864,10.773353780965982]},"properties":{"OBJECTID":121,"maNhanDang":"","phienBan":0,"ngayPhienBan":1787702400000,"giaTriDoChinhXacMatPhang":0,"nguyenNhanThayDoi":null,"maDoiTuong":"CR06","chieuCao":null}},{"type":"Feature","id":122,"geometry":{"type":"Point","coordinates":[106.34874068940309,10.773143821611372]},"properties":{"OBJECTID":122,"maNhanDang":"","phienBan":0,"ngayPhienBan":1787702400000,"giaTriDoChinhXacMatPhang":0,"nguyenNhanThayDoi":null,"maDoiTuong":"CR06","chieuCao":null}},{"type":"Feature","id":123,"geometry":{"type":"Point","coordinates":[106.34874735991851,10.77313419455437]},"properties":{"OBJECTID":123,"maNhanDang":"","phienBan":0,"ngayPhienBan":1787702400000,"giaTriDoChinhXacMatPhang":0,"nguyenNhanThayDoi":null,"maDoiTuong":"CR06","chieuCao":null}},{"type":"Feature","id":124,"geometry":{"type":"Point","coordinates":[106.34886505394299,10.773160035920078]},"properties":{"OBJECTID":124,"maNhanDang":"","phienBan":0,"ngayPhienBan":1787702400000,"giaTriDoChinhXacMatPhang":0,"nguyenNhanThayDoi":null,"maDoiTuong":"CR06","chieuCao":null}},{"type":"Feature","id":125,"geometry":{"type":"Point","coordinates":[106.34888000544294,10.773197825423122]},"properties":{"OBJECTID":125,"maNhanDang":"","phienBan":0,"ngayPhienBan":1787702400000,"giaTriDoChinhXacMatPhang":0,"nguyenNhanThayDoi":null,"maDoiTuong":"CR06","chieuCao":null}},{"type":"Feature","id":126,"geometry":{"type":"Point","coordinates":[106.34889403439429,10.77318058430305]},"properties":{"OBJECTID":126,"maNhanDang":"","phienBan":0,"ngayPhienBan":1787702400000,"giaTriDoChinhXacMatPhang":0,"nguyenNhanThayDoi":null,"maDoiTuong":"CR06","chieuCao":null}},{"type":"Feature","id":127,"geometry":{"type":"Point","coordinates":[106.34694663421688,10.773138828725962]},"properties":{"OBJECTID":127,"maNhanDang":"","phienBan":0,"ngayPhienBan":1787702400000,"giaTriDoChinhXacMatPhang":0,"nguyenNhanThayDoi":null,"maDoiTuong":"CR06","chieuCao":null}},{"type":"Feature","id":128,"geometry":{"type":"Point","coordinates":[106.34705354362441,10.772967694109811]},"properties":{"OBJECTID":128,"maNhanDang":"","phienBan":0,"ngayPhienBan":1787702400000,"giaTriDoChinhXacMatPhang":0,"nguyenNhanThayDoi":null,"maDoiTuong":"CR06","chieuCao":null}},{"type":"Feature","id":129,"geometry":{"type":"Point","coordinates":[106.34714550740783,10.772812735438119]},"properties":{"OBJECTID":129,"maNhanDang":"","phienBan":0,"ngayPhienBan":1787702400000,"giaTriDoChinhXacMatPhang":0,"nguyenNhanThayDoi":null,"maDoiTuong":"CR06","chieuCao":null}},{"type":"Feature","id":130,"geometry":{"type":"Point","coordinates":[106.33964280576475,10.774242637098018]},"properties":{"OBJECTID":130,"maNhanDang":"","phienBan":0,"ngayPhienBan":1787702400000,"giaTriDoChinhXacMatPhang":0,"nguyenNhanThayDoi":null,"maDoiTuong":"CR06","chieuCao":null}},{"type":"Feature","id":131,"geometry":{"type":"Point","coordinates":[106.34723914859524,10.77265990718087]},"properties":{"OBJECTID":131,"maNhanDang":"","phienBan":0,"ngayPhienBan":1787702400000,"giaTriDoChinhXacMatPhang":0,"nguyenNhanThayDoi":null,"maDoiTuong":"CR06","chieuCao":null}},{"type":"Feature","id":132,"geometry":{"type":"Point","coordinates":[106.3473386613135,10.772493858717654]},"properties":{"OBJECTID":132,"maNhanDang":"","phienBan":0,"ngayPhienBan":1787702400000,"giaTriDoChinhXacMatPhang":0,"nguyenNhanThayDoi":null,"maDoiTuong":"CR06","chieuCao":null}},{"type":"Feature","id":133,"geometry":{"type":"Point","coordinates":[106.34742126043179,10.772352181132545]},"properties":{"OBJECTID":133,"maNhanDang":"","phienBan":0,"ngayPhienBan":1787702400000,"giaTriDoChinhXacMatPhang":0,"nguyenNhanThayDoi":null,"maDoiTuong":"CR06","chieuCao":null}},{"type":"Feature","id":134,"geometry":{"type":"Point","coordinates":[106.34757861692955,10.772432423868052]},"properties":{"OBJECTID":134,"maNhanDang":"","phienBan":0,"ngayPhienBan":1787702400000,"giaTriDoChinhXacMatPhang":0,"nguyenNhanThayDoi":null,"maDoiTuong":"CR06","chieuCao":null}},{"type":"Feature","id":135,"geometry":{"type":"Point","coordinates":[106.34777463962941,10.77254845750322]},"properties":{"OBJECTID":135,"maNhanDang":"","phienBan":0,"ngayPhienBan":1787702400000,"giaTriDoChinhXacMatPhang":0,"nguyenNhanThayDoi":null,"maDoiTuong":"CR06","chieuCao":null}},{"type":"Feature","id":136,"geometry":{"type":"Point","coordinates":[106.34794434251769,10.772648358434282]},"properties":{"OBJECTID":136,"maNhanDang":"","phienBan":0,"ngayPhienBan":1787702400000,"giaTriDoChinhXacMatPhang":0,"nguyenNhanThayDoi":null,"maDoiTuong":"CR06","chieuCao":null}},{"type":"Feature","id":137,"geometry":{"type":"Point","coordinates":[106.34811869599162,10.772751034912305]},"properties":{"OBJECTID":137,"maNhanDang":"","phienBan":0,"ngayPhienBan":1787702400000,"giaTriDoChinhXacMatPhang":0,"nguyenNhanThayDoi":null,"maDoiTuong":"CR06","chieuCao":null}},{"type":"Feature","id":138,"geometry":{"type":"Point","coordinates":[106.34828697716873,10.772845797688094]},"properties":{"OBJECTID":138,"maNhanDang":"","phienBan":0,"ngayPhienBan":1787702400000,"giaTriDoChinhXacMatPhang":0,"nguyenNhanThayDoi":null,"maDoiTuong":"CR06","chieuCao":null}},{"type":"Feature","id":139,"geometry":{"type":"Point","coordinates":[106.34846260709304,10.772948355771133]},"properties":{"OBJECTID":139,"maNhanDang":"","phienBan":0,"ngayPhienBan":1787702400000,"giaTriDoChinhXacMatPhang":0,"nguyenNhanThayDoi":null,"maDoiTuong":"CR06","chieuCao":null}},{"type":"Feature","id":140,"geometry":{"type":"Point","coordinates":[106.34862030131345,10.773047451339266]},"properties":{"OBJECTID":140,"maNhanDang":"","phienBan":0,"ngayPhienBan":1787702400000,"giaTriDoChinhXacMatPhang":0,"nguyenNhanThayDoi":null,"maDoiTuong":"CR06","chieuCao":null}},{"type":"Feature","id":141,"geometry":{"type":"Point","coordinates":[106.34553040326958,10.778689087482187]},"properties":{"OBJECTID":141,"maNhanDang":"","phienBan":0,"ngayPhienBan":-2209161600000,"giaTriDoChinhXacMatPhang":0,"nguyenNhanThayDoi":null,"maDoiTuong":"CR06","chieuCao":null}},{"type":"Feature","id":142,"geometry":{"type":"Point","coordinates":[106.34569106675956,10.778412938442381]},"properties":{"OBJECTID":142,"maNhanDang":"","phienBan":0,"ngayPhienBan":-2209161600000,"giaTriDoChinhXacMatPhang":0,"nguyenNhanThayDoi":null,"maDoiTuong":"CR06","chieuCao":null}},{"type":"Feature","id":143,"geometry":{"type":"Point","coordinates":[106.34585930525593,10.778134261369676]},"properties":{"OBJECTID":143,"maNhanDang":"","phienBan":0,"ngayPhienBan":-2209161600000,"giaTriDoChinhXacMatPhang":0,"nguyenNhanThayDoi":null,"maDoiTuong":"CR06","chieuCao":null}},{"type":"Feature","id":144,"geometry":{"type":"Point","coordinates":[106.34601313720339,10.777871795276596]},"properties":{"OBJECTID":144,"maNhanDang":"","phienBan":0,"ngayPhienBan":-2209161600000,"giaTriDoChinhXacMatPhang":0,"nguyenNhanThayDoi":null,"maDoiTuong":"CR06","chieuCao":null}},{"type":"Feature","id":145,"geometry":{"type":"Point","coordinates":[106.34619289821961,10.777580122078906]},"properties":{"OBJECTID":145,"maNhanDang":"","phienBan":0,"ngayPhienBan":-2209161600000,"giaTriDoChinhXacMatPhang":0,"nguyenNhanThayDoi":null,"maDoiTuong":"CR06","chieuCao":null}}]
}