{
  "type" : "FeatureCollection",
  "features" : [{"type":"Feature","id":1,"geometry":{"type":"Polygon","coordinates":[[[106.3457442033324,10.778262166607272],[106.34520371395138,10.779156960166311],[106.34480968289147,10.778930461192523],[106.34466662285712,10.778866851125828],[106.34452093944391,10.778809503439486],[106.34437290663286,10.778758525985017],[106.3442228028234,10.778714014633694],[106.3440709103098,10.77867605309625],[106.34391751475029,10.778644712765443],[106.34376290462981,10.778620052581788],[106.34360737071748,10.778602118922716],[106.34345120551976,10.778590945515347],[106.34329470273032,10.778586553373064],[106.34313815667778,10.778588950755996],[106.34298186177206,10.778598133155478],[106.34282611195081,10.778614083302539],[106.34267120012652,10.778636771200368],[106.34251741763572,10.778666154180737],[106.34240609674568,10.778687877370627],[106.34240682162687,10.778397452576215],[106.34240636495574,10.778369326842473],[106.34240237978155,10.778341481127653],[106.34238264898718,10.778291840546446],[106.34235760584234,10.778244656519014],[106.3423275509861,10.778200495482293],[106.34229284522233,10.778159887582692],[106.34225390518837,10.778123320311755],[106.3422111983533,10.778091232653907],[106.34216523740604,10.778064009816509],[106.34211657410066,10.778041978605508],[106.3420657926326,10.778025403502181],[106.34201350262552,10.778014483488075],[106.34194586250869,10.778008428064506],[106.34187914709567,10.777995743143387],[106.34181400454344,10.777976551961908],[106.34175106772823,10.777951040967215],[106.34169094809701,10.777919458005027],[106.34163422972709,10.777882109911745],[106.34158146365166,10.777839359533473],[106.34153316250639,10.777791622200864],[106.34150271597314,10.777762353475657],[106.34146869585425,10.777737327865305],[106.3414316891223,10.777716977153924],[106.34139233427999,10.777701652466375],[106.34135131034351,10.777691618210063],[106.34130932512718,10.777687047512938],[106.34123235351403,10.777651697983551],[106.34115825541569,10.777610665188366],[106.34108744971635,10.777564181090012],[106.34102033668795,10.777512508467892],[106.34095729572735,10.777455939432675],[106.34089868321162,10.777394793774956],[106.34084483048335,10.777329417157448],[106.34079604197758,10.777260179160919],[106.34075259350077,10.77718747119491],[106.34071473067164,10.777111704285057],[106.34068266753266,10.777033306749521],[106.34065658534008,10.776952721777665],[106.34063079958101,10.776872303630384],[106.34059850724742,10.776794270374813],[106.34055992577979,10.77671914744796],[106.34051531496647,10.776647440690132],[106.34046497519441,10.776579632938859],[106.34040924542651,10.776516180777703],[106.34034850091926,10.77645751146186],[106.34028315069584,10.776404020041229],[106.34021363479202,10.776356066700345],[106.34014042129326,10.77631397433308],[106.3400640031827,10.776278026368434],[106.33997217586227,10.776248691882815],[106.33987856878319,10.776225659653921],[106.33978361394063,10.776209035975121],[106.33968774954968,10.776198897564429],[106.33959141802299,10.776195291210449],[106.33949506392904,10.776198233556448],[106.33939913194041,10.776207711023545],[106.33930406478174,10.776223679873382],[106.33921030118645,10.77624606640997],[106.33911827387203,10.776274767319794],[106.3390284075431,10.776309650148615],[106.33894111693132,10.776350553912728],[106.33884307792822,10.776399222575336],[106.33874232648337,10.77644199442603],[106.33863921689814,10.776478719053813],[106.33853411176652,10.776509267313285],[106.33842738069998,10.776533531778792],[106.33831939902777,10.776551427122195],[106.33821054647697,10.776562890412936],[106.33810120583721,10.776567881339341],[106.3379917616145,10.776566382350374],[106.33784022095598,10.776557550591596],[106.33768844200375,10.776555158769845],[106.33753669830868,10.776559211195895],[106.33738526335809,10.776569700566069],[106.33723441008281,10.776586607975398],[106.33708441036539,10.7766099029517],[106.33693553454994,10.776639543510491],[106.33678805095502,10.776675476230661],[106.33664222538997,10.77671763635075],[106.33649832067586,10.776765947885673],[106.33635659617183,10.77682032376366],[106.33621730730762,10.776880665983194],[106.33569459741825,10.777098018059549],[106.33562952285234,10.777121317812357],[106.33556245109571,10.777138019820287],[106.33549404926116,10.777147957960892],[106.33542499769084,10.777151033386886],[106.33535598318933,10.777147215509297],[106.33528769219249,10.77713654230171],[106.33522080394006,10.777119119922574],[106.33520231115037,10.777113301712351],[106.33517159816529,10.777100839925367],[106.33514316769548,10.777083801968518],[106.33511769651336,10.777062593421435],[106.33509579094711,10.77703771914247],[106.33507797244721,10.777009771250796],[106.33434456036973,10.776036794734724],[106.33443966383129,10.775953370721759],[106.33453061528743,10.775865438549225],[106.33461720127102,10.775773204597854],[106.3346992185609,10.775676885344842],[106.33477647465882,10.77557670685577],[106.3348487882413,10.77547290425402],[106.33491598958511,10.77536572116893],[106.33658038230558,10.772560384884251],[106.33371471791335,10.770898177219159],[106.33192680493356,10.769915705940566],[106.33248320144106,10.768985318596251],[106.33256309042568,10.76902975691492],[106.33333482953356,10.767739225756417],[106.33325647273979,10.767692616707814],[106.3341776488713,10.766152189626659],[106.33739863096064,10.768028970786474],[106.33785005622443,10.768292000225891],[106.34384651837082,10.771712884036798],[106.34566313326069,10.769679436498906],[106.34908878901429,10.769603509987409],[106.35058097153214,10.770439694102638],[106.35067792934285,10.770495386701574],[106.35060459105232,10.77059274636157],[106.35042935242869,10.770717804208331],[106.34819398650875,10.774339455692591],[106.34803927439074,10.77457667480391],[106.34608899122027,10.777697220005377],[106.3457442033324,10.778262166607272]]]},"properties":{"OBJECTID":1,"Shape_Length":6198.4370576796846,"Shape_Area":1400000.0291110643}}]
}