{
  "type" : "FeatureCollection",
  "features" : [{"type":"Feature","id":1,"geometry":{"type":"Point","coordinates":[106.33180302068564,10.769805439133977]},"properties":{"OBJECTID":1,"maNhanDang":"DC","phienBan":0,"ngayPhienBan":1787702400000,"giaTriDoChinhXacMatPhang":0,"nguyenNhanThayDoi":null,"maDoiTuong":"BC03","soHieuDiem":"DC01     ","doCao":2.008,"loaiMoc":1,"loaiCapHang":5,"Join_Count":1,"TARGET_FID":1,"TENMOC":"DC01     ","CAODO":"2.008","BUFF_DIST":3,"ORIG_FID":1499,"Entity":"Text","Handle":"BC764","Layer":"LKC-140","LyrFrzn":0,"LyrLock":0,"LyrOn":1,"LyrVPFrzn":0,"LyrHandle":"A1C07","Color":2,"EntColor":-1,"LyrColor":2,"BlkColor":0,"Linetype":"Continuous","EntLinetype":"ByLayer","LyrLnType":"Continuous","BlkLinetype":"","LTScale":1,"Elevation":0,"Thickness":0,"LineWt":25,"EntLineWt":-1,"LyrLineWt":-3,"BlkLineWt":-1,"RefName":"2.008","ExtX":0,"ExtY":0,"ExtZ":1,"DocName":"3-Khu-140ha-KHU DO THI SINH THAI 1_GIS.dwg","DocPath":"E:\\Work\\TEDI\\chiMuoiHai\\3-Khu-140ha-KHU DO THI SINH THAI 1_GIS.dwg","DocType":"DWG","DocVer":"AC1021","DocUpdate":1787762631000,"DocId":7712302381976638464,"ScaleX":1,"ScaleY":1,"ScaleZ":1,"Owner":null,"Style":null,"FontID":660638,"Text":"2.008","Height":0.96049999999999991,"Angle":30.31293996650875,"TxtWidth":1.1299999999999999,"TxtOblique":0,"TxtGenType":null,"HorizontalAlignment":0,"VerticalAlignment":2,"FontName":"","TxtBoxHt":0,"TxtBoxWd":0,"TxtRefWd":0,"TxtAttach":null,"TxtDir":0,"LnSpace":0,"SpaceFct":1,"TxtMemo":"2.008","FeatureID":null,"ZOrder":null,"AnnotationClassID":0,"Element":null,"SymbolID":0,"Status":null}},{"type":"Feature","id":2,"geometry":{"type":"Point","coordinates":[106.33358828535704,10.770815832965448]},"properties":{"OBJECTID":2,"maNhanDang":"DC","phienBan":0,"ngayPhienBan":1787702400000,"giaTriDoChinhXacMatPhang":0,"nguyenNhanThayDoi":null,"maDoiTuong":"BC03","soHieuDiem":"DC02     ","doCao":1.7490000000000001,"loaiMoc":1,"loaiCapHang":5,"Join_Count":1,"TARGET_FID":2,"TENMOC":"DC02     ","CAODO":"1.749","BUFF_DIST":3,"ORIG_FID":1500,"Entity":"Text","Handle":"BC767","Layer":"LKC-140","LyrFrzn":0,"LyrLock":0,"LyrOn":1,"LyrVPFrzn":0,"LyrHandle":"A1C07","Color":2,"EntColor":-1,"LyrColor":2,"BlkColor":0,"Linetype":"Continuous","EntLinetype":"ByLayer","LyrLnType":"Continuous","BlkLinetype":"","LTScale":1,"Elevation":0,"Thickness":0,"LineWt":25,"EntLineWt":-1,"LyrLineWt":-3,"BlkLineWt":-1,"RefName":"1.749","ExtX":0,"ExtY":0,"ExtZ":1,"DocName":"3-Khu-140ha-KHU DO THI SINH THAI 1_GIS.dwg","DocPath":"E:\\Work\\TEDI\\chiMuoiHai\\3-Khu-140ha-KHU DO THI SINH THAI 1_GIS.dwg","DocType":"DWG","DocVer":"AC1021","DocUpdate":1787762631000,"DocId":7712302381976638464,"ScaleX":1,"ScaleY":1,"ScaleZ":1,"Owner":null,"Style":null,"FontID":660638,"Text":"1.749","Height":0.96049999999999991,"Angle":30.31293996650875,"TxtWidth":1.1299999999999999,"TxtOblique":0,"TxtGenType":null,"HorizontalAlignment":0,"VerticalAlignment":2,"FontName":"","TxtBoxHt":0,"TxtBoxWd":0,"TxtRefWd":0,"TxtAttach":null,"TxtDir":0,"LnSpace":0,"SpaceFct":1,"TxtMemo":"1.749","FeatureID":null,"ZOrder":null,"AnnotationClassID":0,"Element":null,"SymbolID":0,"Status":null}},{"type":"Feature","id":3,"geometry":{"type":"Point","coordinates":[106.33537982953078,10.771833301172505]},"properties":{"OBJECTID":3,"maNhanDang":"DC","phienBan":0,"ngayPhienBan":1787702400000,"giaTriDoChinhXacMatPhang":0,"nguyenNhanThayDoi":null,"maDoiTuong":"BC03","soHieuDiem":"DC03     ","doCao":1.6140000000000001,"loaiMoc":1,"loaiCapHang":5,"Join_Count":1,"TARGET_FID":3,"TENMOC":"DC03     ","CAODO":"1.614","BUFF_DIST":3,"ORIG_FID":1501,"Entity":"Text","Handle":"BC76A","Layer":"LKC-140","LyrFrzn":0,"LyrLock":0,"LyrOn":1,"LyrVPFrzn":0,"LyrHandle":"A1C07","Color":2,"EntColor":-1,"LyrColor":2,"BlkColor":0,"Linetype":"Continuous","EntLinetype":"ByLayer","LyrLnType":"Continuous","BlkLinetype":"","LTScale":1,"Elevation":0,"Thickness":0,"LineWt":25,"EntLineWt":-1,"LyrLineWt":-3,"BlkLineWt":-1,"RefName":"1.614","ExtX":0,"ExtY":0,"ExtZ":1,"DocName":"3-Khu-140ha-KHU DO THI SINH THAI 1_GIS.dwg","DocPath":"E:\\Work\\TEDI\\chiMuoiHai\\3-Khu-140ha-KHU DO THI SINH THAI 1_GIS.dwg","DocType":"DWG","DocVer":"AC1021","DocUpdate":1787762631000,"DocId":7712302381976638464,"ScaleX":1,"ScaleY":1,"ScaleZ":1,"Owner":null,"Style":null,"FontID":660638,"Text":"1.614","Height":0.96049999999999991,"Angle":30.31293996650875,"TxtWidth":1.1299999999999999,"TxtOblique":0,"TxtGenType":null,"HorizontalAlignment":0,"VerticalAlignment":2,"FontName":"","TxtBoxHt":0,"TxtBoxWd":0,"TxtRefWd":0,"TxtAttach":null,"TxtDir":0,"LnSpace":0,"SpaceFct":1,"TxtMemo":"1.614","FeatureID":null,"ZOrder":null,"AnnotationClassID":0,"Element":null,"SymbolID":0,"Status":null}},{"type":"Feature","id":4,"geometry":{"type":"Point","coordinates":[106.33760372227088,10.774446369983677]},"properties":{"OBJECTID":4,"maNhanDang":"DC","phienBan":0,"ngayPhienBan":1787702400000,"giaTriDoChinhXacMatPhang":0,"nguyenNhanThayDoi":null,"maDoiTuong":"BC03","soHieuDiem":"DC04     ","doCao":1.4159999999999999,"loaiMoc":1,"loaiCapHang":5,"Join_Count":1,"TARGET_FID":4,"TENMOC":"DC04     ","CAODO":"1.416","BUFF_DIST":3,"ORIG_FID":1502,"Entity":"Text","Handle":"BC76D","Layer":"LKC-140","LyrFrzn":0,"LyrLock":0,"LyrOn":1,"LyrVPFrzn":0,"LyrHandle":"A1C07","Color":2,"EntColor":-1,"LyrColor":2,"BlkColor":0,"Linetype":"Continuous","EntLinetype":"ByLayer","LyrLnType":"Continuous","BlkLinetype":"","LTScale":1,"Elevation":0,"Thickness":0,"LineWt":25,"EntLineWt":-1,"LyrLineWt":-3,"BlkLineWt":-1,"RefName":"1.416","ExtX":0,"ExtY":0,"ExtZ":1,"DocName":"3-Khu-140ha-KHU DO THI SINH THAI 1_GIS.dwg","DocPath":"E:\\Work\\TEDI\\chiMuoiHai\\3-Khu-140ha-KHU DO THI SINH THAI 1_GIS.dwg","DocType":"DWG","DocVer":"AC1021","DocUpdate":1787762631000,"DocId":7712302381976638464,"ScaleX":1,"ScaleY":1,"ScaleZ":1,"Owner":null,"Style":null,"FontID":660638,"Text":"1.416","Height":0.96049999999999991,"Angle":30.31293996650875,"TxtWidth":1.1299999999999999,"TxtOblique":0,"TxtGenType":null,"HorizontalAlignment":0,"VerticalAlignment":2,"FontName":"","TxtBoxHt":0,"TxtBoxWd":0,"TxtRefWd":0,"TxtAttach":null,"TxtDir":0,"LnSpace":0,"SpaceFct":1,"TxtMemo":"1.416","FeatureID":null,"ZOrder":null,"AnnotationClassID":0,"Element":null,"SymbolID":0,"Status":null}},{"type":"Feature","id":5,"geometry":{"type":"Point","coordinates":[106.33738953012841,10.772753289968881]},"properties":{"OBJECTID":5,"maNhanDang":"DC","phienBan":0,"ngayPhienBan":1787702400000,"giaTriDoChinhXacMatPhang":0,"nguyenNhanThayDoi":null,"maDoiTuong":"BC03","soHieuDiem":"DC05     ","doCao":1.774,"loaiMoc":1,"loaiCapHang":5,"Join_Count":1,"TARGET_FID":5,"TENMOC":"DC05     ","CAODO":"1.774","BUFF_DIST":3,"ORIG_FID":1503,"Entity":"Text","Handle":"BC770","Layer":"LKC-140","LyrFrzn":0,"LyrLock":0,"LyrOn":1,"LyrVPFrzn":0,"LyrHandle":"A1C07","Color":2,"EntColor":-1,"LyrColor":2,"BlkColor":0,"Linetype":"Continuous","EntLinetype":"ByLayer","LyrLnType":"Continuous","BlkLinetype":"","LTScale":1,"Elevation":0,"Thickness":0,"LineWt":25,"EntLineWt":-1,"LyrLineWt":-3,"BlkLineWt":-1,"RefName":"1.774","ExtX":0,"ExtY":0,"ExtZ":1,"DocName":"3-Khu-140ha-KHU DO THI SINH THAI 1_GIS.dwg","DocPath":"E:\\Work\\TEDI\\chiMuoiHai\\3-Khu-140ha-KHU DO THI SINH THAI 1_GIS.dwg","DocType":"DWG","DocVer":"AC1021","DocUpdate":1787762631000,"DocId":7712302381976638464,"ScaleX":1,"ScaleY":1,"ScaleZ":1,"Owner":null,"Style":null,"FontID":660638,"Text":"1.774","Height":0.96049999999999991,"Angle":30.31293996650875,"TxtWidth":1.1299999999999999,"TxtOblique":0,"TxtGenType":null,"HorizontalAlignment":0,"VerticalAlignment":2,"FontName":"","TxtBoxHt":0,"TxtBoxWd":0,"TxtRefWd":0,"TxtAttach":null,"TxtDir":0,"LnSpace":0,"SpaceFct":1,"TxtMemo":"1.774","FeatureID":null,"ZOrder":null,"AnnotationClassID":0,"Element":null,"SymbolID":0,"Status":null}},{"type":"Feature","id":6,"geometry":{"type":"Point","coordinates":[106.33726428728295,10.770157207492577]},"properties":{"OBJECTID":6,"maNhanDang":"DC","phienBan":0,"ngayPhienBan":1787702400000,"giaTriDoChinhXacMatPhang":0,"nguyenNhanThayDoi":null,"maDoiTuong":"BC03","soHieuDiem":"DC06     ","doCao":2.0600000000000001,"loaiMoc":1,"loaiCapHang":5,"Join_Count":1,"TARGET_FID":6,"TENMOC":"DC06     ","CAODO":"2.06","BUFF_DIST":3,"ORIG_FID":1504,"Entity":"Text","Handle":"BC773","Layer":"LKC-140","LyrFrzn":0,"LyrLock":0,"LyrOn":1,"LyrVPFrzn":0,"LyrHandle":"A1C07","Color":2,"EntColor":-1,"LyrColor":2,"BlkColor":0,"Linetype":"Continuous","EntLinetype":"ByLayer","LyrLnType":"Continuous","BlkLinetype":"","LTScale":1,"Elevation":0,"Thickness":0,"LineWt":25,"EntLineWt":-1,"LyrLineWt":-3,"BlkLineWt":-1,"RefName":"2.06","ExtX":0,"ExtY":0,"ExtZ":1,"DocName":"3-Khu-140ha-KHU DO THI SINH THAI 1_GIS.dwg","DocPath":"E:\\Work\\TEDI\\chiMuoiHai\\3-Khu-140ha-KHU DO THI SINH THAI 1_GIS.dwg","DocType":"DWG","DocVer":"AC1021","DocUpdate":1787762631000,"DocId":7712302381976638464,"ScaleX":1,"ScaleY":1,"ScaleZ":1,"Owner":null,"Style":null,"FontID":660638,"Text":"2.06","Height":0.96049999999999991,"Angle":30.31293996650875,"TxtWidth":1.1299999999999999,"TxtOblique":0,"TxtGenType":null,"HorizontalAlignment":0,"VerticalAlignment":2,"FontName":"","TxtBoxHt":0,"TxtBoxWd":0,"TxtRefWd":0,"TxtAttach":null,"TxtDir":0,"LnSpace":0,"SpaceFct":1,"TxtMemo":"2.06","FeatureID":null,"ZOrder":null,"AnnotationClassID":0,"Element":null,"SymbolID":0,"Status":null}},{"type":"Feature","id":7,"geometry":{"type":"Point","coordinates":[106.33579028789821,10.770597589231276]},"properties":{"OBJECTID":7,"maNhanDang":"DC","phienBan":0,"ngayPhienBan":1787702400000,"giaTriDoChinhXacMatPhang":0,"nguyenNhanThayDoi":null,"maDoiTuong":"BC03","soHieuDiem":"DC07     ","doCao":1.9399999999999999,"loaiMoc":1,"loaiCapHang":5,"Join_Count":1,"TARGET_FID":7,"TENMOC":"DC07     ","CAODO":"1.94","BUFF_DIST":3,"ORIG_FID":1505,"Entity":"Text","Handle":"BC776","Layer":"LKC-140","LyrFrzn":0,"LyrLock":0,"LyrOn":1,"LyrVPFrzn":0,"LyrHandle":"A1C07","Color":2,"EntColor":-1,"LyrColor":2,"BlkColor":0,"Linetype":"Continuous","EntLinetype":"ByLayer","LyrLnType":"Continuous","BlkLinetype":"","LTScale":1,"Elevation":0,"Thickness":0,"LineWt":25,"EntLineWt":-1,"LyrLineWt":-3,"BlkLineWt":-1,"RefName":"1.94","ExtX":0,"ExtY":0,"ExtZ":1,"DocName":"3-Khu-140ha-KHU DO THI SINH THAI 1_GIS.dwg","DocPath":"E:\\Work\\TEDI\\chiMuoiHai\\3-Khu-140ha-KHU DO THI SINH THAI 1_GIS.dwg","DocType":"DWG","DocVer":"AC1021","DocUpdate":1787762631000,"DocId":7712302381976638464,"ScaleX":1,"ScaleY":1,"ScaleZ":1,"Owner":null,"Style":null,"FontID":660638,"Text":"1.94","Height":0.96049999999999991,"Angle":30.31293996650875,"TxtWidth":1.1299999999999999,"TxtOblique":0,"TxtGenType":null,"HorizontalAlignment":0,"VerticalAlignment":2,"FontName":"","TxtBoxHt":0,"TxtBoxWd":0,"TxtRefWd":0,"TxtAttach":null,"TxtDir":0,"LnSpace":0,"SpaceFct":1,"TxtMemo":"1.94","FeatureID":null,"ZOrder":null,"AnnotationClassID":0,"Element":null,"SymbolID":0,"Status":null}},{"type":"Feature","id":8,"geometry":{"type":"Point","coordinates":[106.33964372763214,10.774246486804548]},"properties":{"OBJECTID":8,"maNhanDang":"DC","phienBan":0,"ngayPhienBan":1787702400000,"giaTriDoChinhXacMatPhang":0,"nguyenNhanThayDoi":null,"maDoiTuong":"BC03","soHieuDiem":"DC08     ","doCao":1.6559999999999999,"loaiMoc":1,"loaiCapHang":5,"Join_Count":1,"TARGET_FID":8,"TENMOC":"DC08     ","CAODO":"1.656","BUFF_DIST":3,"ORIG_FID":1506,"Entity":"Text","Handle":"BC779","Layer":"LKC-140","LyrFrzn":0,"LyrLock":0,"LyrOn":1,"LyrVPFrzn":0,"LyrHandle":"A1C07","Color":2,"EntColor":-1,"LyrColor":2,"BlkColor":0,"Linetype":"Continuous","EntLinetype":"ByLayer","LyrLnType":"Continuous","BlkLinetype":"","LTScale":1,"Elevation":0,"Thickness":0,"LineWt":25,"EntLineWt":-1,"LyrLineWt":-3,"BlkLineWt":-1,"RefName":"1.656","ExtX":0,"ExtY":0,"ExtZ":1,"DocName":"3-Khu-140ha-KHU DO THI SINH THAI 1_GIS.dwg","DocPath":"E:\\Work\\TEDI\\chiMuoiHai\\3-Khu-140ha-KHU DO THI SINH THAI 1_GIS.dwg","DocType":"DWG","DocVer":"AC1021","DocUpdate":1787762631000,"DocId":7712302381976638464,"ScaleX":1,"ScaleY":1,"ScaleZ":1,"Owner":null,"Style":null,"FontID":660638,"Text":"1.656","Height":0.96049999999999991,"Angle":30.31293996650875,"TxtWidth":1.1299999999999999,"TxtOblique":0,"TxtGenType":null,"HorizontalAlignment":0,"VerticalAlignment":2,"FontName":"","TxtBoxHt":0,"TxtBoxWd":0,"TxtRefWd":0,"TxtAttach":null,"TxtDir":0,"LnSpace":0,"SpaceFct":1,"TxtMemo":"1.656","FeatureID":null,"ZOrder":null,"AnnotationClassID":0,"Element":null,"SymbolID":0,"Status":null}},{"type":"Feature","id":9,"geometry":{"type":"Point","coordinates":[106.34141449254605,10.775222676248493]},"properties":{"OBJECTID":9,"maNhanDang":"DC","phienBan":0,"ngayPhienBan":1787702400000,"giaTriDoChinhXacMatPhang":0,"nguyenNhanThayDoi":null,"maDoiTuong":"BC03","soHieuDiem":"DC09     ","doCao":1.5700000000000001,"loaiMoc":1,"loaiCapHang":5,"Join_Count":1,"TARGET_FID":9,"TENMOC":"DC09     ","CAODO":"1.57","BUFF_DIST":3,"ORIG_FID":1507,"Entity":"Text","Handle":"BC77C","Layer":"LKC-140","LyrFrzn":0,"LyrLock":0,"LyrOn":1,"LyrVPFrzn":0,"LyrHandle":"A1C07","Color":2,"EntColor":-1,"LyrColor":2,"BlkColor":0,"Linetype":"Continuous","EntLinetype":"ByLayer","LyrLnType":"Continuous","BlkLinetype":"","LTScale":1,"Elevation":0,"Thickness":0,"LineWt":25,"EntLineWt":-1,"LyrLineWt":-3,"BlkLineWt":-1,"RefName":"1.57","ExtX":0,"ExtY":0,"ExtZ":1,"DocName":"3-Khu-140ha-KHU DO THI SINH THAI 1_GIS.dwg","DocPath":"E:\\Work\\TEDI\\chiMuoiHai\\3-Khu-140ha-KHU DO THI SINH THAI 1_GIS.dwg","DocType":"DWG","DocVer":"AC1021","DocUpdate":1787762631000,"DocId":7712302381976638464,"ScaleX":1,"ScaleY":1,"ScaleZ":1,"Owner":null,"Style":null,"FontID":660638,"Text":"1.57","Height":0.96049999999999991,"Angle":30.31293996650875,"TxtWidth":1.1299999999999999,"TxtOblique":0,"TxtGenType":null,"HorizontalAlignment":0,"VerticalAlignment":2,"FontName":"","TxtBoxHt":0,"TxtBoxWd":0,"TxtRefWd":0,"TxtAttach":null,"TxtDir":0,"LnSpace":0,"SpaceFct":1,"TxtMemo":"1.57","FeatureID":null,"ZOrder":null,"AnnotationClassID":0,"Element":null,"SymbolID":0,"Status":null}},{"type":"Feature","id":10,"geometry":{"type":"Point","coordinates":[106.34275762085335,10.77353914738481]},"properties":{"OBJECTID":10,"maNhanDang":"DC","phienBan":0,"ngayPhienBan":1787702400000,"giaTriDoChinhXacMatPhang":0,"nguyenNhanThayDoi":null,"maDoiTuong":"BC03","soHieuDiem":"DC10     ","doCao":1.738,"loaiMoc":1,"loaiCapHang":5,"Join_Count":1,"TARGET_FID":10,"TENMOC":"DC10     ","CAODO":"1.738","BUFF_DIST":3,"ORIG_FID":1508,"Entity":"Text","Handle":"BC77F","Layer":"LKC-140","LyrFrzn":0,"LyrLock":0,"LyrOn":1,"LyrVPFrzn":0,"LyrHandle":"A1C07","Color":2,"EntColor":-1,"LyrColor":2,"BlkColor":0,"Linetype":"Continuous","EntLinetype":"ByLayer","LyrLnType":"Continuous","BlkLinetype":"","LTScale":1,"Elevation":0,"Thickness":0,"LineWt":25,"EntLineWt":-1,"LyrLineWt":-3,"BlkLineWt":-1,"RefName":"1.738","ExtX":0,"ExtY":0,"ExtZ":1,"DocName":"3-Khu-140ha-KHU DO THI SINH THAI 1_GIS.dwg","DocPath":"E:\\Work\\TEDI\\chiMuoiHai\\3-Khu-140ha-KHU DO THI SINH THAI 1_GIS.dwg","DocType":"DWG","DocVer":"AC1021","DocUpdate":1787762631000,"DocId":7712302381976638464,"ScaleX":1,"ScaleY":1,"ScaleZ":1,"Owner":null,"Style":null,"FontID":660638,"Text":"1.738","Height":0.96049999999999991,"Angle":30.31293996650875,"TxtWidth":1.1299999999999999,"TxtOblique":0,"TxtGenType":null,"HorizontalAlignment":0,"VerticalAlignment":2,"FontName":"","TxtBoxHt":0,"TxtBoxWd":0,"TxtRefWd":0,"TxtAttach":null,"TxtDir":0,"LnSpace":0,"SpaceFct":1,"TxtMemo":"1.738","FeatureID":null,"ZOrder":null,"AnnotationClassID":0,"Element":null,"SymbolID":0,"Status":null}},{"type":"Feature","id":11,"geometry":{"type":"Point","coordinates":[106.34368094230777,10.772412718236739]},"properties":{"OBJECTID":11,"maNhanDang":"DC","phienBan":0,"ngayPhienBan":1787702400000,"giaTriDoChinhXacMatPhang":0,"nguyenNhanThayDoi":null,"maDoiTuong":"BC03","soHieuDiem":"DC11     ","doCao":2.0489999999999999,"loaiMoc":1,"loaiCapHang":5,"Join_Count":1,"TARGET_FID":11,"TENMOC":"DC11     ","CAODO":"2.049","BUFF_DIST":3,"ORIG_FID":1509,"Entity":"Text","Handle":"BC782","Layer":"LKC-140","LyrFrzn":0,"LyrLock":0,"LyrOn":1,"LyrVPFrzn":0,"LyrHandle":"A1C07","Color":2,"EntColor":-1,"LyrColor":2,"BlkColor":0,"Linetype":"Continuous","EntLinetype":"ByLayer","LyrLnType":"Continuous","BlkLinetype":"","LTScale":1,"Elevation":0,"Thickness":0,"LineWt":25,"EntLineWt":-1,"LyrLineWt":-3,"BlkLineWt":-1,"RefName":"2.049","ExtX":0,"ExtY":0,"ExtZ":1,"DocName":"3-Khu-140ha-KHU DO THI SINH THAI 1_GIS.dwg","DocPath":"E:\\Work\\TEDI\\chiMuoiHai\\3-Khu-140ha-KHU DO THI SINH THAI 1_GIS.dwg","DocType":"DWG","DocVer":"AC1021","DocUpdate":1787762631000,"DocId":7712302381976638464,"ScaleX":1,"ScaleY":1,"ScaleZ":1,"Owner":null,"Style":null,"FontID":660638,"Text":"2.049","Height":0.96049999999999991,"Angle":30.31293996650875,"TxtWidth":1.1299999999999999,"TxtOblique":0,"TxtGenType":null,"HorizontalAlignment":0,"VerticalAlignment":2,"FontName":"","TxtBoxHt":0,"TxtBoxWd":0,"TxtRefWd":0,"TxtAttach":null,"TxtDir":0,"LnSpace":0,"SpaceFct":1,"TxtMemo":"2.049","FeatureID":null,"ZOrder":null,"AnnotationClassID":0,"Element":null,"SymbolID":0,"Status":null}},{"type":"Feature","id":12,"geometry":{"type":"Point","coordinates":[106.34319854583184,10.77624115031996]},"properties":{"OBJECTID":12,"maNhanDang":"DC","phienBan":0,"ngayPhienBan":1787702400000,"giaTriDoChinhXacMatPhang":0,"nguyenNhanThayDoi":null,"maDoiTuong":"BC03","soHieuDiem":"DC12     ","doCao":1.5760000000000001,"loaiMoc":1,"loaiCapHang":5,"Join_Count":1,"TARGET_FID":12,"TENMOC":"DC12     ","CAODO":"1.576","BUFF_DIST":3,"ORIG_FID":1510,"Entity":"Text","Handle":"BC785","Layer":"LKC-140","LyrFrzn":0,"LyrLock":0,"LyrOn":1,"LyrVPFrzn":0,"LyrHandle":"A1C07","Color":2,"EntColor":-1,"LyrColor":2,"BlkColor":0,"Linetype":"Continuous","EntLinetype":"ByLayer","LyrLnType":"Continuous","BlkLinetype":"","LTScale":1,"Elevation":0,"Thickness":0,"LineWt":25,"EntLineWt":-1,"LyrLineWt":-3,"BlkLineWt":-1,"RefName":"1.576","ExtX":0,"ExtY":0,"ExtZ":1,"DocName":"3-Khu-140ha-KHU DO THI SINH THAI 1_GIS.dwg","DocPath":"E:\\Work\\TEDI\\chiMuoiHai\\3-Khu-140ha-KHU DO THI SINH THAI 1_GIS.dwg","DocType":"DWG","DocVer":"AC1021","DocUpdate":1787762631000,"DocId":7712302381976638464,"ScaleX":1,"ScaleY":1,"ScaleZ":1,"Owner":null,"Style":null,"FontID":660638,"Text":"1.576","Height":0.96049999999999991,"Angle":30.31293996650875,"TxtWidth":1.1299999999999999,"TxtOblique":0,"TxtGenType":null,"HorizontalAlignment":0,"VerticalAlignment":2,"FontName":"","TxtBoxHt":0,"TxtBoxWd":0,"TxtRefWd":0,"TxtAttach":null,"TxtDir":0,"LnSpace":0,"SpaceFct":1,"TxtMemo":"1.576","FeatureID":null,"ZOrder":null,"AnnotationClassID":0,"Element":null,"SymbolID":0,"Status":null}},{"type":"Feature","id":13,"geometry":{"type":"Point","coordinates":[106.34497176851617,10.777111850424085]},"properties":{"OBJECTID":13,"maNhanDang":"DC","phienBan":0,"ngayPhienBan":1787702400000,"giaTriDoChinhXacMatPhang":0,"nguyenNhanThayDoi":null,"maDoiTuong":"BC03","soHieuDiem":"DC13     ","doCao":2.194,"loaiMoc":1,"loaiCapHang":5,"Join_Count":1,"TARGET_FID":13,"TENMOC":"DC13     ","CAODO":"2.194","BUFF_DIST":3,"ORIG_FID":1511,"Entity":"Text","Handle":"BC788","Layer":"LKC-140","LyrFrzn":0,"LyrLock":0,"LyrOn":1,"LyrVPFrzn":0,"LyrHandle":"A1C07","Color":2,"EntColor":-1,"LyrColor":2,"BlkColor":0,"Linetype":"Continuous","EntLinetype":"ByLayer","LyrLnType":"Continuous","BlkLinetype":"","LTScale":1,"Elevation":0,"Thickness":0,"LineWt":25,"EntLineWt":-1,"LyrLineWt":-3,"BlkLineWt":-1,"RefName":"2.194","ExtX":0,"ExtY":0,"ExtZ":1,"DocName":"3-Khu-140ha-KHU DO THI SINH THAI 1_GIS.dwg","DocPath":"E:\\Work\\TEDI\\chiMuoiHai\\3-Khu-140ha-KHU DO THI SINH THAI 1_GIS.dwg","DocType":"DWG","DocVer":"AC1021","DocUpdate":1787762631000,"DocId":7712302381976638464,"ScaleX":1,"ScaleY":1,"ScaleZ":1,"Owner":null,"Style":null,"FontID":660638,"Text":"2.194","Height":0.96049999999999991,"Angle":30.31293996650875,"TxtWidth":1.1299999999999999,"TxtOblique":0,"TxtGenType":null,"HorizontalAlignment":0,"VerticalAlignment":2,"FontName":"","TxtBoxHt":0,"TxtBoxWd":0,"TxtRefWd":0,"TxtAttach":null,"TxtDir":0,"LnSpace":0,"SpaceFct":1,"TxtMemo":"2.194","FeatureID":null,"ZOrder":null,"AnnotationClassID":0,"Element":null,"SymbolID":0,"Status":null}},{"type":"Feature","id":14,"geometry":{"type":"Point","coordinates":[106.3468183616118,10.776515762600136]},"properties":{"OBJECTID":14,"maNhanDang":"DC","phienBan":0,"ngayPhienBan":1787702400000,"giaTriDoChinhXacMatPhang":0,"nguyenNhanThayDoi":null,"maDoiTuong":"BC03","soHieuDiem":"DC14     ","doCao":2.879,"loaiMoc":1,"loaiCapHang":5,"Join_Count":1,"TARGET_FID":14,"TENMOC":"DC14     ","CAODO":"2.879","BUFF_DIST":3,"ORIG_FID":1512,"Entity":"Text","Handle":"BC78B","Layer":"LKC-140","LyrFrzn":0,"LyrLock":0,"LyrOn":1,"LyrVPFrzn":0,"LyrHandle":"A1C07","Color":2,"EntColor":-1,"LyrColor":2,"BlkColor":0,"Linetype":"Continuous","EntLinetype":"ByLayer","LyrLnType":"Continuous","BlkLinetype":"","LTScale":1,"Elevation":0,"Thickness":0,"LineWt":25,"EntLineWt":-1,"LyrLineWt":-3,"BlkLineWt":-1,"RefName":"2.879","ExtX":0,"ExtY":0,"ExtZ":1,"DocName":"3-Khu-140ha-KHU DO THI SINH THAI 1_GIS.dwg","DocPath":"E:\\Work\\TEDI\\chiMuoiHai\\3-Khu-140ha-KHU DO THI SINH THAI 1_GIS.dwg","DocType":"DWG","DocVer":"AC1021","DocUpdate":1787762631000,"DocId":7712302381976638464,"ScaleX":1,"ScaleY":1,"ScaleZ":1,"Owner":null,"Style":null,"FontID":660638,"Text":"2.879","Height":0.96049999999999991,"Angle":30.31293996650875,"TxtWidth":1.1299999999999999,"TxtOblique":0,"TxtGenType":null,"HorizontalAlignment":0,"VerticalAlignment":2,"FontName":"","TxtBoxHt":0,"TxtBoxWd":0,"TxtRefWd":0,"TxtAttach":null,"TxtDir":0,"LnSpace":0,"SpaceFct":1,"TxtMemo":"2.879","FeatureID":null,"ZOrder":null,"AnnotationClassID":0,"Element":null,"SymbolID":0,"Status":null}},{"type":"Feature","id":15,"geometry":{"type":"Point","coordinates":[106.34793220140546,10.774739025848573]},"properties":{"OBJECTID":15,"maNhanDang":"DC","phienBan":0,"ngayPhienBan":1787702400000,"giaTriDoChinhXacMatPhang":0,"nguyenNhanThayDoi":null,"maDoiTuong":"BC03","soHieuDiem":"DC15     ","doCao":2.9950000000000001,"loaiMoc":1,"loaiCapHang":5,"Join_Count":1,"TARGET_FID":15,"TENMOC":"DC15     ","CAODO":"2.995","BUFF_DIST":3,"ORIG_FID":1513,"Entity":"Text","Handle":"BC78E","Layer":"LKC-140","LyrFrzn":0,"LyrLock":0,"LyrOn":1,"LyrVPFrzn":0,"LyrHandle":"A1C07","Color":2,"EntColor":-1,"LyrColor":2,"BlkColor":0,"Linetype":"Continuous","EntLinetype":"ByLayer","LyrLnType":"Continuous","BlkLinetype":"","LTScale":1,"Elevation":0,"Thickness":0,"LineWt":25,"EntLineWt":-1,"LyrLineWt":-3,"BlkLineWt":-1,"RefName":"2.995","ExtX":0,"ExtY":0,"ExtZ":1,"DocName":"3-Khu-140ha-KHU DO THI SINH THAI 1_GIS.dwg","DocPath":"E:\\Work\\TEDI\\chiMuoiHai\\3-Khu-140ha-KHU DO THI SINH THAI 1_GIS.dwg","DocType":"DWG","DocVer":"AC1021","DocUpdate":1787762631000,"DocId":7712302381976638464,"ScaleX":1,"ScaleY":1,"ScaleZ":1,"Owner":null,"Style":null,"FontID":660638,"Text":"2.995","Height":0.96049999999999991,"Angle":30.31293996650875,"TxtWidth":1.1299999999999999,"TxtOblique":0,"TxtGenType":null,"HorizontalAlignment":0,"VerticalAlignment":2,"FontName":"","TxtBoxHt":0,"TxtBoxWd":0,"TxtRefWd":0,"TxtAttach":null,"TxtDir":0,"LnSpace":0,"SpaceFct":1,"TxtMemo":"2.995","FeatureID":null,"ZOrder":null,"AnnotationClassID":0,"Element":null,"SymbolID":0,"Status":null}},{"type":"Feature","id":16,"geometry":{"type":"Point","coordinates":[106.34879928765166,10.773342727358953]},"properties":{"OBJECTID":16,"maNhanDang":"DC","phienBan":0,"ngayPhienBan":1787702400000,"giaTriDoChinhXacMatPhang":0,"nguyenNhanThayDoi":null,"maDoiTuong":"BC03","soHieuDiem":"DC16     ","doCao":3.028,"loaiMoc":1,"loaiCapHang":5,"Join_Count":1,"TARGET_FID":16,"TENMOC":"DC16     ","CAODO":"3.028","BUFF_DIST":3,"ORIG_FID":1514,"Entity":"Text","Handle":"BC791","Layer":"LKC-140","LyrFrzn":0,"LyrLock":0,"LyrOn":1,"LyrVPFrzn":0,"LyrHandle":"A1C07","Color":2,"EntColor":-1,"LyrColor":2,"BlkColor":0,"Linetype":"Continuous","EntLinetype":"ByLayer","LyrLnType":"Continuous","BlkLinetype":"","LTScale":1,"Elevation":0,"Thickness":0,"LineWt":25,"EntLineWt":-1,"LyrLineWt":-3,"BlkLineWt":-1,"RefName":"3.028","ExtX":0,"ExtY":0,"ExtZ":1,"DocName":"3-Khu-140ha-KHU DO THI SINH THAI 1_GIS.dwg","DocPath":"E:\\Work\\TEDI\\chiMuoiHai\\3-Khu-140ha-KHU DO THI SINH THAI 1_GIS.dwg","DocType":"DWG","DocVer":"AC1021","DocUpdate":1787762631000,"DocId":7712302381976638464,"ScaleX":1,"ScaleY":1,"ScaleZ":1,"Owner":null,"Style":null,"FontID":660638,"Text":"3.028","Height":0.96049999999999991,"Angle":30.31293996650875,"TxtWidth":1.1299999999999999,"TxtOblique":0,"TxtGenType":null,"HorizontalAlignment":0,"VerticalAlignment":2,"FontName":"","TxtBoxHt":0,"TxtBoxWd":0,"TxtRefWd":0,"TxtAttach":null,"TxtDir":0,"LnSpace":0,"SpaceFct":1,"TxtMemo":"3.028","FeatureID":null,"ZOrder":null,"AnnotationClassID":0,"Element":null,"SymbolID":0,"Status":null}},{"type":"Feature","id":17,"geometry":{"type":"Point","coordinates":[106.35000944554443,10.771530628537413]},"properties":{"OBJECTID":17,"maNhanDang":"DC","phienBan":0,"ngayPhienBan":1787702400000,"giaTriDoChinhXacMatPhang":0,"nguyenNhanThayDoi":null,"maDoiTuong":"BC03","soHieuDiem":"DC17     ","doCao":2.7930000000000001,"loaiMoc":1,"loaiCapHang":5,"Join_Count":1,"TARGET_FID":17,"TENMOC":"DC17     ","CAODO":"2.793","BUFF_DIST":3,"ORIG_FID":1515,"Entity":"Text","Handle":"BC794","Layer":"LKC-140","LyrFrzn":0,"LyrLock":0,"LyrOn":1,"LyrVPFrzn":0,"LyrHandle":"A1C07","Color":2,"EntColor":-1,"LyrColor":2,"BlkColor":0,"Linetype":"Continuous","EntLinetype":"ByLayer","LyrLnType":"Continuous","BlkLinetype":"","LTScale":1,"Elevation":0,"Thickness":0,"LineWt":25,"EntLineWt":-1,"LyrLineWt":-3,"BlkLineWt":-1,"RefName":"2.793","ExtX":0,"ExtY":0,"ExtZ":1,"DocName":"3-Khu-140ha-KHU DO THI SINH THAI 1_GIS.dwg","DocPath":"E:\\Work\\TEDI\\chiMuoiHai\\3-Khu-140ha-KHU DO THI SINH THAI 1_GIS.dwg","DocType":"DWG","DocVer":"AC1021","DocUpdate":1787762631000,"DocId":7712302381976638464,"ScaleX":1,"ScaleY":1,"ScaleZ":1,"Owner":null,"Style":null,"FontID":660638,"Text":"2.793","Height":0.96049999999999991,"Angle":30.31293996650875,"TxtWidth":1.1299999999999999,"TxtOblique":0,"TxtGenType":null,"HorizontalAlignment":0,"VerticalAlignment":2,"FontName":"","TxtBoxHt":0,"TxtBoxWd":0,"TxtRefWd":0,"TxtAttach":null,"TxtDir":0,"LnSpace":0,"SpaceFct":1,"TxtMemo":"2.793","FeatureID":null,"ZOrder":null,"AnnotationClassID":0,"Element":null,"SymbolID":0,"Status":null}},{"type":"Feature","id":18,"geometry":{"type":"Point","coordinates":[106.34899286922125,10.769900698579649]},"properties":{"OBJECTID":18,"maNhanDang":"DC","phienBan":0,"ngayPhienBan":1787702400000,"giaTriDoChinhXacMatPhang":0,"nguyenNhanThayDoi":null,"maDoiTuong":"BC03","soHieuDiem":"DC18     ","doCao":2.2749999999999999,"loaiMoc":1,"loaiCapHang":5,"Join_Count":1,"TARGET_FID":18,"TENMOC":"DC18     ","CAODO":"2.275","BUFF_DIST":3,"ORIG_FID":1516,"Entity":"Text","Handle":"BC797","Layer":"LKC-140","LyrFrzn":0,"LyrLock":0,"LyrOn":1,"LyrVPFrzn":0,"LyrHandle":"A1C07","Color":2,"EntColor":-1,"LyrColor":2,"BlkColor":0,"Linetype":"Continuous","EntLinetype":"ByLayer","LyrLnType":"Continuous","BlkLinetype":"","LTScale":1,"Elevation":0,"Thickness":0,"LineWt":25,"EntLineWt":-1,"LyrLineWt":-3,"BlkLineWt":-1,"RefName":"2.275","ExtX":0,"ExtY":0,"ExtZ":1,"DocName":"3-Khu-140ha-KHU DO THI SINH THAI 1_GIS.dwg","DocPath":"E:\\Work\\TEDI\\chiMuoiHai\\3-Khu-140ha-KHU DO THI SINH THAI 1_GIS.dwg","DocType":"DWG","DocVer":"AC1021","DocUpdate":1787762631000,"DocId":7712302381976638464,"ScaleX":1,"ScaleY":1,"ScaleZ":1,"Owner":null,"Style":null,"FontID":660638,"Text":"2.275","Height":0.96049999999999991,"Angle":30.31293996650875,"TxtWidth":1.1299999999999999,"TxtOblique":0,"TxtGenType":null,"HorizontalAlignment":0,"VerticalAlignment":2,"FontName":"","TxtBoxHt":0,"TxtBoxWd":0,"TxtRefWd":0,"TxtAttach":null,"TxtDir":0,"LnSpace":0,"SpaceFct":1,"TxtMemo":"2.275","FeatureID":null,"ZOrder":null,"AnnotationClassID":0,"Element":null,"SymbolID":0,"Status":null}},{"type":"Feature","id":19,"geometry":{"type":"Point","coordinates":[106.34755656959743,10.770205402635243]},"properties":{"OBJECTID":19,"maNhanDang":"DC","phienBan":0,"ngayPhienBan":1787702400000,"giaTriDoChinhXacMatPhang":0,"nguyenNhanThayDoi":null,"maDoiTuong":"BC03","soHieuDiem":"DC19     ","doCao":1.857,"loaiMoc":1,"loaiCapHang":5,"Join_Count":1,"TARGET_FID":19,"TENMOC":"DC19     ","CAODO":"1.857","BUFF_DIST":3,"ORIG_FID":1517,"Entity":"Text","Handle":"BC79A","Layer":"LKC-140","LyrFrzn":0,"LyrLock":0,"LyrOn":1,"LyrVPFrzn":0,"LyrHandle":"A1C07","Color":2,"EntColor":-1,"LyrColor":2,"BlkColor":0,"Linetype":"Continuous","EntLinetype":"ByLayer","LyrLnType":"Continuous","BlkLinetype":"","LTScale":1,"Elevation":0,"Thickness":0,"LineWt":25,"EntLineWt":-1,"LyrLineWt":-3,"BlkLineWt":-1,"RefName":"1.857","ExtX":0,"ExtY":0,"ExtZ":1,"DocName":"3-Khu-140ha-KHU DO THI SINH THAI 1_GIS.dwg","DocPath":"E:\\Work\\TEDI\\chiMuoiHai\\3-Khu-140ha-KHU DO THI SINH THAI 1_GIS.dwg","DocType":"DWG","DocVer":"AC1021","DocUpdate":1787762631000,"DocId":7712302381976638464,"ScaleX":1,"ScaleY":1,"ScaleZ":1,"Owner":null,"Style":null,"FontID":660638,"Text":"1.857","Height":0.96049999999999991,"Angle":30.31293996650875,"TxtWidth":1.1299999999999999,"TxtOblique":0,"TxtGenType":null,"HorizontalAlignment":0,"VerticalAlignment":2,"FontName":"","TxtBoxHt":0,"TxtBoxWd":0,"TxtRefWd":0,"TxtAttach":null,"TxtDir":0,"LnSpace":0,"SpaceFct":1,"TxtMemo":"1.857","FeatureID":null,"ZOrder":null,"AnnotationClassID":0,"Element":null,"SymbolID":0,"Status":null}},{"type":"Feature","id":20,"geometry":{"type":"Point","coordinates":[106.3457412218724,10.770075071642308]},"properties":{"OBJECTID":20,"maNhanDang":"DC","phienBan":0,"ngayPhienBan":1787702400000,"giaTriDoChinhXacMatPhang":0,"nguyenNhanThayDoi":null,"maDoiTuong":"BC03","soHieuDiem":"DC20     ","doCao":1.845,"loaiMoc":1,"loaiCapHang":5,"Join_Count":1,"TARGET_FID":20,"TENMOC":"DC20     ","CAODO":"1.845","BUFF_DIST":3,"ORIG_FID":1518,"Entity":"Text","Handle":"BC79D","Layer":"LKC-140","LyrFrzn":0,"LyrLock":0,"LyrOn":1,"LyrVPFrzn":0,"LyrHandle":"A1C07","Color":2,"EntColor":-1,"LyrColor":2,"BlkColor":0,"Linetype":"Continuous","EntLinetype":"ByLayer","LyrLnType":"Continuous","BlkLinetype":"","LTScale":1,"Elevation":0,"Thickness":0,"LineWt":25,"EntLineWt":-1,"LyrLineWt":-3,"BlkLineWt":-1,"RefName":"1.845","ExtX":0,"ExtY":0,"ExtZ":1,"DocName":"3-Khu-140ha-KHU DO THI SINH THAI 1_GIS.dwg","DocPath":"E:\\Work\\TEDI\\chiMuoiHai\\3-Khu-140ha-KHU DO THI SINH THAI 1_GIS.dwg","DocType":"DWG","DocVer":"AC1021","DocUpdate":1787762631000,"DocId":7712302381976638464,"ScaleX":1,"ScaleY":1,"ScaleZ":1,"Owner":null,"Style":null,"FontID":660638,"Text":"1.845","Height":0.96049999999999991,"Angle":30.31293996650875,"TxtWidth":1.1299999999999999,"TxtOblique":0,"TxtGenType":null,"HorizontalAlignment":0,"VerticalAlignment":2,"FontName":"","TxtBoxHt":0,"TxtBoxWd":0,"TxtRefWd":0,"TxtAttach":null,"TxtDir":0,"LnSpace":0,"SpaceFct":1,"TxtMemo":"1.845","FeatureID":null,"ZOrder":null,"AnnotationClassID":0,"Element":null,"SymbolID":0,"Status":null}},{"type":"Feature","id":21,"geometry":{"type":"Point","coordinates":[106.34871977887157,10.780021039841417]},"properties":{"OBJECTID":21,"maNhanDang":"GPS","phienBan":0,"ngayPhienBan":1787702400000,"giaTriDoChinhXacMatPhang":0,"nguyenNhanThayDoi":null,"maDoiTuong":"BC03","soHieuDiem":"GPS03    ","doCao":1.4139999999999999,"loaiMoc":1,"loaiCapHang":5,"Join_Count":1,"TARGET_FID":21,"TENMOC":"GPS03    ","CAODO":"1.414","BUFF_DIST":3,"ORIG_FID":1519,"Entity":"Text","Handle":"BC761","Layer":"LKC-140","LyrFrzn":0,"LyrLock":0,"LyrOn":1,"LyrVPFrzn":0,"LyrHandle":"A1C07","Color":2,"EntColor":-1,"LyrColor":2,"BlkColor":0,"Linetype":"Continuous","EntLinetype":"ByLayer","LyrLnType":"Continuous","BlkLinetype":"","LTScale":1,"Elevation":0,"Thickness":0,"LineWt":25,"EntLineWt":-1,"LyrLineWt":-3,"BlkLineWt":-1,"RefName":"1.414","ExtX":0,"ExtY":0,"ExtZ":1,"DocName":"3-Khu-140ha-KHU DO THI SINH THAI 1_GIS.dwg","DocPath":"E:\\Work\\TEDI\\chiMuoiHai\\3-Khu-140ha-KHU DO THI SINH THAI 1_GIS.dwg","DocType":"DWG","DocVer":"AC1021","DocUpdate":1787762631000,"DocId":7712302381976638464,"ScaleX":1,"ScaleY":1,"ScaleZ":1,"Owner":null,"Style":null,"FontID":660638,"Text":"1.414","Height":0.96049999999999991,"Angle":30.31293996650875,"TxtWidth":1.1299999999999999,"TxtOblique":0,"TxtGenType":null,"HorizontalAlignment":0,"VerticalAlignment":2,"FontName":"","TxtBoxHt":0,"TxtBoxWd":0,"TxtRefWd":0,"TxtAttach":null,"TxtDir":0,"LnSpace":0,"SpaceFct":1,"TxtMemo":"1.414","FeatureID":null,"ZOrder":null,"AnnotationClassID":0,"Element":null,"SymbolID":0,"Status":null}},{"type":"Feature","id":22,"geometry":{"type":"Point","coordinates":[106.33764796324836,10.776494033998771]},"properties":{"OBJECTID":22,"maNhanDang":"GPS","phienBan":0,"ngayPhienBan":1787702400000,"giaTriDoChinhXacMatPhang":0,"nguyenNhanThayDoi":null,"maDoiTuong":"BC03","soHieuDiem":"GPS01    ","doCao":1.458,"loaiMoc":1,"loaiCapHang":5,"Join_Count":1,"TARGET_FID":22,"TENMOC":"GPS01    ","CAODO":"1.458","BUFF_DIST":3,"ORIG_FID":1520,"Entity":"Text","Handle":"BC75F","Layer":"LKC-140","LyrFrzn":0,"LyrLock":0,"LyrOn":1,"LyrVPFrzn":0,"LyrHandle":"A1C07","Color":2,"EntColor":-1,"LyrColor":2,"BlkColor":0,"Linetype":"Continuous","EntLinetype":"ByLayer","LyrLnType":"Continuous","BlkLinetype":"","LTScale":1,"Elevation":0,"Thickness":0,"LineWt":25,"EntLineWt":-1,"LyrLineWt":-3,"BlkLineWt":-1,"RefName":"1.458","ExtX":0,"ExtY":0,"ExtZ":1,"DocName":"3-Khu-140ha-KHU DO THI SINH THAI 1_GIS.dwg","DocPath":"E:\\Work\\TEDI\\chiMuoiHai\\3-Khu-140ha-KHU DO THI SINH THAI 1_GIS.dwg","DocType":"DWG","DocVer":"AC1021","DocUpdate":1787762631000,"DocId":7712302381976638464,"ScaleX":1,"ScaleY":1,"ScaleZ":1,"Owner":null,"Style":null,"FontID":660638,"Text":"1.458","Height":0.96049999999999991,"Angle":30.31293996650875,"TxtWidth":1.1299999999999999,"TxtOblique":0,"TxtGenType":null,"HorizontalAlignment":0,"VerticalAlignment":2,"FontName":"","TxtBoxHt":0,"TxtBoxWd":0,"TxtRefWd":0,"TxtAttach":null,"TxtDir":0,"LnSpace":0,"SpaceFct":1,"TxtMemo":"1.458","FeatureID":null,"ZOrder":null,"AnnotationClassID":0,"Element":null,"SymbolID":0,"Status":null}}]
}