{
  "type" : "FeatureCollection",
  "features" : [{"type":"Feature","id":1,"geometry":{"type":"Point","coordinates":[106.34678997673431,10.776505221248483]},"properties":{"OBJECTID":1,"Entity":"Insert","Handle":"B5E1B","Layer":"KS_coctieubienbao","LyrFrzn":0,"LyrLock":0,"LyrOn":1,"LyrVPFrzn":0,"LyrHandle":"AD081","Color":7,"EntColor":-1,"LyrColor":7,"BlkColor":-1,"Linetype":"Continuous","EntLinetype":"ByLayer","LyrLnType":"Continuous","BlkLinetype":"ByLayer","LTScale":1,"Elevation":2.9649999999999999,"Thickness":0,"LineWt":25,"EntLineWt":-1,"LyrLineWt":-3,"BlkLineWt":-1,"RefName":"BBTG","ExtX":0,"ExtY":0,"ExtZ":1,"DocName":"3-Khu-140ha-KHU DO THI SINH THAI 1_GIS.dwg","DocPath":"E:\\Work\\TEDI\\chiMuoiHai\\3-Khu-140ha-KHU DO THI SINH THAI 1_GIS.dwg","DocType":"DWG","DocVer":"AC1021","DocUpdate":1787762631000,"DocId":7712302381976638464,"ScaleX":1,"ScaleY":1,"ScaleZ":1,"Angle":0,"TENMOC":null,"CAODO":null}},{"type":"Feature","id":2,"geometry":{"type":"Point","coordinates":[106.34705734748373,10.776076625079723]},"properties":{"OBJECTID":2,"Entity":"Insert","Handle":"B5E77","Layer":"KS_coctieubienbao","LyrFrzn":0,"LyrLock":0,"LyrOn":1,"LyrVPFrzn":0,"LyrHandle":"AD081","Color":7,"EntColor":-1,"LyrColor":7,"BlkColor":-1,"Linetype":"Continuous","EntLinetype":"ByLayer","LyrLnType":"Continuous","BlkLinetype":"ByLayer","LTScale":1,"Elevation":2.9430000000000001,"Thickness":0,"LineWt":25,"EntLineWt":-1,"LyrLineWt":-3,"BlkLineWt":-1,"RefName":"BBTG","ExtX":0,"ExtY":0,"ExtZ":1,"DocName":"3-Khu-140ha-KHU DO THI SINH THAI 1_GIS.dwg","DocPath":"E:\\Work\\TEDI\\chiMuoiHai\\3-Khu-140ha-KHU DO THI SINH THAI 1_GIS.dwg","DocType":"DWG","DocVer":"AC1021","DocUpdate":1787762631000,"DocId":7712302381976638464,"ScaleX":1,"ScaleY":1,"ScaleZ":1,"Angle":0,"TENMOC":null,"CAODO":null}}]
}