{
  "type" : "FeatureCollection",
  "features" : [{"type":"Feature","id":1,"geometry":{"type":"LineString","coordinates":[[106.3628772834421,10.77426455028213],[106.36393398776903,10.774223638788593],[106.36528400821837,10.77417280223208],[106.36590931960119,10.7741580855572],[106.36713887245969,10.774124325420093],[106.36778192984929,10.77411109755864],[106.36826506138844,10.774081510518325],[106.36859759435383,10.774073522908704],[106.36869885064613,10.774085074013495],[106.36874011826771,10.77410176347979],[106.36877763007872,10.774129852025387],[106.3688019888442,10.774162949290931],[106.36881189522643,10.774195228274916],[106.36881207600024,10.774222853414763],[106.36880248914628,10.774256591651787],[106.36878722041286,10.774282283041916],[106.3687398103244,10.774370071213909],[106.36855516945737,10.774638795732617],[106.36829675476842,10.775012788190791],[106.36810625211814,10.775290984610022],[106.36760515451611,10.776028193968648],[106.3670570591365,10.776843519546514],[106.36640224155063,10.77781520364803],[106.36570607837223,10.778848806951771],[106.36504987067103,10.779848398882194],[106.36498806417099,10.779944639489379],[106.36495601521028,10.77998804811507],[106.36488805620962,10.780103439693882],[106.36485904042911,10.780146486980607],[106.36483645957284,10.780179359470882],[106.36480380059703,10.780232190861627],[106.3646889075207,10.780398860860092],[106.36466089824768,10.78040352822765],[106.364268691736,10.781004927877452],[106.36402685049089,10.781358416528484],[106.36332322669745,10.782401629575036],[106.36181199169638,10.784667160978845],[106.36074270478969,10.786285107206378]]},"properties":{"OBJECTID":1,"maNhanDang":"","phienBan":0,"ngayPhienBan":-2209161600000,"giaTriDoChinhXacMatPhang":0,"nguyenNhanThayDoi":null,"maDoiTuong":"GE01","loaiHienTrangSuDung":1,"lienKetGiaoThong":9,"SHAPE_Length":2259.4106886600189}},{"type":"Feature","id":2,"geometry":{"type":"LineString","coordinates":[[106.36288254378429,10.774227462940031],[106.36393133137207,10.774191977221911],[106.36528636118837,10.774148180869934],[106.36591060973376,10.774127925109264],[106.36713642378857,10.774096498653337],[106.36777500865503,10.774075959263499],[106.36826166581224,10.774051232847178],[106.36845496381875,10.774037831842902],[106.36855067539273,10.774034621162251],[106.36862894983557,10.77403853516457],[106.36868200986838,10.774034519946369],[106.36874243923619,10.774050862865016],[106.36878456637665,10.774076961325695],[106.36882032202254,10.774111036667508],[106.36884456844642,10.774155386509625],[106.36884929715778,10.774195475450963],[106.36884095777425,10.774240534977155],[106.36883236884751,10.774266383904987],[106.36881755451267,10.774298768302199],[106.36876280423225,10.774390322220123],[106.36858638674134,10.77466104194731],[106.36832405392492,10.775030972919687],[106.36813520131597,10.775308963546266],[106.36763767023542,10.776049960323386],[106.36709113366122,10.776866053138896],[106.36644387888191,10.777842172212713],[106.3657460945131,10.778874389233213],[106.36507974266914,10.779882083989408],[106.36494731115452,10.780066854511881],[106.36491279773449,10.780131798131039],[106.36489148117502,10.780162716175308],[106.36486315419211,10.780198239125438],[106.36483319764893,10.780234157684736],[106.36481909579634,10.780258411789562],[106.36470174316358,10.780431914395736],[106.36457903307357,10.780629790225923],[106.3643099441921,10.781034503977985],[106.36406455090527,10.781386811721433],[106.36336838670812,10.78243041420467],[106.36183490205855,10.784682079379932],[106.35988134789247,10.787638000278903],[106.35861452030386,10.789512478200097],[106.35856385225951,10.789587894359613],[106.35823865133428,10.790159789615304],[106.35802681289731,10.790487804670953]]},"properties":{"OBJECTID":2,"maNhanDang":"","phienBan":0,"ngayPhienBan":-2209161600000,"giaTriDoChinhXacMatPhang":0,"nguyenNhanThayDoi":null,"maDoiTuong":"GE01","loaiHienTrangSuDung":1,"lienKetGiaoThong":9,"SHAPE_Length":2819.3616236875723}},{"type":"Feature","id":3,"geometry":{"type":"LineString","coordinates":[[106.34887301295626,10.779890817663603],[106.34908019197593,10.780004478825925],[106.34931079977568,10.780132966002201],[106.34948665364874,10.780229427366637],[106.34967433470008,10.780336207691423],[106.34988682111198,10.780451548665487],[106.35008420394442,10.780558689657074],[106.35024318680475,10.78064960587575],[106.35043266661621,10.780741907637463],[106.35057596964647,10.780819454452514],[106.3507478764201,10.78091200887418],[106.35095346594808,10.781025769428698],[106.35110768704035,10.781108348698352],[106.35123475807107,10.781176225734844],[106.3514295616357,10.781292232775275],[106.35158984901074,10.781376156154694],[106.35178377942766,10.781484723035497],[106.35293189251705,10.782093559746631],[106.35366558612716,10.782501509756559],[106.35501965951114,10.78324799307148]]},"properties":{"OBJECTID":3,"maNhanDang":"","phienBan":0,"ngayPhienBan":-2209161600000,"giaTriDoChinhXacMatPhang":0,"nguyenNhanThayDoi":null,"maDoiTuong":"GE01","loaiHienTrangSuDung":1,"lienKetGiaoThong":9,"SHAPE_Length":768.02643365933545}},{"type":"Feature","id":4,"geometry":{"type":"LineString","coordinates":[[106.34890948540378,10.779839096994559],[106.34911372570497,10.77995514972948],[106.34934102260458,10.780079086640285],[106.34951580290452,10.780181987236316],[106.34970448585447,10.7802826367328],[106.34991930073109,10.780400973875393],[106.35011372530801,10.780510335616112],[106.35026918971076,10.780593022318385],[106.35045132090164,10.780686442213616],[106.35060432585881,10.780769177805754],[106.3507931258729,10.780873170623863],[106.35112959884648,10.781059150444106],[106.35126470481643,10.781134941705538],[106.35146230029071,10.781247406481246],[106.35160753628175,10.781317770510919],[106.35182165565807,10.781439706808293],[106.35254397848493,10.781829269827279],[106.35365087152707,10.782432208735591],[106.35504861203766,10.78320812193385]]},"properties":{"OBJECTID":4,"maNhanDang":"","phienBan":0,"ngayPhienBan":-2209161600000,"giaTriDoChinhXacMatPhang":0,"nguyenNhanThayDoi":null,"maDoiTuong":"GE01","loaiHienTrangSuDung":1,"lienKetGiaoThong":9,"SHAPE_Length":767.93160503394688}},{"type":"Feature","id":5,"geometry":{"type":"LineString","coordinates":[[106.36069337674355,10.786359745316847],[106.35985846109017,10.787623046436645],[106.35859169084922,10.789497439172411],[106.35854043840673,10.789573724408568],[106.35821516638498,10.790145749066989],[106.35800269408124,10.790473231936968]]},"properties":{"OBJECTID":5,"maNhanDang":"","phienBan":0,"ngayPhienBan":-2209161600000,"giaTriDoChinhXacMatPhang":0,"nguyenNhanThayDoi":null,"maDoiTuong":"GE01","loaiHienTrangSuDung":1,"lienKetGiaoThong":9,"SHAPE_Length":542.01463977757714}},{"type":"Feature","id":6,"geometry":{"type":"LineString","coordinates":[[106.3534864622802,10.772200102775157],[106.35409061413995,10.772551544437807],[106.35440799640971,10.772727371017607],[106.3551159469155,10.773137463904355],[106.35574216961867,10.773501139378732]]},"properties":{"OBJECTID":6,"maNhanDang":"","phienBan":0,"ngayPhienBan":-2209161600000,"giaTriDoChinhXacMatPhang":0,"nguyenNhanThayDoi":null,"maDoiTuong":"GE01","loaiHienTrangSuDung":1,"lienKetGiaoThong":9,"SHAPE_Length":285.60733055400476}},{"type":"Feature","id":7,"geometry":{"type":"LineString","coordinates":[[106.35575540865732,10.773452129569465],[106.35519813757138,10.773135063082531],[106.35483282759679,10.77292570483163],[106.35458002622718,10.772773444602924],[106.35428090786877,10.772617564944039],[106.35383336468553,10.772354596404952],[106.35351024977055,10.772172207573099]]},"properties":{"OBJECTID":7,"maNhanDang":"","phienBan":0,"ngayPhienBan":-2209161600000,"giaTriDoChinhXacMatPhang":0,"nguyenNhanThayDoi":null,"maDoiTuong":"GE01","loaiHienTrangSuDung":1,"lienKetGiaoThong":9,"SHAPE_Length":283.47220671739751}},{"type":"Feature","id":8,"geometry":{"type":"LineString","coordinates":[[106.35259164648656,10.773662617148711],[106.35279519948467,10.773766089379917],[106.35318579129941,10.773987223711067],[106.35374165185952,10.774290849043886],[106.35446706578963,10.774704395402846],[106.35470754982363,10.774832130730696]]},"properties":{"OBJECTID":8,"maNhanDang":"","phienBan":0,"ngayPhienBan":-2209161600000,"giaTriDoChinhXacMatPhang":0,"nguyenNhanThayDoi":null,"maDoiTuong":"GE01","loaiHienTrangSuDung":1,"lienKetGiaoThong":9,"SHAPE_Length":265.13790403203791}},{"type":"Feature","id":9,"geometry":{"type":"LineString","coordinates":[[106.3526041875878,10.77363849587535],[106.35280829340745,10.773742246389768],[106.35319924037752,10.773963582532277],[106.35375513477642,10.774267227667185],[106.35448041043608,10.774680694706401],[106.35472052923542,10.774808237260858]]},"properties":{"OBJECTID":9,"maNhanDang":"","phienBan":0,"ngayPhienBan":-2209161600000,"giaTriDoChinhXacMatPhang":0,"nguyenNhanThayDoi":null,"maDoiTuong":"GE01","loaiHienTrangSuDung":1,"lienKetGiaoThong":9,"SHAPE_Length":265.19209966480179}},{"type":"Feature","id":10,"geometry":{"type":"LineString","coordinates":[[106.35456717598041,10.774956363448885],[106.35414267536093,10.774723889206106],[106.35367328132126,10.774469791724451],[106.35329227344688,10.774251634681564],[106.35266249722595,10.773908891854068],[106.35249364585151,10.773818005821116]]},"properties":{"OBJECTID":10,"maNhanDang":"","phienBan":0,"ngayPhienBan":-2209161600000,"giaTriDoChinhXacMatPhang":0,"nguyenNhanThayDoi":null,"maDoiTuong":"GE01","loaiHienTrangSuDung":1,"lienKetGiaoThong":9,"SHAPE_Length":259.39157192604489}},{"type":"Feature","id":11,"geometry":{"type":"LineString","coordinates":[[106.35455388349973,10.774980089361867],[106.35412944418296,10.7747476475304],[106.35365982127594,10.774493426614997],[106.35327878500358,10.774275254242568],[106.35264932637178,10.773932681646686],[106.35248053082485,10.773841826237943]]},"properties":{"OBJECTID":11,"maNhanDang":"","phienBan":0,"ngayPhienBan":-2209161600000,"giaTriDoChinhXacMatPhang":0,"nguyenNhanThayDoi":null,"maDoiTuong":"GE01","loaiHienTrangSuDung":1,"lienKetGiaoThong":9,"SHAPE_Length":259.36951311064649}},{"type":"Feature","id":12,"geometry":{"type":"LineString","coordinates":[[106.35501965951114,10.78324799307148],[106.35538073064477,10.783445084590427],[106.35544522081314,10.783474909393567],[106.35558272479888,10.783540740768908],[106.35560238480593,10.783571098922767],[106.35626879906312,10.783915127794163],[106.35690257820882,10.784266150810115],[106.35736315149249,10.784521050689845],[106.35758000934533,10.784635680416208],[106.35775621400195,10.784736725282622],[106.35792258345695,10.784825488232135],[106.35809388872394,10.784903207814791],[106.35821586653263,10.784967752080174],[106.35833594157744,10.78503278281979],[106.35837864441586,10.785076057513285],[106.35868831646695,10.785252244688632],[106.35897563765396,10.785407337752959],[106.35927630527692,10.785572161263145],[106.35970420459245,10.785801817014713],[106.36001784353964,10.785975558424566],[106.36042886781348,10.786186718744144],[106.36059132377714,10.786270280298607],[106.36064941620643,10.786306559150843],[106.36066606134168,10.786317511070084],[106.36067933277813,10.786329601569726],[106.36068901042412,10.786345688927886],[106.36069337674355,10.786359745316847]]},"properties":{"OBJECTID":12,"maNhanDang":"","phienBan":0,"ngayPhienBan":-2209161600000,"giaTriDoChinhXacMatPhang":0,"nguyenNhanThayDoi":null,"maDoiTuong":"GE01","loaiHienTrangSuDung":1,"lienKetGiaoThong":9,"SHAPE_Length":711.29869262759371}},{"type":"Feature","id":13,"geometry":{"type":"LineString","coordinates":[[106.35504861203766,10.78320812193385],[106.35537385849277,10.783364848678561],[106.35548305297601,10.783422200779354],[106.35558422079545,10.783484078165589],[106.35570343354912,10.783550118841625],[106.3563010373511,10.783871360694127],[106.35693881251864,10.784219717774731],[106.35739210655382,10.784481179341107],[106.35760896347628,10.784595810858411],[106.35778516719969,10.784696853902958],[106.35795153755778,10.784785618644253],[106.35812284280456,10.784863336403744],[106.35824482060588,10.784927882466603],[106.35836489563998,10.784992913195669],[106.35845772267301,10.785049457339614],[106.35872439575934,10.785200202754027],[106.35901026048843,10.785360406788918],[106.35931371942658,10.785521883239031],[106.35973829374201,10.785754632974289],[106.36005112009157,10.785928091162949],[106.36046044182105,10.786141128986751],[106.36061877242184,10.78623353257216],[106.36064375243166,10.786250851866756],[106.36066243045589,10.786263243616025],[106.36069570618113,10.786280659554802],[106.36071958419731,10.786286581286001],[106.36074270478969,10.786285107206378]]},"properties":{"OBJECTID":13,"maNhanDang":"","phienBan":0,"ngayPhienBan":-2209161600000,"giaTriDoChinhXacMatPhang":0,"nguyenNhanThayDoi":null,"maDoiTuong":"GE01","loaiHienTrangSuDung":1,"lienKetGiaoThong":9,"SHAPE_Length":710.35398684961422}}]
}