{
  "type" : "FeatureCollection",
  "features" : [{"type":"Feature","id":1,"geometry":{"type":"LineString","coordinates":[[106.3458292295031,10.778918967351023],[106.34573679521858,10.778868483109978],[106.34577950053242,10.778854389281639]]},"properties":{"OBJECTID":1,"maNhanDang":"","phienBan":0,"ngayPhienBan":1787702400000,"giaTriDoChinhXacMatPhang":0,"nguyenNhanThayDoi":null,"maDoiTuong":"GG05","ten":"Cầu Bà Kiểng","loaiCauGiaoThong":1,"chatLieuCau":1,"taiTrong":null,"chieuDai":0,"chieuRong":0,"SHAPE_Length":16.472262423777217}},{"type":"Feature","id":2,"geometry":{"type":"LineString","coordinates":[[106.34570194458873,10.778961652278063],[106.34569846985303,10.778928151298212],[106.34576457263262,10.778967086618756]]},"properties":{"OBJECTID":2,"maNhanDang":"","phienBan":0,"ngayPhienBan":1787702400000,"giaTriDoChinhXacMatPhang":0,"nguyenNhanThayDoi":null,"maDoiTuong":"GG05","ten":"Cầu Bà Kiểng","loaiCauGiaoThong":1,"chatLieuCau":1,"taiTrong":null,"chieuDai":0,"chieuRong":0,"SHAPE_Length":12.139623898290552}},{"type":"Feature","id":3,"geometry":{"type":"LineString","coordinates":[[106.34550226483269,10.778844892262557],[106.34553674622488,10.778831769002533],[106.34569846985303,10.778928151298212]]},"properties":{"OBJECTID":3,"maNhanDang":"","phienBan":0,"ngayPhienBan":1787702400000,"giaTriDoChinhXacMatPhang":0,"nguyenNhanThayDoi":null,"maDoiTuong":"GG05","ten":"Cầu Bà Kiểng","loaiCauGiaoThong":1,"chatLieuCau":1,"taiTrong":null,"chieuDai":0,"chieuRong":0,"SHAPE_Length":24.691695985020402}},{"type":"Feature","id":4,"geometry":{"type":"LineString","coordinates":[[106.34557085706365,10.778741809010652],[106.34557324086427,10.778772028408214],[106.34573679521858,10.778868483109978]]},"properties":{"OBJECTID":4,"maNhanDang":"","phienBan":0,"ngayPhienBan":1787702400000,"giaTriDoChinhXacMatPhang":0,"nguyenNhanThayDoi":null,"maDoiTuong":"GG05","ten":"Cầu Bà Kiểng","loaiCauGiaoThong":1,"chatLieuCau":1,"taiTrong":null,"chieuDai":0,"chieuRong":0,"SHAPE_Length":24.179477800117649}}]
}