{
  "type" : "FeatureCollection",
  "features" : [{"type":"Feature","id":1,"geometry":{"type":"LineString","coordinates":[[106.35680828055992,10.791897217773004],[106.35682320863626,10.791893149002155],[106.356925578904,10.791962545466614],[106.3569273075866,10.791977336686728]]},"properties":{"OBJECTID":1,"maNhanDang":"","phienBan":0,"ngayPhienBan":1787657610000,"giaTriDoChinhXacMatPhang":0,"nguyenNhanThayDoi":null,"maDoiTuong":"GG05","ten":null,"loaiCauGiaoThong":1,"chatLieuCau":2,"taiTrong":null,"chieuDai":0,"chieuRong":0,"SHAPE_Length":16.914087150243205}},{"type":"Feature","id":2,"geometry":{"type":"LineString","coordinates":[[106.35683196872655,10.791869390287646],[106.35683038431127,10.791886397614105],[106.35693026479446,10.791952703338413],[106.356945503478,10.791947574353047]]},"properties":{"OBJECTID":2,"maNhanDang":"","phienBan":0,"ngayPhienBan":1787657610000,"giaTriDoChinhXacMatPhang":0,"nguyenNhanThayDoi":null,"maDoiTuong":"GG05","ten":null,"loaiCauGiaoThong":1,"chatLieuCau":2,"taiTrong":null,"chieuDai":0,"chieuRong":0,"SHAPE_Length":16.806010996741165}}]
}