{
  "type" : "FeatureCollection",
  "features" : [{"type":"Feature","id":1,"geometry":{"type":"LineString","coordinates":[[106.34735192091973,10.777324178244385],[106.34712167962265,10.777700155165922]]},"properties":{"OBJECTID":1,"maNhanDang":"","phienBan":0,"ngayPhienBan":1787702400000,"giaTriDoChinhXacMatPhang":0,"nguyenNhanThayDoi":null,"maDoiTuong":"GE01","loaiHienTrangSuDung":2,"lienKetGiaoThong":9,"SHAPE_Length":48.615058113221231}},{"type":"Feature","id":2,"geometry":{"type":"LineString","coordinates":[[106.34712167962265,10.777700155165922],[106.3467071062384,10.778376663620477],[106.3463252632605,10.7789996746202],[106.34630169516295,10.779039290521153],[106.34627836414838,10.779063713511468],[106.34625859030096,10.779078947640405],[106.34623495219537,10.779089513213767],[106.34620538650712,10.779094246107745],[106.34616989736571,10.779094314406525],[106.34612787022066,10.779080385388767],[106.34574683838504,10.778849645911523]]},"properties":{"OBJECTID":2,"maNhanDang":"","phienBan":0,"ngayPhienBan":1787702400000,"giaTriDoChinhXacMatPhang":0,"nguyenNhanThayDoi":null,"maDoiTuong":"GE01","loaiHienTrangSuDung":2,"lienKetGiaoThong":9,"SHAPE_Length":243.31428626667494}},{"type":"Feature","id":3,"geometry":{"type":"LineString","coordinates":[[106.34568596511214,10.778947900942445],[106.34600496164482,10.779142630304712],[106.3460868961325,10.77919451431471],[106.34610599004083,10.779216622536003],[106.34611533917082,10.779239129228786],[106.34612574628918,10.779270481382548],[106.346123848847,10.779308066555053],[106.34611277303715,10.779355084659954]]},"properties":{"OBJECTID":3,"maNhanDang":"","phienBan":0,"ngayPhienBan":1787702400000,"giaTriDoChinhXacMatPhang":0,"nguyenNhanThayDoi":null,"maDoiTuong":"GE01","loaiHienTrangSuDung":2,"lienKetGiaoThong":9,"SHAPE_Length":70.699123791086663}},{"type":"Feature","id":4,"geometry":{"type":"LineString","coordinates":[[106.34194288920465,10.7755808475489],[106.34209192580792,10.775666045311475],[106.34229492019266,10.775784058084646],[106.34255053118216,10.775926986501792],[106.34275012458386,10.776040412641725],[106.34295508580915,10.776153973028668],[106.34321172916195,10.776296139447144],[106.34341345109588,10.7764083134018],[106.34361913597633,10.776522287820487],[106.343818514273,10.776632874771911],[106.3439745365561,10.776717452436319],[106.34416270981757,10.7768212889382],[106.34432651713352,10.77690762351757],[106.34454381411608,10.777030290512526],[106.34478367795609,10.777162117740716],[106.34483212005838,10.777184410205431],[106.34508705591541,10.777266428630227],[106.3452749610282,10.77729395004785],[106.34544201883378,10.777298529252791],[106.34563271817478,10.777277603531267],[106.34580695336895,10.777235435937975],[106.34599596338261,10.777159941916384],[106.34613260723218,10.77708478360514],[106.34630055064311,10.776963329455084],[106.34644231852803,10.776820371922845],[106.34656582304004,10.776652659141218],[106.3466975893392,10.776468945962451]]},"properties":{"OBJECTID":4,"maNhanDang":"","phienBan":0,"ngayPhienBan":1787702400000,"giaTriDoChinhXacMatPhang":0,"nguyenNhanThayDoi":null,"maDoiTuong":"GE01","loaiHienTrangSuDung":2,"lienKetGiaoThong":9,"SHAPE_Length":603.51010843603854}},{"type":"Feature","id":5,"geometry":{"type":"LineString","coordinates":[[106.34623633136303,10.777222368486308],[106.34622334636119,10.777217339568443],[106.34621095401918,10.777216097678174],[106.34618761713449,10.777215175199037],[106.34615616809877,10.777218101700171],[106.34610572859904,10.777230973643704],[106.34603091077574,10.777266648611388],[106.34601448870107,10.777276073775282],[106.34600807601279,10.777283915595591],[106.34600315513399,10.77729245070126],[106.34599765815912,10.777310262955819],[106.34600080280887,10.777323782206075],[106.34606928920867,10.777397641800391],[106.34607422291666,10.77740491933481],[106.34607828125684,10.777413437166841],[106.34608476699411,10.777424129203833],[106.34609214608506,10.77743342721172],[106.34610601197963,10.777444665589812],[106.34611680094555,10.777448921213418],[106.34612851619251,10.77744992934435],[106.34614149579188,10.777447562758407],[106.34615336196168,10.777441627129116],[106.34616052652329,10.777434841653285],[106.34616961724035,10.777421787075337],[106.3461826322817,10.777400262593293],[106.34624695868398,10.77729315695248],[106.34625242615512,10.777283590120284],[106.34625611858917,10.777273448081502],[106.34625768270232,10.777259775117193],[106.34625594224036,10.777248893132557],[106.34625122088137,10.777238007843335],[106.34624516043806,10.777229692767845],[106.34623633136303,10.777222368486308]]},"properties":{"OBJECTID":5,"maNhanDang":"","phienBan":0,"ngayPhienBan":1787702400000,"giaTriDoChinhXacMatPhang":0,"nguyenNhanThayDoi":null,"maDoiTuong":"GE01","loaiHienTrangSuDung":2,"lienKetGiaoThong":9,"SHAPE_Length":82.987576282547252}},{"type":"Feature","id":6,"geometry":{"type":"LineString","coordinates":[[106.34596038639835,10.777383873943423],[106.34595248620364,10.777379269200679],[106.34593648564726,10.777370566394163],[106.34591045076139,10.777360065649953],[106.34588358295302,10.777353788640955],[106.34585591639528,10.77735051476958],[106.34582779054637,10.777350822005324],[106.3458116373359,10.777352833041864],[106.34565896339441,10.777404370846018],[106.34559522725183,10.777439762219858],[106.34554532224792,10.777473382087665],[106.34550907272619,10.777499598265416],[106.34547624786339,10.777532941187395],[106.34545017363254,10.777558242745704],[106.34543069079831,10.777578224581738],[106.34539785768024,10.777621331766278],[106.34535950880253,10.777682025204504],[106.34533990341964,10.777718751158845],[106.34531784683581,10.777769106573178],[106.34529392569814,10.777838478741716],[106.34528077206225,10.777891881938492],[106.34526989573207,10.777945533906623],[106.3452665109602,10.778009885037404],[106.34527281824735,10.778115887404981],[106.34529106739285,10.778203260497305],[106.34530187095265,10.778228888987478],[106.34532184779587,10.778260177583146],[106.34534729204421,10.778286492175127],[106.34536960296509,10.77830503754692],[106.34540111216117,10.778323348256155],[106.34543584814791,10.778336499404112],[106.34548601956313,10.77834529025254],[106.34551459511869,10.778345777784502],[106.34553986372278,10.778343206780038],[106.34557387005299,10.778334046187132],[106.34560540057593,10.778321346287948],[106.34562804460404,10.778309332502792],[106.34564470974067,10.778293279854203],[106.3457545991198,10.77811114605524],[106.3458479913716,10.777956148793752],[106.34592777387634,10.777822559591819],[106.34600997417596,10.777686298633089],[106.34605599950389,10.777609506458161],[106.34605973935726,10.777600223222791],[106.34606223433437,10.777585626288914],[106.34606286448673,10.777557353947163],[106.34605804067488,10.777522284243492],[106.34604799162226,10.777489774146845],[106.34603527457276,10.777462928832762],[106.34601797411167,10.777434889885258],[106.34596038639835,10.777383873943423]]},"properties":{"OBJECTID":6,"maNhanDang":"","phienBan":0,"ngayPhienBan":1787702400000,"giaTriDoChinhXacMatPhang":0,"nguyenNhanThayDoi":null,"maDoiTuong":"GE01","loaiHienTrangSuDung":2,"lienKetGiaoThong":9,"SHAPE_Length":303.65086129214052}},{"type":"Feature","id":7,"geometry":{"type":"LineString","coordinates":[[106.3453918697363,10.778389500756171],[106.34536460858762,10.778383188298735],[106.34535447858369,10.778383903920743],[106.3453454521313,10.778387817927221],[106.34533718674975,10.778392815388058],[106.34532975566081,10.778398932326485],[106.34532458556983,10.778406301615691],[106.34532065295339,10.778415223574758],[106.3453185127069,10.778424232499358],[106.34531641901474,10.778433666260369],[106.34531588750536,10.778447029844003],[106.34531550264309,10.778465221026906],[106.34531633327192,10.778483084399035],[106.34531817052313,10.778501352680708],[106.34532646156515,10.778537319832237],[106.34533266799285,10.778554775070898],[106.3453441651162,10.778579697029333],[106.34535289277665,10.778595890726798],[106.34536628705122,10.778613729954413],[106.34537121708546,10.778619136024423],[106.34537965036776,10.778625123025211],[106.34539018486862,10.778630156685102],[106.34540085220857,10.778632993132225],[106.34541152458682,10.778633741103928],[106.34542388230223,10.778631294371765],[106.34543492844834,10.778626815940429],[106.34544339249265,10.778620543317453],[106.34545462183213,10.778606924107089],[106.34552576774057,10.778489336040794],[106.34553256718641,10.778473555509171],[106.34553462858732,10.778461653622827],[106.34553279343248,10.778449108276503],[106.34552595147808,10.778433968753584],[106.34551568652226,10.77842185549604],[106.3455008548564,10.778412400021946],[106.34549476027826,10.778409979714242],[106.34545290561344,10.778403722438226],[106.3453918697363,10.778389500756171]]},"properties":{"OBJECTID":7,"maNhanDang":"","phienBan":0,"ngayPhienBan":1787702400000,"giaTriDoChinhXacMatPhang":0,"nguyenNhanThayDoi":null,"maDoiTuong":"GE01","loaiHienTrangSuDung":2,"lienKetGiaoThong":9,"SHAPE_Length":81.562806689239636}},{"type":"Feature","id":8,"geometry":{"type":"LineString","coordinates":[[106.34506086718648,10.77909045975011],[106.34512773369201,10.778926174303948],[106.34516009484686,10.778819627521552],[106.34518330194139,10.778726524172237],[106.34519691270495,10.778631188055172],[106.34520400059736,10.778469042615912],[106.34520193430254,10.778376096311153],[106.34519109307946,10.778289423219251],[106.3451641672571,10.778155939727974],[106.34511764634556,10.77800393274754],[106.34503877539197,10.777833752238923],[106.34495305598455,10.777696258945086],[106.34485814849225,10.77757810383104],[106.34475715622767,10.777476442065172],[106.34464657096242,10.777383496093925],[106.34471158923203,10.777307146821416],[106.34469979665232,10.777271403349443],[106.34466837189315,10.7771935575607],[106.3446385494463,10.777163372726555],[106.34451119017798,10.777091497244317],[106.34429574356149,10.776970535424367],[106.34412380177548,10.776876694333851],[106.34394624094699,10.776780386684672],[106.34378712096574,10.776692207593197],[106.34358556756955,10.776582212453853],[106.34337923929981,10.776466557624584],[106.34317977775417,10.776360020894009],[106.34292140982593,10.77621504600652],[106.34272030053768,10.7760980516994],[106.34251580662966,10.775984933264819],[106.34225836901354,10.775838437124504],[106.34206122470391,10.775728794142468],[106.3419167519439,10.775644166271984]]},"properties":{"OBJECTID":8,"maNhanDang":"","phienBan":0,"ngayPhienBan":1787702400000,"giaTriDoChinhXacMatPhang":0,"nguyenNhanThayDoi":null,"maDoiTuong":"GE01","loaiHienTrangSuDung":2,"lienKetGiaoThong":9,"SHAPE_Length":581.53223757362298}},{"type":"Feature","id":9,"geometry":{"type":"LineString","coordinates":[[106.34487293972128,10.777338860219519],[106.3448600056908,10.777350466543782],[106.34485552431961,10.777363982367502],[106.34493706226593,10.777495507641797],[106.34503465646696,10.77762216513128],[106.34512593037802,10.777761781403539],[106.34515135550649,10.777797010454995],[106.34517991547945,10.777831474039836],[106.34520163778188,10.777838999607072],[106.34521342950391,10.777832386081984],[106.34526977034101,10.777746804448453],[106.34530621610104,10.777671531582154],[106.34534713868528,10.777603708915242],[106.34538555794302,10.777546261053862],[106.34541612698071,10.777486378169831],[106.34542468570331,10.777453859412558],[106.34542199000376,10.777436135238595],[106.34541243845575,10.77742874903452],[106.34525928278485,10.77740737209718],[106.34505062235945,10.777371193116094],[106.34493453835329,10.777337114570845],[106.34487293972128,10.777338860219519]]},"properties":{"OBJECTID":9,"maNhanDang":"","phienBan":0,"ngayPhienBan":1787702400000,"giaTriDoChinhXacMatPhang":0,"nguyenNhanThayDoi":null,"maDoiTuong":"GE01","loaiHienTrangSuDung":2,"lienKetGiaoThong":9,"SHAPE_Length":181.65062143841851}},{"type":"Feature","id":10,"geometry":{"type":"LineString","coordinates":[[106.34553674622488,10.778831769002533],[106.34538445744101,10.778884273351286],[106.34536640179765,10.778895374205391],[106.34534423587944,10.778918055406074],[106.34526297138922,10.779023656463758],[106.34516536604917,10.779152189688249]]},"properties":{"OBJECTID":10,"maNhanDang":"","phienBan":0,"ngayPhienBan":1787702400000,"giaTriDoChinhXacMatPhang":0,"nguyenNhanThayDoi":null,"maDoiTuong":"GE01","loaiHienTrangSuDung":2,"lienKetGiaoThong":9,"SHAPE_Length":55.907027407826689}},{"type":"Feature","id":11,"geometry":{"type":"LineString","coordinates":[[106.34557324086427,10.778772028408214],[106.3455429419291,10.77875075899447],[106.3455331490396,10.778741565065902],[106.34552583036471,10.77873044969402],[106.34552097051436,10.77871888658761],[106.34551720315055,10.778700242297299],[106.34551826097635,10.778684834441821],[106.34552687495609,10.778661808600958],[106.34561521752953,10.778514822370287],[106.34572021320905,10.778341060891353],[106.3458306868374,10.778158455813276],[106.34592792343719,10.777996173151077],[106.34600692346038,10.777864574449977],[106.34608604242888,10.777733047830125],[106.34618114646069,10.777574503123688],[106.34625990054434,10.77744349250249],[106.34629917559344,10.777379605716105],[106.34634234125416,10.777308713722517]]},"properties":{"OBJECTID":11,"maNhanDang":"","phienBan":0,"ngayPhienBan":1787702400000,"giaTriDoChinhXacMatPhang":0,"nguyenNhanThayDoi":null,"maDoiTuong":"GE01","loaiHienTrangSuDung":2,"lienKetGiaoThong":9,"SHAPE_Length":189.13923742806006}},{"type":"Feature","id":12,"geometry":{"type":"LineString","coordinates":[[106.34634234125416,10.777308713722517],[106.34648123409646,10.777094066771594],[106.34660258345281,10.776913800208485],[106.34672816711237,10.776757176638336],[106.34679635310705,10.7766692574522],[106.34686554787505,10.776564294072438],[106.3469574319389,10.776424009085765],[106.34706321225613,10.776259386119172],[106.34718212982966,10.776070417581931],[106.34729270603101,10.775894303266165],[106.34740730875984,10.775710631939605],[106.34751850283956,10.775528033983161],[106.3476361978062,10.77534069502506],[106.34772859069935,10.77518986707943],[106.34775460921392,10.775155063389716],[106.34779203964703,10.775125146933529],[106.34788379870815,10.775088751775575],[106.34792104197722,10.775098371844114]]},"properties":{"OBJECTID":12,"maNhanDang":"","phienBan":0,"ngayPhienBan":1787702400000,"giaTriDoChinhXacMatPhang":0,"nguyenNhanThayDoi":null,"maDoiTuong":"GE01","loaiHienTrangSuDung":2,"lienKetGiaoThong":9,"SHAPE_Length":304.37799036990782}},{"type":"Feature","id":13,"geometry":{"type":"LineString","coordinates":[[106.34796356396252,10.775025998172973],[106.34794037401549,10.774992880626183],[106.34793360874272,10.774933214211284],[106.3479389785669,10.774888116514079],[106.34799140265457,10.774773764574928],[106.3481025635343,10.774593218799096],[106.34822006399746,10.774400346945033],[106.34833029820219,10.774222967226839],[106.3484507522101,10.77403492651456],[106.3485430957458,10.773878022916232],[106.3486627370072,10.773690643691992],[106.34877416139979,10.773505025209069],[106.34886468715953,10.773358458870833]]},"properties":{"OBJECTID":13,"maNhanDang":"","phienBan":0,"ngayPhienBan":1787702400000,"giaTriDoChinhXacMatPhang":0,"nguyenNhanThayDoi":null,"maDoiTuong":"GE01","loaiHienTrangSuDung":2,"lienKetGiaoThong":9,"SHAPE_Length":213.39671216654108}},{"type":"Feature","id":14,"geometry":{"type":"LineString","coordinates":[[106.34877237161551,10.773307257373444],[106.34877571783173,10.77330455426929],[106.34877947599527,10.773302461390447],[106.34878353601019,10.773301040048118],[106.34878777893772,10.773300331880737],[106.34879208048068,10.773300357634175],[106.34879631462472,10.773301116553979],[106.34880035732998,10.773302586407482],[106.34880409016478,10.773304724135105],[106.34880740377518,10.773307467111799],[106.34881020108848,10.773310734981655],[106.34881240015696,10.773314432011937],[106.34881393655859,10.773318449897591],[106.34881476528423,10.773322670934061],[106.34881486205626,10.773326971465451],[106.34881422403973,10.773331225507055]]},"properties":{"OBJECTID":14,"maNhanDang":"","phienBan":0,"ngayPhienBan":1787702400000,"giaTriDoChinhXacMatPhang":0,"nguyenNhanThayDoi":null,"maDoiTuong":"GE01","loaiHienTrangSuDung":2,"lienKetGiaoThong":9,"SHAPE_Length":7.1039070255138244}},{"type":"Feature","id":15,"geometry":{"type":"LineString","coordinates":[[106.34836462685216,10.774057821813338],[106.34836112944011,10.774060435283532],[106.34835723226064,10.774062403559372],[106.34835305309318,10.7740636671562],[106.34834871823931,10.774064187885966],[106.3483443587057,10.774063950011323],[106.34834010624492,10.774062960721254],[106.34833608937357,10.774061249913791],[106.34833242948839,10.774058869292457],[106.34832923719732,10.774055890803691],[106.34832660897688,10.774052404462511],[106.34832462425635,10.774048515632096],[106.34832334301738,10.774044341839542],[106.34832280398122,10.774040009223983],[106.34832302343844,10.77403564872446],[106.34832399475667,10.77403139212271]]},"properties":{"OBJECTID":15,"maNhanDang":"","phienBan":0,"ngayPhienBan":1787702400000,"giaTriDoChinhXacMatPhang":0,"nguyenNhanThayDoi":null,"maDoiTuong":"GE01","loaiHienTrangSuDung":2,"lienKetGiaoThong":9,"SHAPE_Length":7.2111681405551771}},{"type":"Feature","id":16,"geometry":{"type":"LineString","coordinates":[[106.34826220360904,10.774129768709605],[106.34826568201281,10.774127367688916],[106.34826950564795,10.774125566576094],[106.34827357197389,10.774124413672602],[106.34827777194167,10.774123939896501],[106.34828199291839,10.774124157953315],[106.3482861217077,10.774125061995289],[106.34829004758555,10.774126627778221],[106.34829366526947,10.774128813311624],[106.34829687774196,10.774131559984816],[106.34829959885234,10.774134794138709],[106.34830175562706,10.774138429041173],[106.34830329022668,10.774142367212976],[106.34830416149696,10.774146503041941],[106.34830434607257,10.774150725615206],[106.34830383900362,10.774154921693638]]},"properties":{"OBJECTID":16,"maNhanDang":"","phienBan":0,"ngayPhienBan":1787702400000,"giaTriDoChinhXacMatPhang":0,"nguyenNhanThayDoi":null,"maDoiTuong":"GE01","loaiHienTrangSuDung":2,"lienKetGiaoThong":9,"SHAPE_Length":6.9781988672144388}},{"type":"Feature","id":17,"geometry":{"type":"LineString","coordinates":[[106.34787229262037,10.774846168480257],[106.34786921060885,10.774848981228528],[106.34786569717626,10.774851232037115],[106.3478618536068,10.774852856020372],[106.34785779070175,10.774853806362591],[106.34785362558533,10.774854055667589],[106.34784947832827,10.774853596748475],[106.3478454684865,10.774852442834833],[106.34784171165451,10.774850627191343],[106.34783831613318,10.774848202158839],[106.34783537980756,10.77484523764544],[106.34783298732519,10.774841819111259],[106.34783120765584,10.774838045104788],[106.34783009210331,10.774834024421967],[106.34782967282639,10.77482987296985],[106.34782996191188,10.774825710425269],[106.34783095102613,10.774821656784827]]},"properties":{"OBJECTID":17,"maNhanDang":"","phienBan":0,"ngayPhienBan":1787702400000,"giaTriDoChinhXacMatPhang":0,"nguyenNhanThayDoi":null,"maDoiTuong":"GE01","loaiHienTrangSuDung":2,"lienKetGiaoThong":9,"SHAPE_Length":7.3518253957121455}},{"type":"Feature","id":18,"geometry":{"type":"LineString","coordinates":[[106.34767393843551,10.775074021995268],[106.34767713804182,10.775071242522593],[106.34768075794111,10.775069038145556],[106.34768469588573,10.775067471128962],[106.34768884064459,10.775066585734736],[106.34769307514489,10.77506640697171],[106.34769727977898,10.775066939889223],[106.34770133578284,10.775068169434494],[106.34770512859066,10.775070060877807],[106.34770855107084,10.775072560793483],[106.34771150655205,10.775075598568941],[106.34771391155383,10.775079088399226],[106.34771569814451,10.77508293171064],[106.34771681586011,10.775087019945076],[106.34771723312963,10.77509123762632],[106.34771693816688,10.775095465621815]]},"properties":{"OBJECTID":18,"maNhanDang":"","phienBan":0,"ngayPhienBan":1787702400000,"giaTriDoChinhXacMatPhang":0,"nguyenNhanThayDoi":null,"maDoiTuong":"GE01","loaiHienTrangSuDung":2,"lienKetGiaoThong":9,"SHAPE_Length":6.9980842392369063}},{"type":"Feature","id":19,"geometry":{"type":"LineString","coordinates":[[106.34681979718452,10.776529682936015],[106.34681618497886,10.776532260782044],[106.34681219261843,10.77653419840377],[106.34680793249582,10.776535441253422],[106.3468035245417,10.776535954342393],[106.34679909284844,10.776535723226241],[106.34679476217673,10.776534754411331],[106.34679065444328,10.776533075171663],[106.34678688528872,10.776530732781065],[106.34678356082198,10.776527793182334],[106.34678077463317,10.776524339130823],[106.3467786051589,10.776520467864726],[106.34677711347402,10.776516288367622],[106.34677634157231,10.77651191830039],[106.34677631118431,10.776507480688823]]},"properties":{"OBJECTID":19,"maNhanDang":"","phienBan":0,"ngayPhienBan":1787702400000,"giaTriDoChinhXacMatPhang":0,"nguyenNhanThayDoi":null,"maDoiTuong":"GE01","loaiHienTrangSuDung":2,"lienKetGiaoThong":9,"SHAPE_Length":6.8366394069764356}},{"type":"Feature","id":20,"geometry":{"type":"LineString","coordinates":[[106.34681979718452,10.776529682936015],[106.3469032942,10.776397569077595],[106.34701006535171,10.77622533171864],[106.34712830144194,10.776038534347471],[106.3472402260398,10.775859931182769],[106.34735168515832,10.775681826133292],[106.34746774726395,10.775496370902813],[106.34758533024426,10.77530787493391],[106.34771693816688,10.775095465621815]]},"properties":{"OBJECTID":20,"maNhanDang":"","phienBan":0,"ngayPhienBan":1787702400000,"giaTriDoChinhXacMatPhang":0,"nguyenNhanThayDoi":null,"maDoiTuong":"GE01","loaiHienTrangSuDung":2,"lienKetGiaoThong":9,"SHAPE_Length":186.52654521259527}},{"type":"Feature","id":21,"geometry":{"type":"LineString","coordinates":[[106.34767393843551,10.775074021995268],[106.34754323723234,10.775282560005143],[106.34742497809589,10.775471310410051],[106.3473100391918,10.775656022100755],[106.34719736607555,10.77583521439286],[106.34708594037535,10.776011791403596],[106.34696994253137,10.776197589940475],[106.34686418928655,10.776366688107666],[106.34677631118431,10.776507480688823]]},"properties":{"OBJECTID":21,"maNhanDang":"","phienBan":0,"ngayPhienBan":1787702400000,"giaTriDoChinhXacMatPhang":0,"nguyenNhanThayDoi":null,"maDoiTuong":"GE01","loaiHienTrangSuDung":2,"lienKetGiaoThong":9,"SHAPE_Length":186.4825146747653}},{"type":"Feature","id":22,"geometry":{"type":"LineString","coordinates":[[106.34783095102613,10.774821656784827],[106.34789623398474,10.774717948403373],[106.34800938962665,10.774538104006046],[106.34812640190391,10.774348035828755],[106.34826220360904,10.774129768709605]]},"properties":{"OBJECTID":22,"maNhanDang":"","phienBan":0,"ngayPhienBan":1787702400000,"giaTriDoChinhXacMatPhang":0,"nguyenNhanThayDoi":null,"maDoiTuong":"GE01","loaiHienTrangSuDung":2,"lienKetGiaoThong":9,"SHAPE_Length":89.895004990399826}},{"type":"Feature","id":23,"geometry":{"type":"LineString","coordinates":[[106.34830383900362,10.774154921693638],[106.3482814101085,10.774192322294939],[106.3481676913039,10.774373921816386],[106.34805126758614,10.774561050555857],[106.34793816527215,10.774740108299756],[106.34787229262037,10.774846168480257]]},"properties":{"OBJECTID":23,"maNhanDang":"","phienBan":0,"ngayPhienBan":1787702400000,"giaTriDoChinhXacMatPhang":0,"nguyenNhanThayDoi":null,"maDoiTuong":"GE01","loaiHienTrangSuDung":2,"lienKetGiaoThong":9,"SHAPE_Length":89.851948775461096}},{"type":"Feature","id":24,"geometry":{"type":"LineString","coordinates":[[106.34832399475667,10.77403139212271],[106.34835662401369,10.773978059712118],[106.34845051227785,10.77382548378332],[106.34856876668519,10.77363497005285],[106.3486836323231,10.77345095424737],[106.34877237161551,10.773307257373444]]},"properties":{"OBJECTID":24,"maNhanDang":"","phienBan":0,"ngayPhienBan":1787702400000,"giaTriDoChinhXacMatPhang":0,"nguyenNhanThayDoi":null,"maDoiTuong":"GE01","loaiHienTrangSuDung":2,"lienKetGiaoThong":9,"SHAPE_Length":93.914100382708909}},{"type":"Feature","id":25,"geometry":{"type":"LineString","coordinates":[[106.34881422403973,10.773331225507055],[106.34872597612663,10.773473709952427],[106.34861131461562,10.773659217138849],[106.34849218573615,10.773851405153126],[106.34839699082993,10.774004435665145],[106.34836462685216,10.774057821813338]]},"properties":{"OBJECTID":25,"maNhanDang":"","phienBan":0,"ngayPhienBan":1787702400000,"giaTriDoChinhXacMatPhang":0,"nguyenNhanThayDoi":null,"maDoiTuong":"GE01","loaiHienTrangSuDung":2,"lienKetGiaoThong":9,"SHAPE_Length":94.215988894410259}},{"type":"Feature","id":26,"geometry":{"type":"LineString","coordinates":[[106.34194288920465,10.7755808475489],[106.34138820212866,10.77526847379845],[106.33962374221659,10.774280835372748],[106.33140817979448,10.7696307210858]]},"properties":{"OBJECTID":26,"maNhanDang":"","phienBan":0,"ngayPhienBan":1787702400000,"giaTriDoChinhXacMatPhang":0,"nguyenNhanThayDoi":null,"maDoiTuong":"GE01","loaiHienTrangSuDung":2,"lienKetGiaoThong":9,"SHAPE_Length":1326.8529715781292}},{"type":"Feature","id":27,"geometry":{"type":"LineString","coordinates":[[106.3419167519439,10.775644166271984],[106.34135343675078,10.77532900985679],[106.33958891067289,10.774341335211057],[106.33137754991903,10.76969432049246]]},"properties":{"OBJECTID":27,"maNhanDang":"","phienBan":0,"ngayPhienBan":1787702400000,"giaTriDoChinhXacMatPhang":0,"nguyenNhanThayDoi":null,"maDoiTuong":"GE01","loaiHienTrangSuDung":2,"lienKetGiaoThong":9,"SHAPE_Length":1327.2644623845999}},{"type":"Feature","id":28,"geometry":{"type":"LineString","coordinates":[[106.33712374419397,10.767878882875204],[106.33701191593332,10.767832296590353],[106.33683383901362,10.767732853601789],[106.33673626435761,10.767677088943065],[106.33658017460462,10.767597695096685],[106.33647960219356,10.76754162862869],[106.33626204885891,10.767407007296727],[106.3361551066417,10.767349723183152],[106.33603550682918,10.767281447400478],[106.3358621291637,10.767184246145508],[106.3355900240207,10.767021165045813],[106.3354365438595,10.766925363482866],[106.33529605188717,10.766848825390815],[106.33517086379452,10.766774797067196],[106.33508581521812,10.766731698164225],[106.33498215775313,10.766675335029786],[106.33486404088377,10.766604824649869],[106.33468047831674,10.766494476395867],[106.33449900144234,10.766389306395657],[106.33437784275216,10.76631453239073],[106.33423638370679,10.766242624601837],[106.33408950454071,10.766159373264649],[106.33372369668578,10.765937420099638]]},"properties":{"OBJECTID":28,"maNhanDang":"","phienBan":0,"ngayPhienBan":1787702400000,"giaTriDoChinhXacMatPhang":0,"nguyenNhanThayDoi":null,"maDoiTuong":"GE01","loaiHienTrangSuDung":2,"lienKetGiaoThong":9,"SHAPE_Length":429.65605037761162}},{"type":"Feature","id":29,"geometry":{"type":"LineString","coordinates":[[106.33709170824392,10.767943762034594],[106.33694935586384,10.767858856302864],[106.33682128608343,10.767777870772028],[106.33671316509009,10.767704080237882],[106.3366070365223,10.767650606435103],[106.33638907700791,10.767522566005034],[106.33611496388407,10.767369211883445],[106.33568364603833,10.767125010343159],[106.33523834729129,10.766854657242728],[106.33492120240115,10.766684353576357],[106.33470352545773,10.766540923569513],[106.33436004266838,10.766344224024559],[106.33416270938551,10.766237204972473],[106.33410267492167,10.766205918651318]]},"properties":{"OBJECTID":29,"maNhanDang":"","phienBan":0,"ngayPhienBan":1787702400000,"giaTriDoChinhXacMatPhang":0,"nguyenNhanThayDoi":null,"maDoiTuong":"GE01","loaiHienTrangSuDung":2,"lienKetGiaoThong":9,"SHAPE_Length":379.4076651025901}},{"type":"Feature","id":30,"geometry":{"type":"LineString","coordinates":[[106.35004708487374,10.770212680187523],[106.35025046942731,10.770328728789329],[106.35045336218185,10.77044107321076],[106.3505029755555,10.770466951830016],[106.35053668871639,10.770476491656472],[106.35056403142556,10.770479064189102],[106.35059098155982,10.770474556590319],[106.35061468161938,10.770463372199004],[106.35064914413888,10.770433018175575],[106.35074471126057,10.770283438176243],[106.35081724673041,10.770155686103234],[106.35089458894171,10.770032087162814],[106.35095271875042,10.769936264955907],[106.35100387700994,10.769851294570817]]},"properties":{"OBJECTID":30,"maNhanDang":"","phienBan":0,"ngayPhienBan":1787702400000,"giaTriDoChinhXacMatPhang":0,"nguyenNhanThayDoi":null,"maDoiTuong":"GE01","loaiHienTrangSuDung":2,"lienKetGiaoThong":9,"SHAPE_Length":150.14341207277553}},{"type":"Feature","id":31,"geometry":{"type":"LineString","coordinates":[[106.35005393944923,10.770200933545759],[106.35025724710501,10.770316938895654],[106.35045991467065,10.770429157175517],[106.35050811663957,10.770454300784326],[106.35053924619119,10.77046310967976],[106.3505635288699,10.770465393404288],[106.35058680448363,10.770461500477326],[106.35060701494083,10.770451962879093],[106.35063857850122,10.770424160410727],[106.35073292599854,10.770276492230971],[106.35080543049136,10.770148794466341],[106.35088287661661,10.770025030781584],[106.3509409462775,10.769929308143992],[106.35099209177778,10.769844357675552]]},"properties":{"OBJECTID":31,"maNhanDang":"","phienBan":0,"ngayPhienBan":1787702400000,"giaTriDoChinhXacMatPhang":0,"nguyenNhanThayDoi":null,"maDoiTuong":"GE01","loaiHienTrangSuDung":2,"lienKetGiaoThong":9,"SHAPE_Length":147.79509695608792}},{"type":"Feature","id":32,"geometry":{"type":"LineString","coordinates":[[106.34171568145649,10.775531675412919],[106.34176250805611,10.775561334446076],[106.34177872780703,10.775582182718056],[106.34178374664927,10.775611578026387],[106.34177429322385,10.775636563657708],[106.34176079237281,10.775657609724782],[106.34171250084998,10.775694392056849],[106.34153434647975,10.775826303807412],[106.34141481250325,10.775929915609666],[106.34130122815593,10.776034848657208],[106.34111956155125,10.776282652406675],[106.34087763136134,10.776567015190277],[106.34083615224729,10.776617186759916],[106.34082434805256,10.776646502055348],[106.34081390118894,10.776696645188837],[106.34081539074663,10.776774015087176],[106.34081465705212,10.776917288953932],[106.34081196183034,10.777095632918348],[106.34082242363338,10.777236912691606],[106.34084511478034,10.777315554908096],[106.34087824407649,10.777415512128005],[106.34091247609797,10.777487322659068],[106.34096063716062,10.777547514269298],[106.34100838172974,10.777579817041179],[106.34107315748575,10.777601724540071],[106.34115111192129,10.777617352328534],[106.34129141683088,10.777628470809619],[106.34145319509994,10.777663899216851],[106.34153114744764,10.777686869997435],[106.34158582588177,10.777713085705685],[106.34162583189725,10.777730776652849],[106.34167918103775,10.777758971240695],[106.34171854581685,10.777789165269366],[106.34175187146694,10.777820023586022],[106.34178553574318,10.777865073784774],[106.34182254861793,10.77791111389889],[106.34185883769609,10.777945185131168],[106.34188040963654,10.777955343956082],[106.34193473948667,10.777955683167567],[106.34198009703209,10.777959589002474],[106.34207383415242,10.777981891186048],[106.34216875360171,10.77800747476496],[106.34223483436459,10.778027050560411],[106.34230554127005,10.778063120903235],[106.34234582038823,10.778103525790042],[106.34241208042319,10.778196042025234],[106.34245476957599,10.778269004282276],[106.34248052344178,10.77836303366424],[106.3424877074676,10.778441866313678],[106.34248202455585,10.778545172188332],[106.34246181162297,10.778625843729154],[106.34243857928014,10.778665333953937]]},"properties":{"OBJECTID":32,"maNhanDang":"","phienBan":0,"ngayPhienBan":1787702400000,"giaTriDoChinhXacMatPhang":0,"nguyenNhanThayDoi":null,"maDoiTuong":"GE01","loaiHienTrangSuDung":2,"lienKetGiaoThong":9,"SHAPE_Length":508.44846702005617}},{"type":"Feature","id":33,"geometry":{"type":"LineString","coordinates":[[106.34192504754478,10.775649025324043],[106.34191576505842,10.775645432086439],[106.34189137368671,10.775639195193111],[106.34185162539561,10.775640021513214],[106.34181163118885,10.77565725768166],[106.34178746606568,10.77567509648531],[106.34173260647233,10.77572073163663],[106.34155798013006,10.775855634653857],[106.34143724424729,10.775954353970929],[106.34132633786513,10.776056813727797],[106.34115101898959,10.776307471373089],[106.340912537956,10.776593756948545],[106.34088949994846,10.776631655480879],[106.34087907674817,10.776654547238003],[106.34086558813323,10.776699734481408],[106.34086557395619,10.776771221566007],[106.34087353004414,10.776913280026195],[106.34086951241555,10.777089624837485],[106.34086970534324,10.777225092756343],[106.34088293627568,10.7773046715742],[106.34091551692308,10.777401801816405],[106.34095108021853,10.77746326149464],[106.34099226227777,10.777504493004125],[106.34103173920458,10.77752941782698],[106.34108738603172,10.777556167006008],[106.34115545531924,10.777584590369241],[106.34129638209583,10.777595760100041],[106.34146158160929,10.777631935992417],[106.34154327593714,10.777656008051329],[106.34159992397485,10.777683171108164],[106.34164052851226,10.777701126715643],[106.34169740533083,10.777731184239201],[106.34174022801257,10.777764031518238],[106.34177702546377,10.777798103599036],[106.34181601536353,10.777840467491684],[106.34184555477243,10.77787003293661],[106.3418771950668,10.77789004528031],[106.34189385121535,10.777902987268575],[106.34193639813152,10.777919161666901],[106.34198536584664,10.777926901212622],[106.34208212915344,10.777949922698649],[106.34217793235739,10.777975745076485],[106.34224738366348,10.777996317976093],[106.3423255740603,10.77803620919318],[106.34237149136844,10.778082266567504],[106.34244020317365,10.778178206448562],[106.34248584286806,10.778256213350559],[106.34251350129668,10.778357195217238],[106.34252116376832,10.778441277951716],[106.3425151718701,10.778550225988921],[106.34250531231937,10.778614412297589],[106.34250650835185,10.778653680411026]]},"properties":{"OBJECTID":33,"maNhanDang":"","phienBan":0,"ngayPhienBan":1787702400000,"giaTriDoChinhXacMatPhang":0,"nguyenNhanThayDoi":null,"maDoiTuong":"GE01","loaiHienTrangSuDung":2,"lienKetGiaoThong":9,"SHAPE_Length":497.49318590101882}},{"type":"Feature","id":34,"geometry":{"type":"LineString","coordinates":[[106.34380076162604,10.772297163772794],[106.34480141145508,10.772871575197335],[106.34524198375748,10.773136530608438],[106.34572297433768,10.773414737684684],[106.34609750753029,10.773628990338763],[106.34665613876446,10.773957182369633],[106.34672052730552,10.774025059204869],[106.34683224585109,10.774096723462556],[106.34679197304636,10.77422572352439],[106.34684127462512,10.774314090917025],[106.34698376067854,10.774405491978161],[106.34705026650597,10.774407184715312],[106.34710034512683,10.77443230713234],[106.3473436173629,10.774585831454836],[106.34739372404371,10.774591768818707],[106.34742846845525,10.774551874540339],[106.34752023707249,10.774618680394715],[106.34767839574354,10.77468962552944],[106.34772144560776,10.774692014304568],[106.34773932285196,10.77467222891184],[106.34776241244801,10.774660995267118]]},"properties":{"OBJECTID":34,"maNhanDang":"","phienBan":0,"ngayPhienBan":1787702400000,"giaTriDoChinhXacMatPhang":0,"nguyenNhanThayDoi":null,"maDoiTuong":"GE01","loaiHienTrangSuDung":2,"lienKetGiaoThong":9,"SHAPE_Length":530.03908427262638}},{"type":"Feature","id":35,"geometry":{"type":"LineString","coordinates":[[106.34391046585252,10.772113360194707],[106.34447508263678,10.772448830207795],[106.34535168735808,10.772952726560488],[106.34583234062811,10.773237132622514],[106.34620319073601,10.773457974070416],[106.34675766996638,10.773778469199147],[106.34681924985384,10.773807513197838],[106.3468474949813,10.773784373578179],[106.34696924279973,10.773849789244263],[106.34718679593171,10.773974101239665],[106.34734998858723,10.774072801701365],[106.34751137192133,10.77415626247558],[106.34763652999992,10.774230625469373],[106.34771600586664,10.774278971606059],[106.34777873399446,10.774310593482769],[106.34785595201915,10.774356473941857],[106.3479004351489,10.774385521762593],[106.34793485981967,10.774406981907168],[106.34792668787559,10.774427743092767],[106.34790111754052,10.774459795665296],[106.34792495204154,10.774480386609421]]},"properties":{"OBJECTID":35,"maNhanDang":"","phienBan":0,"ngayPhienBan":1787702400000,"giaTriDoChinhXacMatPhang":0,"nguyenNhanThayDoi":null,"maDoiTuong":"GE01","loaiHienTrangSuDung":2,"lienKetGiaoThong":9,"SHAPE_Length":521.17738458555311}}]
}