{
  "type" : "FeatureCollection",
  "features" : [{"type":"Feature","id":1,"geometry":{"type":"Polygon","coordinates":[[[106.35689999605661,10.791751558167558],[106.35680063256891,10.791900999230503],[106.35676162350431,10.791875650763028],[106.35686098700435,10.79172620971179],[106.35689999605661,10.791751558167558]]]},"properties":{"OBJECTID":1,"maNhanDang":" ","phienBan":0,"ngayPhienBan":1787616000000,"giaTriDoChinhXacMatPhang":0,"nguyenNhanThayDoi":null,"maDoiTuong":"CA04","loaiNha":2,"mucDoKienCo":1,"chieuCao":null,"soTang":0,"ten":null,"SHAPE_Length":49.772086066830134,"SHAPE_Area":100.97999892570691}},{"type":"Feature","id":2,"geometry":{"type":"Polygon","coordinates":[[[106.35371020917057,10.797293204798716],[106.3536977248059,10.797334226268081],[106.35366285267467,10.797324689224782],[106.35367462280459,10.797282264186677],[106.35371020917057,10.797293204798716]]]},"properties":{"OBJECTID":2,"maNhanDang":" ","phienBan":0,"ngayPhienBan":1787616000000,"giaTriDoChinhXacMatPhang":0,"nguyenNhanThayDoi":null,"maDoiTuong":"CA04","loaiNha":2,"mucDoKienCo":1,"chieuCao":null,"soTang":0,"ten":null,"SHAPE_Length":17.636229471785448,"SHAPE_Area":19.28111421951974}},{"type":"Feature","id":3,"geometry":{"type":"Polygon","coordinates":[[[106.35365971843592,10.797302942811269],[106.35363757156532,10.79737302990827],[106.35355595945052,10.797348357299686],[106.3535778704135,10.797278270667906],[106.35358403198173,10.797280128312577],[106.35365971843592,10.797302942811269]]]},"properties":{"OBJECTID":3,"maNhanDang":" ","phienBan":0,"ngayPhienBan":1787616000000,"giaTriDoChinhXacMatPhang":0,"nguyenNhanThayDoi":null,"maDoiTuong":"CA04","loaiNha":2,"mucDoKienCo":1,"chieuCao":null,"soTang":0,"ten":null,"SHAPE_Length":34.925796260167665,"SHAPE_Area":75.860529933520397}},{"type":"Feature","id":4,"geometry":{"type":"Polygon","coordinates":[[[106.35262634097428,10.798022290739823],[106.35248030969927,10.798213259810463],[106.35244232306825,10.798186373686308],[106.35259002139962,10.797997703211339],[106.35262634097428,10.798022290739823]]]},"properties":{"OBJECTID":4,"maNhanDang":" ","phienBan":0,"ngayPhienBan":1787616000000,"giaTriDoChinhXacMatPhang":0,"nguyenNhanThayDoi":null,"maDoiTuong":"CA04","loaiNha":2,"mucDoKienCo":1,"chieuCao":null,"soTang":0,"ten":null,"SHAPE_Length":62.791279881272956,"SHAPE_Area":131.02292538356267}},{"type":"Feature","id":5,"geometry":{"type":"Polygon","coordinates":[[[106.35290843162976,10.798183121956299],[106.35286704555415,10.798250027933365],[106.35282606084493,10.798224731677657],[106.35287017698195,10.798158502071715],[106.35290843162976,10.798183121956299]]]},"properties":{"OBJECTID":5,"maNhanDang":" ","phienBan":0,"ngayPhienBan":1787616000000,"giaTriDoChinhXacMatPhang":0,"nguyenNhanThayDoi":null,"maDoiTuong":"CA04","loaiNha":2,"mucDoKienCo":1,"chieuCao":null,"soTang":0,"ten":null,"SHAPE_Length":27.721186045079612,"SHAPE_Area":44.806901997111787}}]
}