{
  "type" : "FeatureCollection",
  "features" : [{"type":"Feature","id":1,"geometry":{"type":"Polygon","coordinates":[[[106.34738612248934,10.771768346438582],[106.34731670260042,10.771777042016053],[106.34728189964397,10.771775951830797],[106.34714486607288,10.771754074482336],[106.34699327236562,10.77168403670508],[106.34688846257164,10.771621105389409],[106.346776417692,10.771552266123972],[106.34670482851105,10.771504079907499],[106.34669852980954,10.771500086878547],[106.34665368047776,10.771486322425844],[106.34659646042547,10.771491468377153],[106.34646052526428,10.771507271399225],[106.34640962309331,10.771507577277854],[106.34635292384401,10.771517179384899],[106.346284596876,10.771570146298149],[106.34625918470368,10.771624938301946],[106.34619763420083,10.771707255452897],[106.34609593177598,10.771749493396118],[106.34600149224748,10.771761563871484],[106.34587093067525,10.771729475287108],[106.34571202357843,10.771650780626112],[106.3456134070114,10.771575270002089],[106.34555641622768,10.771534252081713],[106.34550881664669,10.771433066472531],[106.34545985465479,10.771322553179665],[106.34545693528808,10.77120956462246],[106.34546713927155,10.771055812201968],[106.34544016030107,10.770997314636373],[106.34545121645559,10.770839826652747],[106.34548083839518,10.770717056534606],[106.34553895494894,10.770586537804192],[106.34560897865165,10.770494357066983],[106.34573419497003,10.77044025936336],[106.34591886010247,10.770389274977083],[106.34600859417647,10.770366185407017],[106.34609434427928,10.770328643329409],[106.34621310989391,10.770221234147369],[106.34633767288462,10.770193039871664],[106.34644277224844,10.770185044374704],[106.34657332784228,10.770126144354903],[106.34668188882496,10.770083714071216],[106.34678257000976,10.770079469929469],[106.34695650628282,10.770105905409546],[106.34720889553603,10.770095564678112],[106.34738961235968,10.770143142738661],[106.34754904301668,10.770209340925982],[106.34768955935567,10.770263541951643],[106.34778683896261,10.770314842759076],[106.34786376106159,10.770382745861655],[106.34797489109758,10.770493165963364],[106.34804812624309,10.770606317170957],[106.34807988896556,10.770716384026478],[106.34808414524348,10.770811333186078],[106.34802574578198,10.770960115654686],[106.34797604720679,10.77106062060105],[106.34786035886707,10.771277004428397],[106.34779525867815,10.771380323672819],[106.34773162171142,10.77148378473942],[106.34767522787163,10.771569403024749],[106.34760149454927,10.771681291641421],[106.34750173196653,10.771729681392479],[106.34743356232512,10.771751050034615],[106.34738612248934,10.771768346438582]]]},"properties":{"OBJECTID":1,"maNhanDang":"","phienBan":0,"ngayPhienBan":-2209161600000,"giaTriDoChinhXacMatPhang":0,"nguyenNhanThayDoi":null,"maDoiTuong":"KL02","ten":null,"SHAPE_Length":804.83206098398705,"SHAPE_Area":41640.902856542474}},{"type":"Feature","id":2,"geometry":{"type":"Polygon","coordinates":[[[106.34544830854823,10.772254510478604],[106.34540845667097,10.772289864930496],[106.34535572725103,10.772277037609745],[106.34537075391452,10.772255590668379],[106.3453892069311,10.772242165534799],[106.34544424076189,10.772222522267194],[106.34548160107282,10.772212812814546],[106.34553502331099,10.772187350236788],[106.3455478850224,10.772190245762591],[106.34556111153364,10.772201964582512],[106.34554602983161,10.772251230730625],[106.34552645044106,10.772259133998993],[106.34549441150806,10.772259412534142],[106.34546643456197,10.772246845072486],[106.34544830854823,10.772254510478604]]]},"properties":{"OBJECTID":2,"maNhanDang":"","phienBan":0,"ngayPhienBan":-2209161600000,"giaTriDoChinhXacMatPhang":0,"nguyenNhanThayDoi":null,"maDoiTuong":"KL02","ten":null,"SHAPE_Length":54.707221086680448,"SHAPE_Area":107.8473929955174}},{"type":"Feature","id":3,"geometry":{"type":"Polygon","coordinates":[[[106.34451103523946,10.772270576184704],[106.34447889829431,10.772326238042215],[106.34426638887997,10.77225770623925],[106.34422284581031,10.772248893388895],[106.34425199362902,10.772188053187529],[106.34433755364603,10.772193076865218],[106.34451103523946,10.772270576184704]]]},"properties":{"OBJECTID":3,"maNhanDang":"","phienBan":0,"ngayPhienBan":-2209161600000,"giaTriDoChinhXacMatPhang":0,"nguyenNhanThayDoi":null,"maDoiTuong":"KL02","ten":null,"SHAPE_Length":74.035561147147632,"SHAPE_Area":239.2203393359226}}]
}