{
  "type" : "FeatureCollection",
  "features" : [{"type":"Feature","id":1,"geometry":{"type":"Polygon","coordinates":[[[106.34795314439164,10.774449052253997],[106.34794764298782,10.77445805321301],[106.34793855619175,10.774452626270246],[106.34794405942453,10.774443625307853],[106.34795314439164,10.774449052253997]]]},"properties":{"OBJECTID":1,"Shape_Length":4.6484261978535457,"Shape_Area":1.3504901403297527}},{"type":"Feature","id":2,"geometry":{"type":"Polygon","coordinates":[[[106.3477954996135,10.774700632171806],[106.34778999637192,10.774709633131902],[106.34778091139938,10.774704206181308],[106.34778641464113,10.774695205221372],[106.3477954996135,10.774700632171806]]]},"properties":{"OBJECTID":2,"Shape_Length":4.6483590025828843,"Shape_Area":1.3504509213383513}},{"type":"Feature","id":3,"geometry":{"type":"Polygon","coordinates":[[[106.34656409635348,10.776645060813866],[106.3465576847786,10.776653454141764],[106.34654921246559,10.776647130921559],[106.34655562404414,10.776638739401996],[106.34656409635348,10.776645060813866]]]},"properties":{"OBJECTID":3,"Shape_Length":4.6483422762432447,"Shape_Area":1.3504411805078274}},{"type":"Feature","id":4,"geometry":{"type":"Polygon","coordinates":[[[106.34635347208405,10.776906052476612],[106.34634626186001,10.77691378734653],[106.34633845549183,10.776906676274265],[106.34634566388716,10.776898941408033],[106.34635347208405,10.776906052476612]]]},"properties":{"OBJECTID":4,"Shape_Length":4.6486517015024997,"Shape_Area":1.3506210206659133}},{"type":"Feature","id":5,"geometry":{"type":"Polygon","coordinates":[[[106.34608822366694,10.777104601827961],[106.34607918585255,10.777110152292094],[106.34607358325739,10.777101237819419],[106.34608261924647,10.777095689167163],[106.34608822366694,10.777104601827961]]]},"properties":{"OBJECTID":5,"Shape_Length":4.648521316686419,"Shape_Area":1.350545159485683}},{"type":"Feature","id":6,"geometry":{"type":"Polygon","coordinates":[[[106.34478912366392,10.777147032361169],[106.34478454295414,10.777156525139805],[106.34477496231791,10.777152008576762],[106.34477954302793,10.777142515798257],[106.34478912366392,10.777147032361169]]]},"properties":{"OBJECTID":6,"Shape_Length":4.648268020820324,"Shape_Area":1.3503980003248417}},{"type":"Feature","id":7,"geometry":{"type":"Polygon","coordinates":[[[106.34577393298113,10.777240001838861],[106.34576366418254,10.777242654316179],[106.3457609778238,10.777232477534529],[106.34577124662209,10.777229825057294],[106.34577393298113,10.777240001838861]]]},"properties":{"OBJECTID":7,"Shape_Length":4.6481204613465659,"Shape_Area":1.3503122414220816}},{"type":"Feature","id":8,"geometry":{"type":"Polygon","coordinates":[[[106.34510549557118,10.777253493548073],[106.34510346946513,10.777263818618758],[106.34509304887858,10.777261820687237],[106.345095074985,10.777251495616595],[106.34510549557118,10.777253493548073]]]},"properties":{"OBJECTID":8,"Shape_Length":4.6483793549216186,"Shape_Area":1.3504628801581515}},{"type":"Feature","id":9,"geometry":{"type":"Polygon","coordinates":[[[106.34544006054875,10.777282879469793],[106.345439624017,10.777293389539583],[106.3454290181507,10.777292961489094],[106.34542945468634,10.777282453227496],[106.34544006054875,10.777282879469793]]]},"properties":{"OBJECTID":9,"Shape_Length":4.6484616096293836,"Shape_Area":1.3505105399892432}}]
}