{
  "type" : "FeatureCollection",
  "features" : [{"type":"Feature","id":1,"geometry":{"type":"LineString","coordinates":[[106.35862216329039,10.78946352089814],[106.35859899504297,10.789497802721433],[106.35854774168791,10.789574087960501],[106.35822246967827,10.790146111721763],[106.35702664184984,10.791989240436246]]},"properties":{"OBJECTID":1,"maNhanDang":"","phienBan":0,"ngayPhienBan":1787616000000,"giaTriDoChinhXacMatPhang":0,"nguyenNhanThayDoi":null,"maDoiTuong":"GE01","loaiHienTrangSuDung":1,"lienKetGiaoThong":9,"SHAPE_Length":329.4785249953382}},{"type":"Feature","id":2,"geometry":{"type":"LineString","coordinates":[[106.35864720545254,10.78947528636524],[106.35862182358356,10.789512841750353],[106.35857115554103,10.789588257910966],[106.35824595462969,10.790160153173613],[106.35706015502605,10.791996253754776]]},"properties":{"OBJECTID":2,"maNhanDang":"","phienBan":0,"ngayPhienBan":1787616000000,"giaTriDoChinhXacMatPhang":0,"nguyenNhanThayDoi":null,"maDoiTuong":"GE01","loaiHienTrangSuDung":1,"lienKetGiaoThong":9,"SHAPE_Length":328.53646582096468}},{"type":"Feature","id":3,"geometry":{"type":"LineString","coordinates":[[106.34888031783295,10.779891181453509],[106.34908749685356,10.780004841706681],[106.3493181046564,10.780133328877337],[106.34949395944615,10.780229790235717],[106.34968163958749,10.780336571461785],[106.34989412600035,10.780451911526583],[106.35009150883715,10.780559053417466],[106.35025049169788,10.780649968728154],[106.35043997242774,10.780742271387595],[106.35058327454547,10.780819818200925],[106.35075518131953,10.780912371714301],[106.35096077085204,10.781026133167908],[106.3511149919463,10.781108712433806],[106.35124206297864,10.781176589467195],[106.35143686745863,10.781292595597009],[106.3515971539213,10.781376518974291],[106.35179108434082,10.781485085850365],[106.35197177836305,10.781580907058125]]},"properties":{"OBJECTID":3,"maNhanDang":"","phienBan":0,"ngayPhienBan":1787616000000,"giaTriDoChinhXacMatPhang":0,"nguyenNhanThayDoi":null,"maDoiTuong":"GE01","loaiHienTrangSuDung":1,"lienKetGiaoThong":9,"SHAPE_Length":386.36926284397151}},{"type":"Feature","id":4,"geometry":{"type":"LineString","coordinates":[[106.34891679119183,10.77983945987781],[106.3491210305814,10.779955512609513],[106.34934832839836,10.780079449513009],[106.3495231077864,10.780182350106541],[106.34971179073877,10.780282999598436],[106.34992660561822,10.780401336735792],[106.35012103019955,10.78051069937586],[106.35027649460253,10.780593385170246],[106.35045862579565,10.78068680506105],[106.3506116307548,10.780769540649455],[106.35080043077318,10.780873534367064],[106.35113690375121,10.78105951417912],[106.3512720097212,10.78113530453315],[106.35146960519997,10.781247770208127],[106.35161484119268,10.781318134234279],[106.35182896057015,10.78144006962232],[106.35200124001169,10.781532983316763]]},"properties":{"OBJECTID":4,"maNhanDang":"","phienBan":0,"ngayPhienBan":1787616000000,"giaTriDoChinhXacMatPhang":0,"nguyenNhanThayDoi":null,"maDoiTuong":"GE01","loaiHienTrangSuDung":1,"lienKetGiaoThong":9,"SHAPE_Length":385.90038789555501}},{"type":"Feature","id":5,"geometry":{"type":"LineString","coordinates":[[106.35702664184984,10.791989240436246],[106.3568050522406,10.792322759931329],[106.3566259804398,10.79259477714035],[106.3563612689436,10.792973815284439],[106.35608681222604,10.793368169606243],[106.35585982286857,10.793685783390364],[106.35539196884071,10.794354753181427],[106.35429662250397,10.795948642929574],[106.35362520092475,10.796943388219903],[106.35292614829609,10.797988811807087],[106.35267040622492,10.798340601929764],[106.35262246327447,10.798413820391],[106.35257918882984,10.798521584272114],[106.35242218090131,10.798845021059165]]},"properties":{"OBJECTID":5,"maNhanDang":"","phienBan":0,"ngayPhienBan":1787616000000,"giaTriDoChinhXacMatPhang":0,"nguyenNhanThayDoi":null,"maDoiTuong":"GE01","loaiHienTrangSuDung":1,"lienKetGiaoThong":9,"SHAPE_Length":911.01337547699018}},{"type":"Feature","id":6,"geometry":{"type":"LineString","coordinates":[[106.35706015502605,10.791996253754776],[106.35682801220564,10.792337603541139],[106.35664876720332,10.792609883289705],[106.35638385512367,10.792989207539259],[106.35610931454289,10.793383685001123],[106.35588230878659,10.793701322339402],[106.35541459703396,10.794370089366753],[106.35431937841855,10.795963792697027],[106.35364805353136,10.796958394997898],[106.35294873837606,10.798004211522606],[106.35269307109178,10.798355894833939],[106.35264696243152,10.798426314261349],[106.35260433587365,10.79853246940155],[106.35244691267478,10.79885675685864]]},"properties":{"OBJECTID":6,"maNhanDang":"","phienBan":0,"ngayPhienBan":1787616000000,"giaTriDoChinhXacMatPhang":0,"nguyenNhanThayDoi":null,"maDoiTuong":"GE01","loaiHienTrangSuDung":1,"lienKetGiaoThong":9,"SHAPE_Length":911.976808340709}}]
}