{
  "type" : "FeatureCollection",
  "features" : [{"type":"Feature","id":1,"geometry":{"type":"Point","coordinates":[106.35067903148831,10.770493711986308]},"properties":{"OBJECTID":1,"Entity":"Circle","Handle":"B4EA0","Layer":"MOC RANH","LyrFrzn":0,"LyrLock":0,"LyrOn":1,"LyrVPFrzn":0,"LyrHandle":"AD069","Color":6,"EntColor":6,"LyrColor":6,"BlkColor":0,"Linetype":"Continuous","EntLinetype":"ByLayer","LyrLnType":"Continuous","BlkLinetype":"","LTScale":0.20000000000000001,"Elevation":0,"Thickness":0,"LineWt":25,"EntLineWt":-1,"LyrLineWt":-3,"BlkLineWt":-1,"RefName":"","ExtX":0,"ExtY":0,"ExtZ":1,"DocName":"3-Khu-140ha-KHU DO THI SINH THAI 1_GIS.dwg","DocPath":"E:\\Work\\TEDI\\chiMuoiHai\\3-Khu-140ha-KHU DO THI SINH THAI 1_GIS.dwg","DocType":"DWG","DocVer":"AC1021","DocUpdate":1787762631000,"DocId":7712302381976638464,"GlobalWidth":null,"TENMOC":null,"CAODO":null,"ORIG_FID":219}},{"type":"Feature","id":2,"geometry":{"type":"Point","coordinates":[106.3490898866084,10.76960184251897]},"properties":{"OBJECTID":2,"Entity":"Circle","Handle":"B4EA1","Layer":"MOC RANH","LyrFrzn":0,"LyrLock":0,"LyrOn":1,"LyrVPFrzn":0,"LyrHandle":"AD069","Color":6,"EntColor":6,"LyrColor":6,"BlkColor":0,"Linetype":"Continuous","EntLinetype":"ByLayer","LyrLnType":"Continuous","BlkLinetype":"","LTScale":0.20000000000000001,"Elevation":0,"Thickness":0,"LineWt":25,"EntLineWt":-1,"LyrLineWt":-3,"BlkLineWt":-1,"RefName":"","ExtX":0,"ExtY":0,"ExtZ":1,"DocName":"3-Khu-140ha-KHU DO THI SINH THAI 1_GIS.dwg","DocPath":"E:\\Work\\TEDI\\chiMuoiHai\\3-Khu-140ha-KHU DO THI SINH THAI 1_GIS.dwg","DocType":"DWG","DocVer":"AC1021","DocUpdate":1787762631000,"DocId":7712302381976638464,"GlobalWidth":null,"TENMOC":null,"CAODO":null,"ORIG_FID":220}},{"type":"Feature","id":3,"geometry":{"type":"Point","coordinates":[106.34566422995843,10.76967776813925]},"properties":{"OBJECTID":3,"Entity":"Circle","Handle":"B4EA2","Layer":"MOC RANH","LyrFrzn":0,"LyrLock":0,"LyrOn":1,"LyrVPFrzn":0,"LyrHandle":"AD069","Color":6,"EntColor":6,"LyrColor":6,"BlkColor":0,"Linetype":"Continuous","EntLinetype":"ByLayer","LyrLnType":"Continuous","BlkLinetype":"","LTScale":0.20000000000000001,"Elevation":0,"Thickness":0,"LineWt":25,"EntLineWt":-1,"LyrLineWt":-3,"BlkLineWt":-1,"RefName":"","ExtX":0,"ExtY":0,"ExtZ":1,"DocName":"3-Khu-140ha-KHU DO THI SINH THAI 1_GIS.dwg","DocPath":"E:\\Work\\TEDI\\chiMuoiHai\\3-Khu-140ha-KHU DO THI SINH THAI 1_GIS.dwg","DocType":"DWG","DocVer":"AC1021","DocUpdate":1787762631000,"DocId":7712302381976638464,"GlobalWidth":null,"TENMOC":null,"CAODO":null,"ORIG_FID":221}},{"type":"Feature","id":4,"geometry":{"type":"Point","coordinates":[106.3438476150839,10.771711214778756]},"properties":{"OBJECTID":4,"Entity":"Circle","Handle":"B4EA3","Layer":"MOC RANH","LyrFrzn":0,"LyrLock":0,"LyrOn":1,"LyrVPFrzn":0,"LyrHandle":"AD069","Color":6,"EntColor":6,"LyrColor":6,"BlkColor":0,"Linetype":"Continuous","EntLinetype":"ByLayer","LyrLnType":"Continuous","BlkLinetype":"","LTScale":0.20000000000000001,"Elevation":0,"Thickness":0,"LineWt":25,"EntLineWt":-1,"LyrLineWt":-3,"BlkLineWt":-1,"RefName":"","ExtX":0,"ExtY":0,"ExtZ":1,"DocName":"3-Khu-140ha-KHU DO THI SINH THAI 1_GIS.dwg","DocPath":"E:\\Work\\TEDI\\chiMuoiHai\\3-Khu-140ha-KHU DO THI SINH THAI 1_GIS.dwg","DocType":"DWG","DocVer":"AC1021","DocUpdate":1787762631000,"DocId":7712302381976638464,"GlobalWidth":null,"TENMOC":null,"CAODO":null,"ORIG_FID":222}},{"type":"Feature","id":5,"geometry":{"type":"Point","coordinates":[106.33739807999572,10.768026341805038]},"properties":{"OBJECTID":5,"Entity":"Circle","Handle":"B4EA4","Layer":"MOC RANH","LyrFrzn":0,"LyrLock":0,"LyrOn":1,"LyrVPFrzn":0,"LyrHandle":"AD069","Color":6,"EntColor":6,"LyrColor":6,"BlkColor":0,"Linetype":"Continuous","EntLinetype":"ByLayer","LyrLnType":"Continuous","BlkLinetype":"","LTScale":0.20000000000000001,"Elevation":0,"Thickness":0,"LineWt":25,"EntLineWt":-1,"LyrLineWt":-3,"BlkLineWt":-1,"RefName":"","ExtX":0,"ExtY":0,"ExtZ":1,"DocName":"3-Khu-140ha-KHU DO THI SINH THAI 1_GIS.dwg","DocPath":"E:\\Work\\TEDI\\chiMuoiHai\\3-Khu-140ha-KHU DO THI SINH THAI 1_GIS.dwg","DocType":"DWG","DocVer":"AC1021","DocUpdate":1787762631000,"DocId":7712302381976638464,"GlobalWidth":null,"TENMOC":null,"CAODO":null,"ORIG_FID":223}}]
}