{
  "type" : "FeatureCollection",
  "features" : [{"type":"Feature","id":1,"geometry":{"type":"LineString","coordinates":[[106.35059627724576,10.770459637768003],[106.35087318937617,10.770619784579592]]},"properties":{"OBJECTID":1,"maNhanDang":"","phienBan":0,"ngayPhienBan":1787702400000,"giaTriDoChinhXacMatPhang":0,"nguyenNhanThayDoi":null,"maDoiTuong":"CR09","dienAp":0,"SHAPE_Length":35.084682125589588}},{"type":"Feature","id":2,"geometry":{"type":"LineString","coordinates":[[106.33125770793846,10.769511182814284],[106.33144586290912,10.769615669479126],[106.33179886328955,10.76981746061794],[106.33215846841534,10.770018691042216],[106.33252041232456,10.770223402837988],[106.3328739310702,10.770423007393774],[106.33322666572661,10.770622603954484],[106.33358518982169,10.770827494447282],[106.33392640834377,10.771023459274913],[106.3342873845165,10.771229637146293]]},"properties":{"OBJECTID":2,"maNhanDang":"","phienBan":0,"ngayPhienBan":1787702400000,"giaTriDoChinhXacMatPhang":0,"nguyenNhanThayDoi":null,"maDoiTuong":"CR09","dienAp":0,"SHAPE_Length":381.99284187789152}},{"type":"Feature","id":3,"geometry":{"type":"LineString","coordinates":[[106.33679137656668,10.772641345417146],[106.33715253076122,10.772844020533631],[106.33749608798252,10.773035669616391],[106.33785978069533,10.77324270041783]]},"properties":{"OBJECTID":3,"maNhanDang":"","phienBan":0,"ngayPhienBan":1787702400000,"giaTriDoChinhXacMatPhang":0,"nguyenNhanThayDoi":null,"maDoiTuong":"CR09","dienAp":0,"SHAPE_Length":134.45210084461203}},{"type":"Feature","id":4,"geometry":{"type":"LineString","coordinates":[[106.33785978069533,10.77324270041783],[106.33857206538025,10.77364714802256]]},"properties":{"OBJECTID":4,"maNhanDang":"","phienBan":0,"ngayPhienBan":1787702400000,"giaTriDoChinhXacMatPhang":0,"nguyenNhanThayDoi":null,"maDoiTuong":"CR09","dienAp":0,"SHAPE_Length":89.830068502657397}},{"type":"Feature","id":5,"geometry":{"type":"LineString","coordinates":[[106.33857206538025,10.77364714802256],[106.33928413428403,10.774045950908869]]},"properties":{"OBJECTID":5,"maNhanDang":"","phienBan":0,"ngayPhienBan":1787702400000,"giaTriDoChinhXacMatPhang":0,"nguyenNhanThayDoi":null,"maDoiTuong":"CR09","dienAp":0,"SHAPE_Length":89.500170503345828}},{"type":"Feature","id":6,"geometry":{"type":"LineString","coordinates":[[106.33928413428403,10.774045950908869],[106.3399955042746,10.77443801604103]]},"properties":{"OBJECTID":6,"maNhanDang":"","phienBan":0,"ngayPhienBan":1787702400000,"giaTriDoChinhXacMatPhang":0,"nguyenNhanThayDoi":null,"maDoiTuong":"CR09","dienAp":0,"SHAPE_Length":89.06838075337798}},{"type":"Feature","id":7,"geometry":{"type":"LineString","coordinates":[[106.3399955042746,10.77443801604103],[106.34071534466192,10.77484021993355]]},"properties":{"OBJECTID":7,"maNhanDang":"","phienBan":0,"ngayPhienBan":1787702400000,"giaTriDoChinhXacMatPhang":0,"nguyenNhanThayDoi":null,"maDoiTuong":"CR09","dienAp":0,"SHAPE_Length":90.424991431820288}},{"type":"Feature","id":8,"geometry":{"type":"LineString","coordinates":[[106.34071534466192,10.77484021993355],[106.34141798882409,10.775238446092528]]},"properties":{"OBJECTID":8,"maNhanDang":"","phienBan":0,"ngayPhienBan":1787702400000,"giaTriDoChinhXacMatPhang":0,"nguyenNhanThayDoi":null,"maDoiTuong":"CR09","dienAp":0,"SHAPE_Length":88.572806809482103}},{"type":"Feature","id":9,"geometry":{"type":"LineString","coordinates":[[106.34141798882409,10.775238446092528],[106.34213577985638,10.775642861806732]]},"properties":{"OBJECTID":9,"maNhanDang":"","phienBan":0,"ngayPhienBan":1787702400000,"giaTriDoChinhXacMatPhang":0,"nguyenNhanThayDoi":null,"maDoiTuong":"CR09","dienAp":0,"SHAPE_Length":90.350645182702735}},{"type":"Feature","id":10,"geometry":{"type":"LineString","coordinates":[[106.34213577985638,10.775642861806732],[106.34249765742227,10.775845311924845],[106.34284693404067,10.776037777335349]]},"properties":{"OBJECTID":10,"maNhanDang":"","phienBan":0,"ngayPhienBan":1787702400000,"giaTriDoChinhXacMatPhang":0,"nguyenNhanThayDoi":null,"maDoiTuong":"CR09","dienAp":0,"SHAPE_Length":89.201881401506427}},{"type":"Feature","id":11,"geometry":{"type":"LineString","coordinates":[[106.34284693404067,10.776037777335349],[106.34319658469957,10.776234255806255],[106.34354889741746,10.776431126560748]]},"properties":{"OBJECTID":11,"maNhanDang":"","phienBan":0,"ngayPhienBan":1787702400000,"giaTriDoChinhXacMatPhang":0,"nguyenNhanThayDoi":null,"maDoiTuong":"CR09","dienAp":0,"SHAPE_Length":88.240845077399001}},{"type":"Feature","id":12,"geometry":{"type":"LineString","coordinates":[[106.34354889741746,10.776431126560748],[106.34387129801837,10.776612413325932],[106.34424406426101,10.776817552696711],[106.34456770316756,10.77699575334193],[106.3446579500457,10.777050250944836],[106.34486025202433,10.777131348946664],[106.34511161045212,10.777216927325616],[106.345440307769,10.777260723178118],[106.34579958769143,10.777195760217973]]},"properties":{"OBJECTID":12,"maNhanDang":"","phienBan":0,"ngayPhienBan":1787702400000,"giaTriDoChinhXacMatPhang":0,"nguyenNhanThayDoi":null,"maDoiTuong":"CR09","dienAp":0,"SHAPE_Length":268.4585000103786}},{"type":"Feature","id":13,"geometry":{"type":"LineString","coordinates":[[106.34889403439429,10.77318058430305],[106.34901183040364,10.772989718710939]]},"properties":{"OBJECTID":13,"maNhanDang":"","phienBan":0,"ngayPhienBan":1787702400000,"giaTriDoChinhXacMatPhang":0,"nguyenNhanThayDoi":null,"maDoiTuong":"CR09","dienAp":0,"SHAPE_Length":24.731542046162168}},{"type":"Feature","id":14,"geometry":{"type":"LineString","coordinates":[[106.33679137656668,10.772641345417146],[106.33643184380912,10.772439033849446],[106.33607662506593,10.772241217904163],[106.33572062378251,10.772041359739763],[106.33535693836807,10.771832861610163],[106.33500557311498,10.771636407696665]]},"properties":{"OBJECTID":14,"maNhanDang":"","phienBan":0,"ngayPhienBan":1787702400000,"giaTriDoChinhXacMatPhang":0,"nguyenNhanThayDoi":null,"maDoiTuong":"CR09","dienAp":0,"SHAPE_Length":224.72203037163334}},{"type":"Feature","id":15,"geometry":{"type":"LineString","coordinates":[[106.33500557311498,10.771636407696665],[106.33465119630442,10.771434228855806],[106.3342873845165,10.771229637146293]]},"properties":{"OBJECTID":15,"maNhanDang":"","phienBan":0,"ngayPhienBan":1787702400000,"giaTriDoChinhXacMatPhang":0,"nguyenNhanThayDoi":null,"maDoiTuong":"CR09","dienAp":0,"SHAPE_Length":90.518826282898203}},{"type":"Feature","id":16,"geometry":{"type":"LineString","coordinates":[[106.35059627724576,10.770459637768003],[106.35087318937617,10.770619784579592]]},"properties":{"OBJECTID":16,"maNhanDang":"","phienBan":0,"ngayPhienBan":1787702400000,"giaTriDoChinhXacMatPhang":0,"nguyenNhanThayDoi":null,"maDoiTuong":"CR09","dienAp":0,"SHAPE_Length":35.084682125589588}},{"type":"Feature","id":17,"geometry":{"type":"LineString","coordinates":[[106.34579958769143,10.777195760217973],[106.34612021020664,10.777048634513942],[106.34640520031883,10.77679540891064],[106.34663668948104,10.776495752189184],[106.34674631248052,10.776336826777381],[106.34691721595601,10.776065928349976],[106.34708959702172,10.775788662146175],[106.34725410604629,10.775525849466337],[106.34742729921848,10.775248030032337],[106.34758885343118,10.774989445027334],[106.34775591329291,10.774722287526172],[106.34791915472924,10.774461764346572],[106.34809127552214,10.774187879478225],[106.34826495525084,10.773907165581058],[106.34843550630745,10.773635100810079],[106.34860920250864,10.773353780965982],[106.34888000544294,10.773197825423122],[106.34889403439429,10.77318058430305]]},"properties":{"OBJECTID":17,"maNhanDang":"","phienBan":0,"ngayPhienBan":1787702400000,"giaTriDoChinhXacMatPhang":0,"nguyenNhanThayDoi":null,"maDoiTuong":"CR09","dienAp":0,"SHAPE_Length":568.04712425059836}},{"type":"Feature","id":18,"geometry":{"type":"LineString","coordinates":[[106.34874735991851,10.77313419455437],[106.34874068940309,10.773143821611372],[106.34862030131345,10.773047451339266],[106.34846260709304,10.772948355771133],[106.34828697716873,10.772845797688094],[106.34811869599162,10.772751034912305],[106.34794434251769,10.772648358434282],[106.34777463962941,10.77254845750322],[106.34757861692955,10.772432423868052]]},"properties":{"OBJECTID":18,"maNhanDang":"","phienBan":0,"ngayPhienBan":1787702400000,"giaTriDoChinhXacMatPhang":0,"nguyenNhanThayDoi":null,"maDoiTuong":"CR09","dienAp":0,"SHAPE_Length":150.93249288856771}},{"type":"Feature","id":19,"geometry":{"type":"LineString","coordinates":[[106.34874735991851,10.77313419455437],[106.34886505394299,10.773160035920078],[106.34889403439429,10.77318058430305]]},"properties":{"OBJECTID":19,"maNhanDang":"","phienBan":0,"ngayPhienBan":1787702400000,"giaTriDoChinhXacMatPhang":0,"nguyenNhanThayDoi":null,"maDoiTuong":"CR09","dienAp":0,"SHAPE_Length":17.085277980829485}}]
}