{
  "type" : "FeatureCollection",
  "features" : [{"type":"Feature","id":1,"geometry":{"type":"Point","coordinates":[106.3520474245107,10.780670331340858]},"properties":{"OBJECTID":1,"maNhanDang":"DC","phienBan":0,"ngayPhienBan":1787616000000,"giaTriDoChinhXacMatPhang":0,"nguyenNhanThayDoi":null,"maDoiTuong":"BC03","soHieuDiem":"DC22","doCao":1.0529999999999999,"loaiMoc":1,"loaiCapHang":5}},{"type":"Feature","id":2,"geometry":{"type":"Point","coordinates":[106.35253337125218,10.777977963720661]},"properties":{"OBJECTID":2,"maNhanDang":"DC","phienBan":0,"ngayPhienBan":1787616000000,"giaTriDoChinhXacMatPhang":0,"nguyenNhanThayDoi":null,"maDoiTuong":"BC03","soHieuDiem":"DC32","doCao":1.905,"loaiMoc":1,"loaiCapHang":5}},{"type":"Feature","id":3,"geometry":{"type":"Point","coordinates":[106.35964980511277,10.787885961373789]},"properties":{"OBJECTID":3,"maNhanDang":"DC","phienBan":0,"ngayPhienBan":1787616000000,"giaTriDoChinhXacMatPhang":0,"nguyenNhanThayDoi":null,"maDoiTuong":"BC03","soHieuDiem":"DC36","doCao":1.742,"loaiMoc":1,"loaiCapHang":5}},{"type":"Feature","id":4,"geometry":{"type":"Point","coordinates":[106.35863104129153,10.789583026591613]},"properties":{"OBJECTID":4,"maNhanDang":"DC","phienBan":0,"ngayPhienBan":1787616000000,"giaTriDoChinhXacMatPhang":0,"nguyenNhanThayDoi":null,"maDoiTuong":"BC03","soHieuDiem":"DC37","doCao":1.7929999999999999,"loaiMoc":1,"loaiCapHang":5}},{"type":"Feature","id":5,"geometry":{"type":"Point","coordinates":[106.35748810597048,10.791220951700257]},"properties":{"OBJECTID":5,"maNhanDang":"DC","phienBan":0,"ngayPhienBan":1787616000000,"giaTriDoChinhXacMatPhang":0,"nguyenNhanThayDoi":null,"maDoiTuong":"BC03","soHieuDiem":"DC46","doCao":1.4359999999999999,"loaiMoc":1,"loaiCapHang":5}},{"type":"Feature","id":6,"geometry":{"type":"Point","coordinates":[106.35626852501672,10.793030059958525]},"properties":{"OBJECTID":6,"maNhanDang":"DC","phienBan":0,"ngayPhienBan":1787616000000,"giaTriDoChinhXacMatPhang":0,"nguyenNhanThayDoi":null,"maDoiTuong":"BC03","soHieuDiem":"DC47","doCao":1.536,"loaiMoc":1,"loaiCapHang":5}},{"type":"Feature","id":7,"geometry":{"type":"Point","coordinates":[106.35521461324885,10.794577167650674]},"properties":{"OBJECTID":7,"maNhanDang":"DC","phienBan":0,"ngayPhienBan":1787616000000,"giaTriDoChinhXacMatPhang":0,"nguyenNhanThayDoi":null,"maDoiTuong":"BC03","soHieuDiem":"DC48","doCao":1.5409999999999999,"loaiMoc":1,"loaiCapHang":5}},{"type":"Feature","id":8,"geometry":{"type":"Point","coordinates":[106.35388524871306,10.796511491577411]},"properties":{"OBJECTID":8,"maNhanDang":"DC","phienBan":0,"ngayPhienBan":1787616000000,"giaTriDoChinhXacMatPhang":0,"nguyenNhanThayDoi":null,"maDoiTuong":"BC03","soHieuDiem":"DC49","doCao":1.554,"loaiMoc":1,"loaiCapHang":5}},{"type":"Feature","id":9,"geometry":{"type":"Point","coordinates":[106.34983613698738,10.797099700410458]},"properties":{"OBJECTID":9,"maNhanDang":"DC","phienBan":0,"ngayPhienBan":1787616000000,"giaTriDoChinhXacMatPhang":0,"nguyenNhanThayDoi":null,"maDoiTuong":"BC03","soHieuDiem":"DC50","doCao":2.222,"loaiMoc":1,"loaiCapHang":5}},{"type":"Feature","id":10,"geometry":{"type":"Point","coordinates":[106.34772698232052,10.796007856315454]},"properties":{"OBJECTID":10,"maNhanDang":"DC","phienBan":0,"ngayPhienBan":1787616000000,"giaTriDoChinhXacMatPhang":0,"nguyenNhanThayDoi":null,"maDoiTuong":"BC03","soHieuDiem":"DC51","doCao":1.893,"loaiMoc":1,"loaiCapHang":5}},{"type":"Feature","id":11,"geometry":{"type":"Point","coordinates":[106.34596658977074,10.795073460817797]},"properties":{"OBJECTID":11,"maNhanDang":"DC","phienBan":0,"ngayPhienBan":1787616000000,"giaTriDoChinhXacMatPhang":0,"nguyenNhanThayDoi":null,"maDoiTuong":"BC03","soHieuDiem":"DC52","doCao":1.466,"loaiMoc":1,"loaiCapHang":5}},{"type":"Feature","id":12,"geometry":{"type":"Point","coordinates":[106.35080045018553,10.777029902784307]},"properties":{"OBJECTID":12,"maNhanDang":"DC","phienBan":0,"ngayPhienBan":1787616000000,"giaTriDoChinhXacMatPhang":0,"nguyenNhanThayDoi":null,"maDoiTuong":"BC03","soHieuDiem":"DC53","doCao":2.069,"loaiMoc":1,"loaiCapHang":5}},{"type":"Feature","id":13,"geometry":{"type":"Point","coordinates":[106.35008007840619,10.778343749110125]},"properties":{"OBJECTID":13,"maNhanDang":"DC","phienBan":0,"ngayPhienBan":1787616000000,"giaTriDoChinhXacMatPhang":0,"nguyenNhanThayDoi":null,"maDoiTuong":"BC03","soHieuDiem":"DC54","doCao":1.0369999999999999,"loaiMoc":1,"loaiCapHang":5}},{"type":"Feature","id":14,"geometry":{"type":"Point","coordinates":[106.35008142495559,10.78077224991949]},"properties":{"OBJECTID":14,"maNhanDang":"DC","phienBan":0,"ngayPhienBan":1787616000000,"giaTriDoChinhXacMatPhang":0,"nguyenNhanThayDoi":null,"maDoiTuong":"BC03","soHieuDiem":"DC55","doCao":1.7609999999999999,"loaiMoc":1,"loaiCapHang":5}},{"type":"Feature","id":15,"geometry":{"type":"Point","coordinates":[106.35174615759664,10.781672474793305]},"properties":{"OBJECTID":15,"maNhanDang":"DC","phienBan":0,"ngayPhienBan":1787616000000,"giaTriDoChinhXacMatPhang":0,"nguyenNhanThayDoi":null,"maDoiTuong":"BC03","soHieuDiem":"DC56","doCao":1.474,"loaiMoc":1,"loaiCapHang":5}},{"type":"Feature","id":16,"geometry":{"type":"Point","coordinates":[106.34692342559637,10.781095599691321]},"properties":{"OBJECTID":16,"maNhanDang":"DC","phienBan":0,"ngayPhienBan":1787616000000,"giaTriDoChinhXacMatPhang":0,"nguyenNhanThayDoi":null,"maDoiTuong":"BC03","soHieuDiem":"DC57","doCao":1.921,"loaiMoc":1,"loaiCapHang":5}},{"type":"Feature","id":17,"geometry":{"type":"Point","coordinates":[106.34607132844314,10.782479903780354]},"properties":{"OBJECTID":17,"maNhanDang":"DC","phienBan":0,"ngayPhienBan":1787616000000,"giaTriDoChinhXacMatPhang":0,"nguyenNhanThayDoi":null,"maDoiTuong":"BC03","soHieuDiem":"DC58","doCao":2.1429999999999998,"loaiMoc":1,"loaiCapHang":5}},{"type":"Feature","id":18,"geometry":{"type":"Point","coordinates":[106.34524870943444,10.784085481194902]},"properties":{"OBJECTID":18,"maNhanDang":"DC","phienBan":0,"ngayPhienBan":1787616000000,"giaTriDoChinhXacMatPhang":0,"nguyenNhanThayDoi":null,"maDoiTuong":"BC03","soHieuDiem":"DC59","doCao":2.2069999999999999,"loaiMoc":1,"loaiCapHang":5}},{"type":"Feature","id":19,"geometry":{"type":"Point","coordinates":[106.3440915457825,10.785500283336566]},"properties":{"OBJECTID":19,"maNhanDang":"DC","phienBan":0,"ngayPhienBan":1787616000000,"giaTriDoChinhXacMatPhang":0,"nguyenNhanThayDoi":null,"maDoiTuong":"BC03","soHieuDiem":"DC60","doCao":2.3199999999999998,"loaiMoc":1,"loaiCapHang":5}},{"type":"Feature","id":20,"geometry":{"type":"Point","coordinates":[106.34302158894688,10.787176786363796]},"properties":{"OBJECTID":20,"maNhanDang":"DC","phienBan":0,"ngayPhienBan":1787616000000,"giaTriDoChinhXacMatPhang":0,"nguyenNhanThayDoi":null,"maDoiTuong":"BC03","soHieuDiem":"DC61","doCao":1.6619999999999999,"loaiMoc":1,"loaiCapHang":5}},{"type":"Feature","id":21,"geometry":{"type":"Point","coordinates":[106.34221842919123,10.788806232827037]},"properties":{"OBJECTID":21,"maNhanDang":"DC","phienBan":0,"ngayPhienBan":1787616000000,"giaTriDoChinhXacMatPhang":0,"nguyenNhanThayDoi":null,"maDoiTuong":"BC03","soHieuDiem":"DC62","doCao":2.1850000000000001,"loaiMoc":1,"loaiCapHang":5}},{"type":"Feature","id":22,"geometry":{"type":"Point","coordinates":[106.34118534748303,10.790547998844616]},"properties":{"OBJECTID":22,"maNhanDang":"DC","phienBan":0,"ngayPhienBan":1787616000000,"giaTriDoChinhXacMatPhang":0,"nguyenNhanThayDoi":null,"maDoiTuong":"BC03","soHieuDiem":"DC63","doCao":2.476,"loaiMoc":1,"loaiCapHang":5}},{"type":"Feature","id":23,"geometry":{"type":"Point","coordinates":[106.35089233965856,10.778686183550434]},"properties":{"OBJECTID":23,"maNhanDang":"DC","phienBan":0,"ngayPhienBan":1787616000000,"giaTriDoChinhXacMatPhang":0,"nguyenNhanThayDoi":null,"maDoiTuong":"BC03","soHieuDiem":"DC64","doCao":1.284,"loaiMoc":1,"loaiCapHang":5}},{"type":"Feature","id":24,"geometry":{"type":"Point","coordinates":[106.35169778012019,10.779548077679276]},"properties":{"OBJECTID":24,"maNhanDang":"DC","phienBan":0,"ngayPhienBan":1787616000000,"giaTriDoChinhXacMatPhang":0,"nguyenNhanThayDoi":null,"maDoiTuong":"BC03","soHieuDiem":"DC65","doCao":1.5569999999999999,"loaiMoc":1,"loaiCapHang":5}},{"type":"Feature","id":25,"geometry":{"type":"Point","coordinates":[106.35321836285026,10.797619378367354]},"properties":{"OBJECTID":25,"maNhanDang":"DC","phienBan":0,"ngayPhienBan":1787616000000,"giaTriDoChinhXacMatPhang":0,"nguyenNhanThayDoi":null,"maDoiTuong":"BC03","soHieuDiem":"DC69","doCao":1.7829999999999999,"loaiMoc":1,"loaiCapHang":5}},{"type":"Feature","id":26,"geometry":{"type":"Point","coordinates":[106.35195868443674,10.79813171535935]},"properties":{"OBJECTID":26,"maNhanDang":"GPS","phienBan":0,"ngayPhienBan":1787616000000,"giaTriDoChinhXacMatPhang":0,"nguyenNhanThayDoi":null,"maDoiTuong":"BC03","soHieuDiem":"GPS04","doCao":2.008,"loaiMoc":1,"loaiCapHang":5}},{"type":"Feature","id":27,"geometry":{"type":"Point","coordinates":[106.34871977887157,10.780021039841417]},"properties":{"OBJECTID":27,"maNhanDang":"GPS","phienBan":0,"ngayPhienBan":1787616000000,"giaTriDoChinhXacMatPhang":0,"nguyenNhanThayDoi":null,"maDoiTuong":"BC03","soHieuDiem":"GPS03","doCao":1.4139999999999999,"loaiMoc":1,"loaiCapHang":5}}]
}