{"type":"FeatureCollection","features":[{"type":"Feature","id":1,"geometry":{"type":"Polygon","coordinates":[[[106.35174410868842,10.797515586828958],[106.35149658539264,10.79797992175064],[106.34757996366291,10.795965056570003],[106.34733399523522,10.795837963666111],[106.34542012611765,10.794848993427195],[106.34553869639029,10.794625547355063],[106.34541214640826,10.794559945584329],[106.34623043657068,10.793018022318064],[106.34584960905927,10.791127888277494],[106.34448283012867,10.791397077260443],[106.34439795588067,10.79141061367616],[106.34431231792826,10.791417894722239],[106.34422637667346,10.791418881254726],[106.34414059414884,10.791413567969881],[106.34405543153368,10.791401983432689],[106.34397134667446,10.791384189923294],[106.34388879162357,10.791360283102176],[106.34380821020888,10.791330391495856],[106.34373003564768,10.791294675805929],[106.34365468821774,10.791253328045103],[106.34246000377286,10.79053850207757],[106.34616579880596,10.784550838569055],[106.35001045946329,10.778338517230651],[106.35108364587309,10.77660437921708],[106.35264860635154,10.777540782524273],[106.35065155528534,10.780803791779531],[106.35155113511613,10.781341983269554],[106.3514091003679,10.781574051349756],[106.35138031775789,10.781622719645295],[106.35135789114044,10.78167462425453],[106.3513421773752,10.781728939254412],[106.35133342650474,10.781784800366967],[106.35133177777573,10.781841318711979],[106.35133725742331,10.781897594951126],[106.35134977825352,10.781952733598558],[106.35136914103086,10.782005857270157],[106.35139503764847,10.782056120644752],[106.35142705603097,10.782102723915155],[106.35146468669141,10.782144925514944],[106.35149218787838,10.782177110773192],[106.35151390398177,10.782213451067449],[106.35152922028945,10.782252917722388],[106.35153770324666,10.782294393565602],[106.35153911272852,10.782336704551103],[106.35153340883717,10.782378652992751],[106.35152075303121,10.782419051466839],[106.35150150355527,10.782456756424194],[106.34991083419216,10.785017787749332],[106.35379540021056,10.787193084096206],[106.35728704425225,10.789282194447692],[106.35680809501383,10.790001298193955],[106.35664216156985,10.790254942192751],[106.35648044772253,10.790511297059183],[106.35632299774917,10.790770292603243],[106.35616985475959,10.791031857911905],[106.35602106068434,10.791295921368542],[106.35587665626331,10.791562410672531],[106.35290424577919,10.797158070471362],[106.35286602974375,10.797222307565669],[106.35282240746163,10.797283003250458],[106.35277370506587,10.7973397037469],[106.35272028666994,10.797391985145364],[106.35266255164551,10.797439456574704],[106.35260093163664,10.797481763124521],[106.35253588733269,10.797518588498573],[106.35246790502406,10.797549657379507],[106.35239749296652,10.797574737487214],[106.35232517758138,10.797593641315411],[106.35225149951975,10.797606227533507],[106.35217700962058,10.797612402043224],[106.35210226479229,10.797612118682109],[106.35202782384926,10.797605379568651],[106.35195424333392,10.797592235086451],[106.35188207335591,10.797572783507531],[106.35181185347923,10.797547170257632],[106.35174410868842,10.797515586828958]]]},"properties":{"OBJECTID":1,"Shape_Length":6745.2478478723306,"Shape_Area":1665000.0414382578}}]}